{
 "type": "FeatureCollection",
 "metadata": {
  "titulo": "Monitoreo del corredor: traducción de carga difusa a concentración (Actividad 5)",
  "generado": "2026-10-01",
  "generador": "scripts/build_monitoreo_corredor.py",
  "factor_emision_n_kg_ha_ano": 9.568,
  "factor_emision_p_kg_ha_ano": 1.3758416,
  "retencion": {
   "base": 1.0,
   "esc1": 0.8,
   "esc2": 0.6
  },
  "condicion_hidrologica": "Promedio",
  "umbral_dominancia_puntual": 0.5,
  "verificacion": "docs/monitoreo_corredor.xlsx",
  "inventario_vertimientos": "docs/Tasas retributivas.xlsx (CVC; DBO5/SST, sin N ni P)"
 },
 "features": [
  {
   "type": "Feature",
   "geometry": {
    "type": "Point",
    "coordinates": [
     -76.26564,
     3.611248
    ]
   },
   "properties": {
    "grupo": "ejercicio",
    "rio": "Rio Amaime",
    "rio_display": "Río Amaime",
    "etiqueta": "Amaime 1",
    "subtramo": 1,
    "posicion_tabla_5_2": "12",
    "categoria": "Alta",
    "delimitacion": "Rio Amaime - Despues Caserio Auji → Rio Amaime - Antes Caserio el Placer",
    "area_cana_ha": 708.2,
    "estacion": "Rio Amaime - Antes Caserio el Placer",
    "km_estacion": 43.85,
    "motivo_seleccion": "Estación de cierre del subtramo (la más aguas abajo del tramo); registros NT n=8, PT n=19",
    "estacion_hidro": "Amaime",
    "relacion_hidro": "0,8 km aguas abajo — serie 2015–2023",
    "q_promedio_m3s": 9.349232111692844,
    "q_verano_m3s": 1.010582191780822,
    "q_transicion_m3s": 5.61248872858431,
    "q_invierno_m3s": 22.359125,
    "carga_n_base_kg_d": 18.56,
    "carga_n_esc1_kg_d": 14.85,
    "carga_n_esc2_kg_d": 11.14,
    "carga_p_base_kg_d": 2.67,
    "carga_p_esc1_kg_d": 2.14,
    "carga_p_esc2_kg_d": 1.6,
    "conc_n_base_mg_l": 0.023,
    "conc_n_esc1_mg_l": 0.0184,
    "conc_n_esc2_mg_l": 0.0138,
    "conc_p_base_mg_l": 0.0033,
    "conc_p_esc1_mg_l": 0.0026,
    "conc_p_esc2_mg_l": 0.002,
    "nt_hist_mg_l": 1.1945,
    "n_nt": 8,
    "pt_hist_mg_l": 0.1461,
    "n_pt": 19,
    "cociente_n": 0.019,
    "cociente_p": 0.023,
    "pct_puntual_n": null,
    "pct_puntual_p": null,
    "tramo_porh": null,
    "situacion_puntual": "con_vertimientos",
    "n_vertimientos": 3,
    "registros_vertimientos": [
     "187",
     "188",
     "189"
    ],
    "q_vertido_l_s": 0.23,
    "carga_dbo5_kg_d": 0.11,
    "carga_sst_kg_d": 0.2,
    "criterio_dominancia": "Pendiente: DBO5/SST sin factor de conversión a N validado; requiere definición de la dirección del proyecto",
    "estado": "Pendiente",
    "motivo_exclusion": "Pendiente: DBO5/SST sin factor de conversión a N validado; requiere definición de la dirección del proyecto"
   }
  },
  {
   "type": "Feature",
   "geometry": {
    "type": "Point",
    "coordinates": [
     -76.408735,
     3.665939
    ]
   },
   "properties": {
    "grupo": "ejercicio",
    "rio": "Rio Amaime",
    "rio_display": "Río Amaime",
    "etiqueta": "Amaime 3",
    "subtramo": 3,
    "posicion_tabla_5_2": "2",
    "categoria": "Muy alta",
    "delimitacion": "Rio Amaime - Antes desembocadura de Rio Nima → Rio Amaime - antes Desembocadura a Rio Cauca",
    "area_cana_ha": 2684.17,
    "estacion": "Rio Amaime - antes Desembocadura a Rio Cauca",
    "km_estacion": 79.92,
    "motivo_seleccion": "Estación de cierre del subtramo (la más aguas abajo del tramo); registros NT n=7, PT n=19",
    "estacion_hidro": "Amaime",
    "relacion_hidro": "35,3 km aguas arriba — serie 2015–2023",
    "q_promedio_m3s": 9.349232111692844,
    "q_verano_m3s": 1.010582191780822,
    "q_transicion_m3s": 5.61248872858431,
    "q_invierno_m3s": 22.359125,
    "carga_n_base_kg_d": 70.36,
    "carga_n_esc1_kg_d": 56.29,
    "carga_n_esc2_kg_d": 42.22,
    "carga_p_base_kg_d": 10.12,
    "carga_p_esc1_kg_d": 8.09,
    "carga_p_esc2_kg_d": 6.07,
    "conc_n_base_mg_l": 0.0871,
    "conc_n_esc1_mg_l": 0.0697,
    "conc_n_esc2_mg_l": 0.0523,
    "conc_p_base_mg_l": 0.0125,
    "conc_p_esc1_mg_l": 0.01,
    "conc_p_esc2_mg_l": 0.0075,
    "nt_hist_mg_l": 1.6771,
    "n_nt": 7,
    "pt_hist_mg_l": 0.2159,
    "n_pt": 19,
    "cociente_n": 0.052,
    "cociente_p": 0.058,
    "pct_puntual_n": null,
    "pct_puntual_p": null,
    "tramo_porh": null,
    "situacion_puntual": "con_vertimientos",
    "n_vertimientos": 1,
    "registros_vertimientos": [
     "132"
    ],
    "q_vertido_l_s": 43.0,
    "carga_dbo5_kg_d": 902.34,
    "carga_sst_kg_d": 798.04,
    "criterio_dominancia": "Pendiente: DBO5/SST sin factor de conversión a N validado; requiere definición de la dirección del proyecto",
    "estado": "Pendiente",
    "motivo_exclusion": "Pendiente: DBO5/SST sin factor de conversión a N validado; requiere definición de la dirección del proyecto"
   }
  },
  {
   "type": "Feature",
   "geometry": {
    "type": "Point",
    "coordinates": [
     -76.3362,
     3.459193
    ]
   },
   "properties": {
    "grupo": "ejercicio",
    "rio": "Rio Bolo",
    "rio_display": "Río Bolo",
    "etiqueta": "Bolo 2",
    "subtramo": 2,
    "posicion_tabla_5_2": "7",
    "categoria": "Muy alta",
    "delimitacion": "Rio Bolo - Puente Pradera - Palmira → Rio Bolo - Puente Bolo - San Isidro - vía a Candelaria",
    "area_cana_ha": 1614.77,
    "estacion": "Rio Bolo - Puente Bolo - San Isidro - vía a Candelaria",
    "km_estacion": 30.02,
    "motivo_seleccion": "Estación de cierre del subtramo (la más aguas abajo del tramo); registros NT n=6, PT n=16",
    "estacion_hidro": "Arriba",
    "relacion_hidro": "7,6 km aguas arriba — suspendida; serie 2015–2022",
    "q_promedio_m3s": 7.761741613133476,
    "q_verano_m3s": 3.618256772673734,
    "q_transicion_m3s": 6.47529200359389,
    "q_invierno_m3s": 13.654166666666667,
    "carga_n_base_kg_d": 42.33,
    "carga_n_esc1_kg_d": 33.86,
    "carga_n_esc2_kg_d": 25.4,
    "carga_p_base_kg_d": 6.09,
    "carga_p_esc1_kg_d": 4.87,
    "carga_p_esc2_kg_d": 3.65,
    "conc_n_base_mg_l": 0.0631,
    "conc_n_esc1_mg_l": 0.0505,
    "conc_n_esc2_mg_l": 0.0379,
    "conc_p_base_mg_l": 0.0091,
    "conc_p_esc1_mg_l": 0.0073,
    "conc_p_esc2_mg_l": 0.0054,
    "nt_hist_mg_l": 3.0892,
    "n_nt": 6,
    "pt_hist_mg_l": 0.1478,
    "n_pt": 16,
    "cociente_n": 0.02,
    "cociente_p": 0.061,
    "pct_puntual_n": 39.3,
    "pct_puntual_p": 46.0,
    "tramo_porh": "GB2 → GB4",
    "situacion_puntual": null,
    "n_vertimientos": null,
    "registros_vertimientos": null,
    "q_vertido_l_s": null,
    "carga_dbo5_kg_d": null,
    "carga_sst_kg_d": null,
    "criterio_dominancia": "Riguroso: Tabla 4.10 (puntual frente a difusa QUAL2Kw)",
    "estado": "Incluida",
    "motivo_exclusion": null
   }
  },
  {
   "type": "Feature",
   "geometry": {
    "type": "Point",
    "coordinates": [
     -76.448059,
     3.49987
    ]
   },
   "properties": {
    "grupo": "ejercicio",
    "rio": "Rio Bolo",
    "rio_display": "Río Bolo",
    "etiqueta": "Bolo 3",
    "subtramo": 3,
    "posicion_tabla_5_2": "5",
    "categoria": "Muy alta",
    "delimitacion": "Rio Bolo - Puente Bolo - San Isidro - vía a Candelaria → Rio Bolo - Antes desembocadura a Frayle en puente Recta Cali - Palmira",
    "area_cana_ha": 1884.46,
    "estacion": "Rio Bolo - Antes desembocadura a Frayle en puente Recta Cali - Palmira",
    "km_estacion": 45.85,
    "motivo_seleccion": "Estación de cierre del subtramo (la más aguas abajo del tramo); registros NT n=6, PT n=16",
    "estacion_hidro": "Arriba",
    "relacion_hidro": "23,4 km aguas arriba — suspendida; serie 2015–2022",
    "q_promedio_m3s": 7.761741613133476,
    "q_verano_m3s": 3.618256772673734,
    "q_transicion_m3s": 6.47529200359389,
    "q_invierno_m3s": 13.654166666666667,
    "carga_n_base_kg_d": 49.4,
    "carga_n_esc1_kg_d": 39.52,
    "carga_n_esc2_kg_d": 29.64,
    "carga_p_base_kg_d": 7.1,
    "carga_p_esc1_kg_d": 5.68,
    "carga_p_esc2_kg_d": 4.26,
    "conc_n_base_mg_l": 0.0737,
    "conc_n_esc1_mg_l": 0.0589,
    "conc_n_esc2_mg_l": 0.0442,
    "conc_p_base_mg_l": 0.0106,
    "conc_p_esc1_mg_l": 0.0085,
    "conc_p_esc2_mg_l": 0.0064,
    "nt_hist_mg_l": 3.014,
    "n_nt": 6,
    "pt_hist_mg_l": 0.2858,
    "n_pt": 16,
    "cociente_n": 0.024,
    "cociente_p": 0.037,
    "pct_puntual_n": 6.8,
    "pct_puntual_p": 22.7,
    "tramo_porh": "GB4 → GB5",
    "situacion_puntual": null,
    "n_vertimientos": null,
    "registros_vertimientos": null,
    "q_vertido_l_s": null,
    "carga_dbo5_kg_d": null,
    "carga_sst_kg_d": null,
    "criterio_dominancia": "Riguroso: Tabla 4.10 (puntual frente a difusa QUAL2Kw)",
    "estado": "Incluida",
    "motivo_exclusion": null
   }
  },
  {
   "type": "Feature",
   "geometry": {
    "type": "Point",
    "coordinates": [
     -76.164733,
     4.257935
    ]
   },
   "properties": {
    "grupo": "ejercicio",
    "rio": "Rio Bugalagrande",
    "rio_display": "Río Bugalagrande",
    "etiqueta": "Bugalagrande 3",
    "subtramo": 3,
    "posicion_tabla_5_2": "9",
    "categoria": "Alta",
    "delimitacion": "Rio Bugalagrande - Puente Variante Bugalagrande → Rio Bugalagrande - antes desembocadura a Río Cauca - Hacienda El Guayabo",
    "area_cana_ha": 1168.72,
    "estacion": "Rio Bugalagrande - antes desembocadura a Río Cauca - Hacienda El Guayabo",
    "km_estacion": 93.32,
    "motivo_seleccion": "Estación de cierre del subtramo (la más aguas abajo del tramo); registros NT n=7, PT n=18",
    "estacion_hidro": "El Placer",
    "relacion_hidro": "24,8 km aguas arriba — fuera de la zona cañera",
    "q_promedio_m3s": 13.76646283309958,
    "q_verano_m3s": 5.187972093023255,
    "q_transicion_m3s": 11.14107519325369,
    "q_invierno_m3s": 25.910609184629802,
    "carga_n_base_kg_d": 30.64,
    "carga_n_esc1_kg_d": 24.51,
    "carga_n_esc2_kg_d": 18.38,
    "carga_p_base_kg_d": 4.41,
    "carga_p_esc1_kg_d": 3.52,
    "carga_p_esc2_kg_d": 2.64,
    "conc_n_base_mg_l": 0.0258,
    "conc_n_esc1_mg_l": 0.0206,
    "conc_n_esc2_mg_l": 0.0155,
    "conc_p_base_mg_l": 0.0037,
    "conc_p_esc1_mg_l": 0.003,
    "conc_p_esc2_mg_l": 0.0022,
    "nt_hist_mg_l": 2.1499,
    "n_nt": 7,
    "pt_hist_mg_l": 0.1281,
    "n_pt": 18,
    "cociente_n": 0.012,
    "cociente_p": 0.029,
    "pct_puntual_n": null,
    "pct_puntual_p": null,
    "tramo_porh": null,
    "situacion_puntual": "con_vertimientos",
    "n_vertimientos": 4,
    "registros_vertimientos": [
     "002",
     "003",
     "004",
     "020"
    ],
    "q_vertido_l_s": 80.42,
    "carga_dbo5_kg_d": 1549.68,
    "carga_sst_kg_d": 5143.79,
    "criterio_dominancia": "Pendiente: DBO5/SST sin factor de conversión a N validado; requiere definición de la dirección del proyecto",
    "estado": "Pendiente",
    "motivo_exclusion": "Pendiente: DBO5/SST sin factor de conversión a N validado; requiere definición de la dirección del proyecto"
   }
  },
  {
   "type": "Feature",
   "geometry": {
    "type": "Point",
    "coordinates": [
     -76.306056,
     3.286
    ]
   },
   "properties": {
    "grupo": "ejercicio",
    "rio": "Rio Desbaratado",
    "rio_display": "Río Desbaratado",
    "etiqueta": "Desbaratado 1",
    "subtramo": 1,
    "posicion_tabla_5_2": "15",
    "categoria": "Alta",
    "delimitacion": "Antes de bocatoma cabecera Miranda → Antes de porcícola (Pte. Jordán)",
    "area_cana_ha": 1181.63,
    "estacion": "Antes de porcícola (Pte. Jordán)",
    "km_estacion": 40.93,
    "motivo_seleccion": "Estación de cierre del subtramo (la más aguas abajo del tramo); registros NT n=9, PT n=11",
    "estacion_hidro": "Ortigal",
    "relacion_hidro": "7,2 km aguas abajo — suspendida; serie 2015–2023",
    "q_promedio_m3s": 1.3500345260514752,
    "q_verano_m3s": 0.46604696673189827,
    "q_transicion_m3s": 1.0533502538071065,
    "q_invierno_m3s": 2.6271384928716905,
    "carga_n_base_kg_d": 30.97,
    "carga_n_esc1_kg_d": 24.78,
    "carga_n_esc2_kg_d": 18.58,
    "carga_p_base_kg_d": 4.45,
    "carga_p_esc1_kg_d": 3.56,
    "carga_p_esc2_kg_d": 2.67,
    "conc_n_base_mg_l": 0.2656,
    "conc_n_esc1_mg_l": 0.2124,
    "conc_n_esc2_mg_l": 0.1593,
    "conc_p_base_mg_l": 0.0382,
    "conc_p_esc1_mg_l": 0.0305,
    "conc_p_esc2_mg_l": 0.0229,
    "nt_hist_mg_l": 0.5233,
    "n_nt": 9,
    "pt_hist_mg_l": 0.1936,
    "n_pt": 11,
    "cociente_n": 0.507,
    "cociente_p": 0.197,
    "pct_puntual_n": null,
    "pct_puntual_p": null,
    "tramo_porh": null,
    "situacion_puntual": "sin_vertimientos_digitalizados",
    "n_vertimientos": 0,
    "registros_vertimientos": [],
    "q_vertido_l_s": 0,
    "carga_dbo5_kg_d": 0.0,
    "carga_sst_kg_d": 0.0,
    "criterio_dominancia": "Sin vertimientos puntuales digitalizados en el tramo",
    "estado": "Pendiente",
    "motivo_exclusion": "Sin vertimientos puntuales digitalizados en el tramo"
   }
  },
  {
   "type": "Feature",
   "geometry": {
    "type": "Point",
    "coordinates": [
     -76.319861,
     3.281778
    ]
   },
   "properties": {
    "grupo": "ejercicio",
    "rio": "Rio Desbaratado",
    "rio_display": "Río Desbaratado",
    "etiqueta": "Desbaratado 2",
    "subtramo": 2,
    "posicion_tabla_5_2": "10",
    "categoria": "Muy alta",
    "delimitacion": "Antes de porcícola (Pte. Jordán) → Puente Ortigal",
    "area_cana_ha": 2505.77,
    "estacion": "Puente Ortigal",
    "km_estacion": 43.74,
    "motivo_seleccion": "Estación de cierre del subtramo (la más aguas abajo del tramo); registros NT n=9, PT n=11",
    "estacion_hidro": "Ortigal",
    "relacion_hidro": "4,4 km aguas abajo — suspendida; serie 2015–2023",
    "q_promedio_m3s": 1.3500345260514752,
    "q_verano_m3s": 0.46604696673189827,
    "q_transicion_m3s": 1.0533502538071065,
    "q_invierno_m3s": 2.6271384928716905,
    "carga_n_base_kg_d": 65.69,
    "carga_n_esc1_kg_d": 52.55,
    "carga_n_esc2_kg_d": 39.41,
    "carga_p_base_kg_d": 9.45,
    "carga_p_esc1_kg_d": 7.56,
    "carga_p_esc2_kg_d": 5.67,
    "conc_n_base_mg_l": 0.5631,
    "conc_n_esc1_mg_l": 0.4505,
    "conc_n_esc2_mg_l": 0.3379,
    "conc_p_base_mg_l": 0.081,
    "conc_p_esc1_mg_l": 0.0648,
    "conc_p_esc2_mg_l": 0.0486,
    "nt_hist_mg_l": 0.7078,
    "n_nt": 9,
    "pt_hist_mg_l": 0.3327,
    "n_pt": 11,
    "cociente_n": 0.796,
    "cociente_p": 0.243,
    "pct_puntual_n": null,
    "pct_puntual_p": null,
    "tramo_porh": null,
    "situacion_puntual": "con_vertimientos",
    "n_vertimientos": 1,
    "registros_vertimientos": [
     "122"
    ],
    "q_vertido_l_s": 3.24,
    "carga_dbo5_kg_d": 21.16,
    "carga_sst_kg_d": 9.69,
    "criterio_dominancia": "Pendiente: DBO5/SST sin factor de conversión a N validado; requiere definición de la dirección del proyecto",
    "estado": "Pendiente",
    "motivo_exclusion": "Pendiente: DBO5/SST sin factor de conversión a N validado; requiere definición de la dirección del proyecto"
   }
  },
  {
   "type": "Feature",
   "geometry": {
    "type": "Point",
    "coordinates": [
     -76.349164,
     3.373742
    ]
   },
   "properties": {
    "grupo": "ejercicio",
    "rio": "Rio Fraile",
    "rio_display": "Río Fraile",
    "etiqueta": "Fraile 2",
    "subtramo": 2,
    "posicion_tabla_5_2": "4",
    "categoria": "Muy alta",
    "delimitacion": "Rio Frayle - Puente Vía a Miranda → Rio Frayle - Limnigrafo CVC - caserio Brisas de Frayle",
    "area_cana_ha": 1960.56,
    "estacion": "Rio Frayle - Limnigrafo CVC - caserio Brisas de Frayle",
    "km_estacion": 52.14,
    "motivo_seleccion": "Estación de cierre del subtramo (la más aguas abajo del tramo); registros NT n=6, PT n=16",
    "estacion_hidro": "Buichitolo",
    "relacion_hidro": "Coincidente (0,1 km) — serie 2015–2022",
    "q_promedio_m3s": 5.035113592606854,
    "q_verano_m3s": 0.7281313131313131,
    "q_transicion_m3s": 3.271488326848249,
    "q_invierno_m3s": 11.7585842985843,
    "carga_n_base_kg_d": 51.39,
    "carga_n_esc1_kg_d": 41.11,
    "carga_n_esc2_kg_d": 30.84,
    "carga_p_base_kg_d": 7.39,
    "carga_p_esc1_kg_d": 5.91,
    "carga_p_esc2_kg_d": 4.43,
    "conc_n_base_mg_l": 0.1181,
    "conc_n_esc1_mg_l": 0.0945,
    "conc_n_esc2_mg_l": 0.0709,
    "conc_p_base_mg_l": 0.017,
    "conc_p_esc1_mg_l": 0.0136,
    "conc_p_esc2_mg_l": 0.0102,
    "nt_hist_mg_l": 2.1867,
    "n_nt": 6,
    "pt_hist_mg_l": 0.2226,
    "n_pt": 16,
    "cociente_n": 0.054,
    "cociente_p": 0.076,
    "pct_puntual_n": 94.0,
    "pct_puntual_p": 94.8,
    "tramo_porh": "GF2 → GF3",
    "situacion_puntual": null,
    "n_vertimientos": null,
    "registros_vertimientos": null,
    "q_vertido_l_s": null,
    "carga_dbo5_kg_d": null,
    "carga_sst_kg_d": null,
    "criterio_dominancia": "Aproximado: difusa QUAL2Kw no definida en el tramo; contraste con la difusa por factor de emisión",
    "estado": "Excluida",
    "motivo_exclusion": "Carga puntual dominante (94,0 % de la carga total de N; Aproximado: difusa QUAL2Kw no definida en el tramo; contraste con la difusa por factor de emisión)"
   }
  },
  {
   "type": "Feature",
   "geometry": {
    "type": "Point",
    "coordinates": [
     -76.455438,
     3.498186
    ]
   },
   "properties": {
    "grupo": "ejercicio",
    "rio": "Rio Fraile",
    "rio_display": "Río Fraile",
    "etiqueta": "Fraile 3",
    "subtramo": 3,
    "posicion_tabla_5_2": "1",
    "categoria": "Muy alta",
    "delimitacion": "Rio Frayle - Limnigrafo CVC - caserio Brisas de Frayle → Rio Frayle - Antes Desembocadura a rio Guachal Recta Cali Palmira",
    "area_cana_ha": 2950.9,
    "estacion": "Rio Frayle - Antes Desembocadura a rio Guachal Recta Cali Palmira",
    "km_estacion": 77.77,
    "motivo_seleccion": "Estación de cierre del subtramo (la más aguas abajo del tramo); registros NT n=6, PT n=15",
    "estacion_hidro": "Buichitolo",
    "relacion_hidro": "25,5 km aguas arriba — serie 2015–2022",
    "q_promedio_m3s": 5.035113592606854,
    "q_verano_m3s": 0.7281313131313131,
    "q_transicion_m3s": 3.271488326848249,
    "q_invierno_m3s": 11.7585842985843,
    "carga_n_base_kg_d": 77.35,
    "carga_n_esc1_kg_d": 61.88,
    "carga_n_esc2_kg_d": 46.41,
    "carga_p_base_kg_d": 11.12,
    "carga_p_esc1_kg_d": 8.9,
    "carga_p_esc2_kg_d": 6.67,
    "conc_n_base_mg_l": 0.1778,
    "conc_n_esc1_mg_l": 0.1422,
    "conc_n_esc2_mg_l": 0.1067,
    "conc_p_base_mg_l": 0.0256,
    "conc_p_esc1_mg_l": 0.0205,
    "conc_p_esc2_mg_l": 0.0153,
    "nt_hist_mg_l": 3.1933,
    "n_nt": 6,
    "pt_hist_mg_l": 0.4108,
    "n_pt": 15,
    "cociente_n": 0.056,
    "cociente_p": 0.062,
    "pct_puntual_n": 77.8,
    "pct_puntual_p": 55.6,
    "tramo_porh": "GF3 → GF4",
    "situacion_puntual": null,
    "n_vertimientos": null,
    "registros_vertimientos": null,
    "q_vertido_l_s": null,
    "carga_dbo5_kg_d": null,
    "carga_sst_kg_d": null,
    "criterio_dominancia": "Riguroso: Tabla 4.10 (puntual frente a difusa QUAL2Kw)",
    "estado": "Excluida",
    "motivo_exclusion": "Carga puntual dominante (77,8 % de la carga total de N; Riguroso: Tabla 4.10 (puntual frente a difusa QUAL2Kw))"
   }
  },
  {
   "type": "Feature",
   "geometry": {
    "type": "Point",
    "coordinates": [
     -76.376225,
     3.770083
    ]
   },
   "properties": {
    "grupo": "ejercicio",
    "rio": "Rio Guabas",
    "rio_display": "Río Guabas",
    "etiqueta": "Guabas 1",
    "subtramo": 1,
    "posicion_tabla_5_2": "6",
    "categoria": "Muy alta",
    "delimitacion": "Rio Guabas - Antes Mina La Victoria → Rio Guabas - Antes desembocadura a Río Cauca",
    "area_cana_ha": 1825.85,
    "estacion": "Rio Guabas - Antes desembocadura a Río Cauca",
    "km_estacion": 40.75,
    "motivo_seleccion": "Estación de cierre del subtramo (la más aguas abajo del tramo); registros NT n=7, PT n=17",
    "estacion_hidro": "Puente Piedra",
    "relacion_hidro": "21,6 km aguas arriba — fuera de la zona cañera",
    "q_promedio_m3s": 4.076428571428571,
    "q_verano_m3s": 1.432922932330827,
    "q_transicion_m3s": 3.7156068133427964,
    "q_invierno_m3s": 7.224379146919431,
    "carga_n_base_kg_d": 47.86,
    "carga_n_esc1_kg_d": 38.29,
    "carga_n_esc2_kg_d": 28.72,
    "carga_p_base_kg_d": 6.88,
    "carga_p_esc1_kg_d": 5.51,
    "carga_p_esc2_kg_d": 4.13,
    "conc_n_base_mg_l": 0.1359,
    "conc_n_esc1_mg_l": 0.1087,
    "conc_n_esc2_mg_l": 0.0815,
    "conc_p_base_mg_l": 0.0195,
    "conc_p_esc1_mg_l": 0.0156,
    "conc_p_esc2_mg_l": 0.0117,
    "nt_hist_mg_l": 1.8237,
    "n_nt": 7,
    "pt_hist_mg_l": 0.1514,
    "n_pt": 17,
    "cociente_n": 0.075,
    "cociente_p": 0.129,
    "pct_puntual_n": null,
    "pct_puntual_p": null,
    "tramo_porh": null,
    "situacion_puntual": "con_vertimientos",
    "n_vertimientos": 1,
    "registros_vertimientos": [
     "237"
    ],
    "q_vertido_l_s": 2.79,
    "carga_dbo5_kg_d": 67.88,
    "carga_sst_kg_d": 44.51,
    "criterio_dominancia": "Pendiente: DBO5/SST sin factor de conversión a N validado; requiere definición de la dirección del proyecto",
    "estado": "Pendiente",
    "motivo_exclusion": "Pendiente: DBO5/SST sin factor de conversión a N validado; requiere definición de la dirección del proyecto"
   }
  },
  {
   "type": "Feature",
   "geometry": {
    "type": "Point",
    "coordinates": [
     -76.144667,
     4.346313
    ]
   },
   "properties": {
    "grupo": "ejercicio",
    "rio": "Rio La Paila",
    "rio_display": "Río La Paila",
    "etiqueta": "La Paila 3",
    "subtramo": 3,
    "posicion_tabla_5_2": "8",
    "categoria": "Alta",
    "delimitacion": "Rio La Paila - Planta Acuavalle → Rio La Paila - Antes desembocadura a Rio Cauca",
    "area_cana_ha": 1381.3,
    "estacion": "Rio La Paila - Antes desembocadura a Rio Cauca",
    "km_estacion": 66.41,
    "motivo_seleccion": "Estación de cierre del subtramo (la más aguas abajo del tramo); registros NT n=6, PT n=17",
    "estacion_hidro": "La Sorpresa",
    "relacion_hidro": "24,2 km aguas arriba",
    "q_promedio_m3s": 2.8813597102256896,
    "q_verano_m3s": 1.0030064754856614,
    "q_transicion_m3s": 1.9467732962447843,
    "q_invierno_m3s": 6.03503738317757,
    "carga_n_base_kg_d": 36.21,
    "carga_n_esc1_kg_d": 28.97,
    "carga_n_esc2_kg_d": 21.73,
    "carga_p_base_kg_d": 5.21,
    "carga_p_esc1_kg_d": 4.17,
    "carga_p_esc2_kg_d": 3.12,
    "conc_n_base_mg_l": 0.1454,
    "conc_n_esc1_mg_l": 0.1164,
    "conc_n_esc2_mg_l": 0.0873,
    "conc_p_base_mg_l": 0.0209,
    "conc_p_esc1_mg_l": 0.0167,
    "conc_p_esc2_mg_l": 0.0125,
    "nt_hist_mg_l": 2.2033,
    "n_nt": 6,
    "pt_hist_mg_l": 0.5305,
    "n_pt": 17,
    "cociente_n": 0.066,
    "cociente_p": 0.039,
    "pct_puntual_n": null,
    "pct_puntual_p": null,
    "tramo_porh": null,
    "situacion_puntual": "sin_vertimientos_digitalizados",
    "n_vertimientos": 0,
    "registros_vertimientos": [],
    "q_vertido_l_s": 0,
    "carga_dbo5_kg_d": 0.0,
    "carga_sst_kg_d": 0.0,
    "criterio_dominancia": "Sin vertimientos puntuales digitalizados en el tramo",
    "estado": "Pendiente",
    "motivo_exclusion": "Sin vertimientos puntuales digitalizados en el tramo"
   }
  },
  {
   "type": "Feature",
   "geometry": {
    "type": "Point",
    "coordinates": [
     -76.216132,
     4.129757
    ]
   },
   "properties": {
    "grupo": "ejercicio",
    "rio": "Rio Tulua",
    "rio_display": "Río Tuluá",
    "etiqueta": "Tuluá 4",
    "subtramo": 4,
    "posicion_tabla_5_2": "14",
    "categoria": "Alta",
    "delimitacion": "Rio Tulua - Despues Urbanizacion Maracaibo → Rio Tulua - antes desembocadura a Río Cauca (vereda El Salto)",
    "area_cana_ha": 571.0,
    "estacion": "Rio Tulua - antes desembocadura a Río Cauca (vereda El Salto)",
    "km_estacion": 67.68,
    "motivo_seleccion": "Estación de cierre del subtramo (la más aguas abajo del tramo); registros NT n=5, PT n=13. Se descarta «Rio Tulua - Antes desembocadura a Río Cauca»: mismo punto físico (km 67,7), registro con menos campañas",
    "estacion_hidro": "Mateguadua",
    "relacion_hidro": "16,9 km aguas arriba — fuera de la zona cañera; se descarta La Rafaela (467 días, 2015–2016)",
    "q_promedio_m3s": 20.271550998948474,
    "q_verano_m3s": 5.96006968641115,
    "q_transicion_m3s": 13.379750328515112,
    "q_invierno_m3s": 44.009559082892416,
    "carga_n_base_kg_d": 14.97,
    "carga_n_esc1_kg_d": 11.97,
    "carga_n_esc2_kg_d": 8.98,
    "carga_p_base_kg_d": 2.15,
    "carga_p_esc1_kg_d": 1.72,
    "carga_p_esc2_kg_d": 1.29,
    "conc_n_base_mg_l": 0.0085,
    "conc_n_esc1_mg_l": 0.0068,
    "conc_n_esc2_mg_l": 0.0051,
    "conc_p_base_mg_l": 0.0012,
    "conc_p_esc1_mg_l": 0.001,
    "conc_p_esc2_mg_l": 0.0007,
    "nt_hist_mg_l": 5.31,
    "n_nt": 5,
    "pt_hist_mg_l": 0.8027,
    "n_pt": 13,
    "cociente_n": 0.002,
    "cociente_p": 0.002,
    "pct_puntual_n": null,
    "pct_puntual_p": null,
    "tramo_porh": null,
    "situacion_puntual": "con_vertimientos",
    "n_vertimientos": 1,
    "registros_vertimientos": [
     "069"
    ],
    "q_vertido_l_s": 460.84,
    "carga_dbo5_kg_d": 1953.26,
    "carga_sst_kg_d": 2516.6,
    "criterio_dominancia": "Pendiente: DBO5/SST sin factor de conversión a N validado; requiere definición de la dirección del proyecto",
    "estado": "Pendiente",
    "motivo_exclusion": "Pendiente: DBO5/SST sin factor de conversión a N validado; requiere definición de la dirección del proyecto"
   }
  },
  {
   "type": "Feature",
   "geometry": {
    "type": "Point",
    "coordinates": [
     -76.452736,
     3.587519
    ]
   },
   "properties": {
    "grupo": "exclusion_previa",
    "rio": "Rio Guachal",
    "rio_display": "Río Guachal",
    "etiqueta": "Guachal 1",
    "subtramo": 1,
    "posicion_tabla_5_2": "16-21",
    "categoria": "Alta",
    "delimitacion": "GG1 - Después Confluencia Ríos Fraile Y Bolo → GG3 - Rio Guachal - Antes Desembocadura a Rio Cauca",
    "area_cana_ha": 654.74,
    "estacion": "GG3 - Rio Guachal - Antes Desembocadura a Rio Cauca",
    "estado": "Exclusión previa",
    "motivo_exclusion": "Exclusión previa del río: Sin datos de caudal en las fuentes de estación (CVC histórico / portal hidroclimatológico)"
   }
  },
  {
   "type": "Feature",
   "geometry": {
    "type": "Point",
    "coordinates": [
     -76.278693,
     3.603654
    ]
   },
   "properties": {
    "grupo": "exclusion_previa",
    "rio": "Rio Nima",
    "rio_display": "Río Nima",
    "etiqueta": "Nima 1",
    "subtramo": 1,
    "posicion_tabla_5_2": "11",
    "categoria": "Alta",
    "delimitacion": "Rio Nima - Antes Caserio de tenjo → Rio Nima - Antes desembocadura a rio Amaime",
    "area_cana_ha": 896.63,
    "estacion": "Rio Nima - Antes desembocadura a rio Amaime",
    "estado": "Exclusión previa",
    "motivo_exclusion": "Exclusión previa del río: Sin datos de caudal en las fuentes de estación (CVC histórico / portal hidroclimatológico)"
   }
  },
  {
   "type": "Feature",
   "geometry": {
    "type": "Point",
    "coordinates": [
     -75.88808,
     4.892604
    ]
   },
   "properties": {
    "grupo": "exclusion_previa",
    "rio": "Rio Risaralda",
    "rio_display": "Río Risaralda",
    "etiqueta": "Risaralda 4",
    "subtramo": 4,
    "posicion_tabla_5_2": "13",
    "categoria": "Alta",
    "delimitacion": "Río Risaralda - Puente Negro → Río Cauca - Antes río Risaralda",
    "area_cana_ha": 585.01,
    "estacion": "Río Cauca - Antes río Risaralda",
    "estado": "Exclusión previa",
    "motivo_exclusion": "Exclusión previa del río: Sin monitoreo de nitrógeno total y fósforo total"
   }
  },
  {
   "type": "Feature",
   "geometry": {
    "type": "Point",
    "coordinates": [
     -76.385864,
     3.745579
    ]
   },
   "properties": {
    "grupo": "exclusion_previa",
    "rio": "Rio Zabaletas",
    "rio_display": "Río Zabaletas",
    "etiqueta": "Zabaletas 3",
    "subtramo": 3,
    "posicion_tabla_5_2": "3",
    "categoria": "Muy alta",
    "delimitacion": "Rio Sabaletas - Puente vía Santa Elena-Ginebra → Rio Sabaletas - Antes desembocadura a Rio Cauca",
    "area_cana_ha": 2139.4,
    "estacion": "Rio Sabaletas - Antes desembocadura a Rio Cauca",
    "estado": "Exclusión previa",
    "motivo_exclusion": "Exclusión previa del río: Sin datos de caudal en las fuentes de estación (CVC histórico / portal hidroclimatológico)"
   }
  }
 ]
}
