{"type":"FeatureCollection","features":[{"type":"Feature","id":23,"geometry":{"type":"Point","coordinates":[-76.468677999758185,3.3710579996113657]},"properties":{"OBJECTID":23,"CORRIENTE_ORIG":"Rio Cauca","CORRIENTE_PROY":"Rio Cauca","MUNICIPIO":"Santiago de Cali","ZONA_MUESTREO":"Cauca FTL-003-18(5)","DESCRIPCION":"La Primavera","LATITUD":3.3710580000000001,"LONGITUD":-76.468677999999997,"FUENTE":"CVC"}},{"type":"Feature","id":24,"geometry":{"type":"Point","coordinates":[-76.691513999971178,2.9574170001658908]},"properties":{"OBJECTID":24,"CORRIENTE_ORIG":"Rio Cauca","CORRIENTE_PROY":"Rio Cauca","MUNICIPIO":"\u003cNull\u003e","ZONA_MUESTREO":"Cauca FTL-003-18(5)","DESCRIPCION":"Antes Ovejas","LATITUD":2.957417,"LONGITUD":-76.691513999999998,"FUENTE":"CVC"}},{"type":"Feature","id":26,"geometry":{"type":"Point","coordinates":[-76.642136000204417,3.0823110003514391]},"properties":{"OBJECTID":26,"CORRIENTE_ORIG":"Rio Cauca","CORRIENTE_PROY":"Rio Cauca","MUNICIPIO":"\u003cNull\u003e","ZONA_MUESTREO":"Cauca FTL-003-18(5)","DESCRIPCION":"Buenos Aires - Cauca","LATITUD":3.0823109999999998,"LONGITUD":-76.642135999999994,"FUENTE":"CVC"}},{"type":"Feature","id":27,"geometry":{"type":"Point","coordinates":[-76.101374999815036,4.4052190003776888]},"properties":{"OBJECTID":27,"CORRIENTE_ORIG":"Rio Cauca","CORRIENTE_PROY":"Rio Cauca","MUNICIPIO":"Zarzal","ZONA_MUESTREO":"Cauca FTL-003-18(5)","DESCRIPCION":"Puente Guayabal","LATITUD":4.4052189999999998,"LONGITUD":-76.101375000000004,"FUENTE":"CVC"}},{"type":"Feature","id":29,"geometry":{"type":"Point","coordinates":[-76.475953000014158,3.4504440000477525]},"properties":{"OBJECTID":29,"CORRIENTE_ORIG":"Rio Cauca","CORRIENTE_PROY":"Rio Cauca","MUNICIPIO":"Candelaria","ZONA_MUESTREO":"Cauca FTL-003-18(5)","DESCRIPCION":"Juanchito","LATITUD":3.4504440000000001,"LONGITUD":-76.475953000000004,"FUENTE":"CVC"}},{"type":"Feature","id":30,"geometry":{"type":"Point","coordinates":[-76.599085999756099,3.0920420004381035]},"properties":{"OBJECTID":30,"CORRIENTE_ORIG":"Rio Cauca","CORRIENTE_PROY":"Rio Cauca","MUNICIPIO":"Buenos Aires - Cauca","ZONA_MUESTREO":"Cauca FTL-003-18(5)","DESCRIPCION":"Paso de La Balsa","LATITUD":3.0920420000000002,"LONGITUD":-76.599086,"FUENTE":"CVC"}},{"type":"Feature","id":31,"geometry":{"type":"Point","coordinates":[-76.494339000272134,3.2055860003543928]},"properties":{"OBJECTID":31,"CORRIENTE_ORIG":"Rio Cauca","CORRIENTE_PROY":"Rio Cauca","MUNICIPIO":"Villarica - Cauca","ZONA_MUESTREO":"Cauca FTL-003-18(5)","DESCRIPCION":"Paso de La Bolsa","LATITUD":3.2055859999999998,"LONGITUD":-76.494338999999997,"FUENTE":"CVC"}},{"type":"Feature","id":32,"geometry":{"type":"Point","coordinates":[-76.043628000063393,4.5253169997279565]},"properties":{"OBJECTID":32,"CORRIENTE_ORIG":"Rio Cauca","CORRIENTE_PROY":"Rio Cauca","MUNICIPIO":"La Victoria","ZONA_MUESTREO":"Cauca FTL-003-18(5)","DESCRIPCION":"La Victoria","LATITUD":4.5253170000000003,"LONGITUD":-76.043627999999998,"FUENTE":"CVC"}},{"type":"Feature","id":33,"geometry":{"type":"Point","coordinates":[-75.869927999579275,4.8840970003495343]},"properties":{"OBJECTID":33,"CORRIENTE_ORIG":"Rio Cauca","CORRIENTE_PROY":"Rio Cauca","MUNICIPIO":"La Virginia","ZONA_MUESTREO":"Cauca FTL-003-18(5)","DESCRIPCION":"La Virginia - Risaralda","LATITUD":4.8840969999999997,"LONGITUD":-75.869928000000002,"FUENTE":"CVC"}},{"type":"Feature","id":35,"geometry":{"type":"Point","coordinates":[-76.45075599996207,3.6312139997052229]},"properties":{"OBJECTID":35,"CORRIENTE_ORIG":"Rio Cauca","CORRIENTE_PROY":"Rio Cauca","MUNICIPIO":"Yumbo","ZONA_MUESTREO":"Cauca FTL-003-18(5)","DESCRIPCION":"Paso La Torre","LATITUD":3.6312139999999999,"LONGITUD":-76.450755999999998,"FUENTE":"CVC"}},{"type":"Feature","id":36,"geometry":{"type":"Point","coordinates":[-76.483025000134674,3.4927939996281032]},"properties":{"OBJECTID":36,"CORRIENTE_ORIG":"Rio Cauca","CORRIENTE_PROY":"Rio Cauca","MUNICIPIO":"Santiago de Cali","ZONA_MUESTREO":"Cauca FTL-003-18(5)","DESCRIPCION":"Paso del Comercio","LATITUD":3.492794,"LONGITUD":-76.483024999999998,"FUENTE":"CVC"}},{"type":"Feature","id":37,"geometry":{"type":"Point","coordinates":[-76.486097000060795,3.5485000003344922]},"properties":{"OBJECTID":37,"CORRIENTE_ORIG":"Rio Cauca","CORRIENTE_PROY":"Rio Cauca","MUNICIPIO":"Yumbo","ZONA_MUESTREO":"Cauca FTL-003-18(5)","DESCRIPCION":"Yumbo","LATITUD":3.5485000000000002,"LONGITUD":-76.486097000000001,"FUENTE":"CVC"}},{"type":"Feature","id":38,"geometry":{"type":"Point","coordinates":[-76.26909700029826,4.1239189998537151]},"properties":{"OBJECTID":38,"CORRIENTE_ORIG":"Rio Cauca","CORRIENTE_PROY":"Rio Cauca","MUNICIPIO":"Riofrio","ZONA_MUESTREO":"Cauca FTL-003-18(5)","DESCRIPCION":"Riofrio","LATITUD":4.1239189999999999,"LONGITUD":-76.269097000000002,"FUENTE":"CVC"}},{"type":"Feature","id":39,"geometry":{"type":"Point","coordinates":[-76.409317000345396,3.727164000213937]},"properties":{"OBJECTID":39,"CORRIENTE_ORIG":"Rio Cauca","CORRIENTE_PROY":"Rio Cauca","MUNICIPIO":"Yotoco","ZONA_MUESTREO":"Cauca FTL-003-18(5)","DESCRIPCION":"Vijes","LATITUD":3.7271640000000001,"LONGITUD":-76.409317000000001,"FUENTE":"CVC"}},{"type":"Feature","id":40,"geometry":{"type":"Point","coordinates":[-76.37363100022273,3.8510859996579798]},"properties":{"OBJECTID":40,"CORRIENTE_ORIG":"Rio Cauca","CORRIENTE_PROY":"Rio Cauca","MUNICIPIO":"Yotoco","ZONA_MUESTREO":"Cauca FTL-003-18(5)","DESCRIPCION":"Yotoco","LATITUD":3.851086,"LONGITUD":-76.373631000000003,"FUENTE":"CVC"}},{"type":"Feature","id":122,"geometry":{"type":"Point","coordinates":[-76.697852778230597,2.9510111106133179]},"properties":{"OBJECTID":122,"CORRIENTE_ORIG":"Rio Cauca","CORRIENTE_PROY":"Rio Cauca","MUNICIPIO":null,"ZONA_MUESTREO":"Cauca FTL-003-18(5)","DESCRIPCION":"Antes Suárez","LATITUD":2.95101111,"LONGITUD":-76.697852780000005,"FUENTE":"CVC"}},{"type":"Feature","id":123,"geometry":{"type":"Point","coordinates":[-76.477191666901348,3.3018638886828864]},"properties":{"OBJECTID":123,"CORRIENTE_ORIG":"Rio Cauca","CORRIENTE_PROY":"Rio Cauca","MUNICIPIO":null,"ZONA_MUESTREO":"Cauca FTL-003-18(5)","DESCRIPCION":"Hormiguero","LATITUD":3.3018638899999999,"LONGITUD":-76.477191669999996,"FUENTE":"CVC"}},{"type":"Feature","id":124,"geometry":{"type":"Point","coordinates":[-76.349027778230479,3.8909138893958697]},"properties":{"OBJECTID":124,"CORRIENTE_ORIG":"Rio Cauca","CORRIENTE_PROY":"Rio Cauca","MUNICIPIO":"76111","ZONA_MUESTREO":"Cauca FTL-003-18(5)","DESCRIPCION":"Mediacanoa","LATITUD":3.8909138900000002,"LONGITUD":-76.34902778,"FUENTE":"CVC"}},{"type":"Feature","id":125,"geometry":{"type":"Point","coordinates":[-75.966102778295095,4.783683332564344]},"properties":{"OBJECTID":125,"CORRIENTE_ORIG":"Rio Cauca","CORRIENTE_PROY":"Rio Cauca","MUNICIPIO":"76147","ZONA_MUESTREO":"Cauca FTL-003-18(5)","DESCRIPCION":"Anacaro","LATITUD":4.7836833299999997,"LONGITUD":-75.96610278,"FUENTE":"CVC"}}]}