{"type":"FeatureCollection","features":[{"type":"Feature","id":1,"geometry":{"type":"Point","coordinates":[-75.84399999999994,5.109283000000062]},"properties":{"OBJECTID":1,"Rio":"Rio Risaralda","Punto_Monitoreo":"Quebrada Chapata - Desembocadura","Latitud_WGS84":5.109283,"Longitud_WGS84":-75.844,"N_Registros":50,"Año_Min":1998,"Año_Max":2025,"Fuente_CRS":"WGS84 (geovisor CVC/CARDER)"}},{"type":"Feature","id":2,"geometry":{"type":"Point","coordinates":[-76.22036599999996,3.7699960000000488]},"properties":{"OBJECTID":2,"Rio":"Rio Guabas","Punto_Monitoreo":"Rio Guabas - Quebrada Los Lulos - Antes desembocadura a rio Guabas","Latitud_WGS84":3.769996,"Longitud_WGS84":-76.220366,"N_Registros":17,"Año_Min":2016,"Año_Max":2025,"Fuente_CRS":"EPSG:3115"}},{"type":"Feature","id":3,"geometry":{"type":"Point","coordinates":[-76.18693399999995,3.617770000000064]},"properties":{"OBJECTID":3,"Rio":"Rio Amaime","Punto_Monitoreo":"Rio Amaime - Antes Caserio Tablones - Balneario Puerto Amor","Latitud_WGS84":3.61777,"Longitud_WGS84":-76.186934,"N_Registros":18,"Año_Min":2016,"Año_Max":2025,"Fuente_CRS":"EPSG:3115"}},{"type":"Feature","id":4,"geometry":{"type":"Point","coordinates":[-76.26563999999996,3.611248000000046]},"properties":{"OBJECTID":4,"Rio":"Rio Amaime","Punto_Monitoreo":"Rio Amaime - Antes Caserio el Placer","Latitud_WGS84":3.611248,"Longitud_WGS84":-76.26564,"N_Registros":19,"Año_Min":2016,"Año_Max":2025,"Fuente_CRS":"EPSG:3115"}},{"type":"Feature","id":5,"geometry":{"type":"Point","coordinates":[-76.27924299999995,3.604254000000026]},"properties":{"OBJECTID":5,"Rio":"Rio Amaime","Punto_Monitoreo":"Rio Amaime - Antes desembocadura de Rio Nima","Latitud_WGS84":3.604254,"Longitud_WGS84":-76.279243,"N_Registros":19,"Año_Min":2016,"Año_Max":2025,"Fuente_CRS":"EPSG:3115"}},{"type":"Feature","id":6,"geometry":{"type":"Point","coordinates":[-76.10886799999997,3.6176340000000664]},"properties":{"OBJECTID":6,"Rio":"Rio Amaime","Punto_Monitoreo":"Rio Amaime - Despues Caserio Auji","Latitud_WGS84":3.617634,"Longitud_WGS84":-76.108868,"N_Registros":15,"Año_Min":2016,"Año_Max":2023,"Fuente_CRS":"EPSG:3115"}},{"type":"Feature","id":7,"geometry":{"type":"Point","coordinates":[-76.40873499999998,3.665939000000037]},"properties":{"OBJECTID":7,"Rio":"Rio Amaime","Punto_Monitoreo":"Rio Amaime - antes Desembocadura a Rio Cauca","Latitud_WGS84":3.665939,"Longitud_WGS84":-76.408735,"N_Registros":19,"Año_Min":2016,"Año_Max":2025,"Fuente_CRS":"EPSG:3115"}},{"type":"Feature","id":8,"geometry":{"type":"Point","coordinates":[-76.44805899999994,3.499870000000044]},"properties":{"OBJECTID":8,"Rio":"Rio Bolo","Punto_Monitoreo":"Rio Bolo - Antes desembocadura a Frayle en puente Recta Cali - Palmira","Latitud_WGS84":3.49987,"Longitud_WGS84":-76.448059,"N_Registros":16,"Año_Min":2016,"Año_Max":2025,"Fuente_CRS":"EPSG:3115"}},{"type":"Feature","id":9,"geometry":{"type":"Point","coordinates":[-76.17393499999997,3.419529000000068]},"properties":{"OBJECTID":9,"Rio":"Rio Bolo","Punto_Monitoreo":"Rio Bolo - Limnígrafo CVC - Los Minchos","Latitud_WGS84":3.419529,"Longitud_WGS84":-76.173935,"N_Registros":15,"Año_Min":2016,"Año_Max":2025,"Fuente_CRS":"EPSG:3115"}},{"type":"Feature","id":10,"geometry":{"type":"Point","coordinates":[-76.33619999999996,3.4591930000000275]},"properties":{"OBJECTID":10,"Rio":"Rio Bolo","Punto_Monitoreo":"Rio Bolo - Puente Bolo - San Isidro - vía a Candelaria","Latitud_WGS84":3.459193,"Longitud_WGS84":-76.3362,"N_Registros":16,"Año_Min":2016,"Año_Max":2025,"Fuente_CRS":"EPSG:3115"}},{"type":"Feature","id":11,"geometry":{"type":"Point","coordinates":[-76.24563999999998,3.4311760000000504]},"properties":{"OBJECTID":11,"Rio":"Rio Bolo","Punto_Monitoreo":"Rio Bolo - Puente Pradera - Palmira","Latitud_WGS84":3.431176,"Longitud_WGS84":-76.24564,"N_Registros":16,"Año_Min":2016,"Año_Max":2025,"Fuente_CRS":"EPSG:3115"}},{"type":"Feature","id":12,"geometry":{"type":"Point","coordinates":[-76.14517399999994,4.175030000000049]},"properties":{"OBJECTID":12,"Rio":"Rio Bugalagrande","Punto_Monitoreo":"Rio Bugalagrande - Conciviles - Andalucía","Latitud_WGS84":4.17503,"Longitud_WGS84":-76.145174,"N_Registros":18,"Año_Min":2016,"Año_Max":2025,"Fuente_CRS":"EPSG:3115"}},{"type":"Feature","id":13,"geometry":{"type":"Point","coordinates":[-76.07844399999993,4.094426000000055]},"properties":{"OBJECTID":13,"Rio":"Rio Bugalagrande","Punto_Monitoreo":"Rio Bugalagrande - Puente Colgante El Placer","Latitud_WGS84":4.094426,"Longitud_WGS84":-76.078444,"N_Registros":15,"Año_Min":2016,"Año_Max":2024,"Fuente_CRS":"EPSG:3115"}},{"type":"Feature","id":14,"geometry":{"type":"Point","coordinates":[-76.15675599999997,4.194746000000066]},"properties":{"OBJECTID":14,"Rio":"Rio Bugalagrande","Punto_Monitoreo":"Rio Bugalagrande - Puente Variante Bugalagrande","Latitud_WGS84":4.194746,"Longitud_WGS84":-76.156756,"N_Registros":18,"Año_Min":2016,"Año_Max":2025,"Fuente_CRS":"EPSG:3115"}},{"type":"Feature","id":15,"geometry":{"type":"Point","coordinates":[-76.03654199999994,4.094919000000061]},"properties":{"OBJECTID":15,"Rio":"Rio Bugalagrande","Punto_Monitoreo":"Rio Bugalagrande - Puente antes Caserio San Rafael.","Latitud_WGS84":4.094919,"Longitud_WGS84":-76.036542,"N_Registros":14,"Año_Min":2016,"Año_Max":2024,"Fuente_CRS":"EPSG:3115"}},{"type":"Feature","id":16,"geometry":{"type":"Point","coordinates":[-76.16473299999996,4.257935000000032]},"properties":{"OBJECTID":16,"Rio":"Rio Bugalagrande","Punto_Monitoreo":"Rio Bugalagrande - antes desembocadura a Río Cauca - Hacienda El Guayabo","Latitud_WGS84":4.257935,"Longitud_WGS84":-76.164733,"N_Registros":18,"Año_Min":2016,"Año_Max":2025,"Fuente_CRS":"EPSG:3115"}},{"type":"Feature","id":17,"geometry":{"type":"Point","coordinates":[-75.88664199999994,4.893527000000063]},"properties":{"OBJECTID":17,"Rio":"Rio Risaralda","Punto_Monitoreo":"Río Cauca - Antes río Risaralda","Latitud_WGS84":4.893527,"Longitud_WGS84":-75.886642,"N_Registros":47,"Año_Min":2001,"Año_Max":2025,"Fuente_CRS":"WGS84 (geovisor CVC/CARDER)"}},{"type":"Feature","id":18,"geometry":{"type":"Point","coordinates":[-76.45543799999996,3.4981860000000324]},"properties":{"OBJECTID":18,"Rio":"Rio Frayle","Punto_Monitoreo":"Rio Frayle - Antes Desembocadura a rio Guachal Recta Cali Palmira","Latitud_WGS84":3.498186,"Longitud_WGS84":-76.455438,"N_Registros":11,"Año_Min":2016,"Año_Max":2024,"Fuente_CRS":"EPSG:3115"}},{"type":"Feature","id":19,"geometry":{"type":"Point","coordinates":[-76.34916399999997,3.3737420000000498]},"properties":{"OBJECTID":19,"Rio":"Rio Frayle","Punto_Monitoreo":"Rio Frayle - Limnigrafo CVC - caserio Brisas de Frayle","Latitud_WGS84":3.373742,"Longitud_WGS84":-76.349164,"N_Registros":16,"Año_Min":2016,"Año_Max":2025,"Fuente_CRS":"EPSG:3115"}},{"type":"Feature","id":20,"geometry":{"type":"Point","coordinates":[-76.21010499999994,3.3058020000000283]},"properties":{"OBJECTID":20,"Rio":"Rio Frayle","Punto_Monitoreo":"Rio Frayle - Nacimiento El Pedregal","Latitud_WGS84":3.305802,"Longitud_WGS84":-76.210105,"N_Registros":16,"Año_Min":2016,"Año_Max":2025,"Fuente_CRS":"EPSG:3115"}},{"type":"Feature","id":21,"geometry":{"type":"Point","coordinates":[-76.23751699999997,3.3185170000000426]},"properties":{"OBJECTID":21,"Rio":"Rio Frayle","Punto_Monitoreo":"Rio Frayle - Puente Vía a Miranda","Latitud_WGS84":3.318517,"Longitud_WGS84":-76.237517,"N_Registros":16,"Año_Min":2016,"Año_Max":2025,"Fuente_CRS":"EPSG:3115"}},{"type":"Feature","id":23,"geometry":{"type":"Point","coordinates":[-76.17661699999996,3.749357000000032]},"properties":{"OBJECTID":23,"Rio":"Rio Guabas","Punto_Monitoreo":"Rio Guabas - Antes Mina La Victoria","Latitud_WGS84":3.749357,"Longitud_WGS84":-76.176617,"N_Registros":17,"Año_Min":2016,"Año_Max":2025,"Fuente_CRS":"EPSG:3115"}},{"type":"Feature","id":24,"geometry":{"type":"Point","coordinates":[-76.37622499999998,3.7700830000000565]},"properties":{"OBJECTID":24,"Rio":"Rio Guabas","Punto_Monitoreo":"Rio Guabas - Antes desembocadura a Río Cauca","Latitud_WGS84":3.770083,"Longitud_WGS84":-76.376225,"N_Registros":17,"Año_Min":2016,"Año_Max":2025,"Fuente_CRS":"EPSG:3115"}},{"type":"Feature","id":25,"geometry":{"type":"Point","coordinates":[-76.23090199999996,3.7662800000000516]},"properties":{"OBJECTID":25,"Rio":"Rio Guabas","Punto_Monitoreo":"Rio Guabas - Puente Rojo - Bocatoma Acueducto de Ginebra","Latitud_WGS84":3.76628,"Longitud_WGS84":-76.230902,"N_Registros":15,"Año_Min":2016,"Año_Max":2025,"Fuente_CRS":"EPSG:3115"}},{"type":"Feature","id":26,"geometry":{"type":"Point","coordinates":[-76.19641899999993,3.751694000000043]},"properties":{"OBJECTID":26,"Rio":"Rio Guabas","Punto_Monitoreo":"Rio Guabas - Puente despues Mina La Victoria","Latitud_WGS84":3.751694,"Longitud_WGS84":-76.196419,"N_Registros":10,"Año_Min":2017,"Año_Max":2024,"Fuente_CRS":"EPSG:3115"}},{"type":"Feature","id":27,"geometry":{"type":"Point","coordinates":[-76.19642099999999,3.7516910000000507]},"properties":{"OBJECTID":27,"Rio":"Rio Guabas","Punto_Monitoreo":"Rio Guabas - despues Mina La Victoria","Latitud_WGS84":3.751691,"Longitud_WGS84":-76.196421,"N_Registros":7,"Año_Min":2016,"Año_Max":2025,"Fuente_CRS":"EPSG:3115"}},{"type":"Feature","id":28,"geometry":{"type":"Point","coordinates":[-76.45273599999996,3.587519000000043]},"properties":{"OBJECTID":28,"Rio":"Rio Guachal","Punto_Monitoreo":"GG3 - Rio Guachal - Antes Desembocadura a Rio Cauca","Latitud_WGS84":3.587519,"Longitud_WGS84":-76.452736,"N_Registros":16,"Año_Min":2016,"Año_Max":2025,"Fuente_CRS":"EPSG:3115 (corregido PORH GG3)"}},{"type":"Feature","id":29,"geometry":{"type":"Point","coordinates":[-76.19672499999996,3.8811620000000744]},"properties":{"OBJECTID":29,"Rio":"Rio Guadalajara","Punto_Monitoreo":"Rio Guadalajara - Antes desembocadura de Quebrada La Magdalena - puente Colgante","Latitud_WGS84":3.881162,"Longitud_WGS84":-76.196725,"N_Registros":13,"Año_Min":2019,"Año_Max":2025,"Fuente_CRS":"EPSG:3115"}},{"type":"Feature","id":31,"geometry":{"type":"Point","coordinates":[-76.27187499999997,3.8868960000000357]},"properties":{"OBJECTID":31,"Rio":"Rio Guadalajara","Punto_Monitoreo":"Rio Guadalajara - Bocatoma Acueducto Buga","Latitud_WGS84":3.886896,"Longitud_WGS84":-76.271875,"N_Registros":18,"Año_Min":2016,"Año_Max":2025,"Fuente_CRS":"EPSG:3115"}},{"type":"Feature","id":32,"geometry":{"type":"Point","coordinates":[-76.17095399999994,3.8758090000000607]},"properties":{"OBJECTID":32,"Rio":"Rio Guadalajara","Punto_Monitoreo":"Rio Guadalajara - La Piscina - Vía a Alaska","Latitud_WGS84":3.875809,"Longitud_WGS84":-76.170954,"N_Registros":19,"Año_Min":2016,"Año_Max":2025,"Fuente_CRS":"EPSG:3115"}},{"type":"Feature","id":33,"geometry":{"type":"Point","coordinates":[-76.23520199999996,3.8943360000000666]},"properties":{"OBJECTID":33,"Rio":"Rio Guadalajara","Punto_Monitoreo":"Rio Guadalajara - Puente Balneario los Guaduales","Latitud_WGS84":3.894336,"Longitud_WGS84":-76.235202,"N_Registros":13,"Año_Min":2019,"Año_Max":2025,"Fuente_CRS":"EPSG:3115"}},{"type":"Feature","id":34,"geometry":{"type":"Point","coordinates":[-76.30808299999995,3.896775000000048]},"properties":{"OBJECTID":34,"Rio":"Rio Guadalajara","Punto_Monitoreo":"Rio Guadalajara - Puente Frente vía Ferrea","Latitud_WGS84":3.896775,"Longitud_WGS84":-76.308083,"N_Registros":19,"Año_Min":2016,"Año_Max":2025,"Fuente_CRS":"EPSG:3115"}},{"type":"Feature","id":36,"geometry":{"type":"Point","coordinates":[-76.33985299999995,3.8990980000000377]},"properties":{"OBJECTID":36,"Rio":"Rio Guadalajara","Punto_Monitoreo":"Rio Guadalajara - antes desembocadura a Rio Cauca (El Porvenir)","Latitud_WGS84":3.899098,"Longitud_WGS84":-76.339853,"N_Registros":18,"Año_Min":2016,"Año_Max":2025,"Fuente_CRS":"EPSG:3115"}},{"type":"Feature","id":39,"geometry":{"type":"Point","coordinates":[-75.81351599999994,5.23589400000003]},"properties":{"OBJECTID":39,"Rio":"Rio Risaralda","Punto_Monitoreo":"Río Guatica - Desembocadura río Risaralda","Latitud_WGS84":5.235894,"Longitud_WGS84":-75.813516,"N_Registros":32,"Año_Min":2000,"Año_Max":2025,"Fuente_CRS":"WGS84 (geovisor CVC/CARDER)"}},{"type":"Feature","id":40,"geometry":{"type":"Point","coordinates":[-76.36626799999993,4.124693000000036]},"properties":{"OBJECTID":40,"Rio":"Rio Riofrio","Punto_Monitoreo":"Rio Riofrio - Rio Guayabal","Latitud_WGS84":4.124693,"Longitud_WGS84":-76.366268,"N_Registros":18,"Año_Min":2016,"Año_Max":2025,"Fuente_CRS":"EPSG:3115"}},{"type":"Feature","id":41,"geometry":{"type":"Point","coordinates":[-76.14466699999997,4.346313000000066]},"properties":{"OBJECTID":41,"Rio":"Rio La Paila","Punto_Monitoreo":"Rio La Paila - Antes desembocadura a Rio Cauca","Latitud_WGS84":4.346313,"Longitud_WGS84":-76.144667,"N_Registros":17,"Año_Min":2016,"Año_Max":2025,"Fuente_CRS":"EPSG:3115"}},{"type":"Feature","id":43,"geometry":{"type":"Point","coordinates":[-76.04267799999997,4.295466000000033]},"properties":{"OBJECTID":43,"Rio":"Rio La Paila","Punto_Monitoreo":"Rio La Paila - Planta Acuavalle","Latitud_WGS84":4.295466,"Longitud_WGS84":-76.042678,"N_Registros":18,"Año_Min":2016,"Año_Max":2025,"Fuente_CRS":"EPSG:3115"}},{"type":"Feature","id":44,"geometry":{"type":"Point","coordinates":[-76.03682299999997,4.239842000000067]},"properties":{"OBJECTID":44,"Rio":"Rio La Paila","Punto_Monitoreo":"Rio La Paila - Puente Paila arriba - vía a Sevilla","Latitud_WGS84":4.239842,"Longitud_WGS84":-76.036823,"N_Registros":18,"Año_Min":2016,"Año_Max":2025,"Fuente_CRS":"EPSG:3115"}},{"type":"Feature","id":45,"geometry":{"type":"Point","coordinates":[-76.02340499999997,4.293773000000044]},"properties":{"OBJECTID":45,"Rio":"Rio La Paila","Punto_Monitoreo":"Rio La Paila - antes desembocadura del rio Totoro","Latitud_WGS84":4.293773,"Longitud_WGS84":-76.023405,"N_Registros":6,"Año_Min":2016,"Año_Max":2018,"Fuente_CRS":"EPSG:3115"}},{"type":"Feature","id":46,"geometry":{"type":"Point","coordinates":[-76.18133999999998,3.5256240000000503]},"properties":{"OBJECTID":46,"Rio":"Rio Nima","Punto_Monitoreo":"Rio Nima - Acueducto Nima","Latitud_WGS84":3.525624,"Longitud_WGS84":-76.18134,"N_Registros":18,"Año_Min":2016,"Año_Max":2025,"Fuente_CRS":"EPSG:3115"}},{"type":"Feature","id":47,"geometry":{"type":"Point","coordinates":[-76.15523099999996,3.5188060000000405]},"properties":{"OBJECTID":47,"Rio":"Rio Nima","Punto_Monitoreo":"Rio Nima - Antes Caserio de tenjo","Latitud_WGS84":3.518806,"Longitud_WGS84":-76.155231,"N_Registros":17,"Año_Min":2016,"Año_Max":2025,"Fuente_CRS":"EPSG:3115"}},{"type":"Feature","id":48,"geometry":{"type":"Point","coordinates":[-76.27869299999998,3.6036540000000628]},"properties":{"OBJECTID":48,"Rio":"Rio Nima","Punto_Monitoreo":"Rio Nima - Antes desembocadura a rio Amaime","Latitud_WGS84":3.603654,"Longitud_WGS84":-76.278693,"N_Registros":18,"Año_Min":2016,"Año_Max":2025,"Fuente_CRS":"EPSG:3115"}},{"type":"Feature","id":58,"geometry":{"type":"Point","coordinates":[-76.43213699999995,3.445243000000062]},"properties":{"OBJECTID":58,"Rio":"Rio Parraga","Punto_Monitoreo":"Rio Parraga - antes Desembocadura a rio Frayle","Latitud_WGS84":3.445243,"Longitud_WGS84":-76.432137,"N_Registros":5,"Año_Min":2016,"Año_Max":2018,"Fuente_CRS":"EPSG:3115"}},{"type":"Feature","id":59,"geometry":{"type":"Point","coordinates":[-76.26716499999998,3.3532480000000646]},"properties":{"OBJECTID":59,"Rio":"Rio Parraga","Punto_Monitoreo":"Rio Parraga - puente via Florida - Pradera","Latitud_WGS84":3.353248,"Longitud_WGS84":-76.267165,"N_Registros":5,"Año_Min":2016,"Año_Max":2018,"Fuente_CRS":"EPSG:3115"}},{"type":"Feature","id":60,"geometry":{"type":"Point","coordinates":[-76.35161099999993,3.404467000000068]},"properties":{"OBJECTID":60,"Rio":"Rio Parraga","Punto_Monitoreo":"Rio Parraga - puente vía Candelaria - Florida","Latitud_WGS84":3.404467,"Longitud_WGS84":-76.351611,"N_Registros":5,"Año_Min":2016,"Año_Max":2018,"Fuente_CRS":"EPSG:3115"}},{"type":"Feature","id":63,"geometry":{"type":"Point","coordinates":[-76.29719499999999,4.1569580000000315]},"properties":{"OBJECTID":63,"Rio":"Rio Riofrio","Punto_Monitoreo":"Rio Riofrio - Antes Municipio Riofrio","Latitud_WGS84":4.156958,"Longitud_WGS84":-76.297195,"N_Registros":18,"Año_Min":2016,"Año_Max":2025,"Fuente_CRS":"EPSG:3115"}},{"type":"Feature","id":64,"geometry":{"type":"Point","coordinates":[-76.28363799999994,4.141371000000049]},"properties":{"OBJECTID":64,"Rio":"Rio Riofrio","Punto_Monitoreo":"Rio Riofrio - Antes desembocadura a Río Cauca","Latitud_WGS84":4.141371,"Longitud_WGS84":-76.283638,"N_Registros":16,"Año_Min":2016,"Año_Max":2025,"Fuente_CRS":"EPSG:3115"}},{"type":"Feature","id":65,"geometry":{"type":"Point","coordinates":[-76.33156699999995,4.1720280000000685]},"properties":{"OBJECTID":65,"Rio":"Rio Riofrio","Punto_Monitoreo":"Rio Riofrio - Bocatoma Acueducto de Riofrio","Latitud_WGS84":4.172028,"Longitud_WGS84":-76.331567,"N_Registros":18,"Año_Min":2016,"Año_Max":2025,"Fuente_CRS":"EPSG:3115"}},{"type":"Feature","id":66,"geometry":{"type":"Point","coordinates":[-76.36501799999996,4.132912000000033]},"properties":{"OBJECTID":66,"Rio":"Rio Riofrio","Punto_Monitoreo":"Rio Riofrio - puente despues Salonica - limnigrafo CVC","Latitud_WGS84":4.132912,"Longitud_WGS84":-76.365018,"N_Registros":18,"Año_Min":2016,"Año_Max":2025,"Fuente_CRS":"EPSG:3115"}},{"type":"Feature","id":67,"geometry":{"type":"Point","coordinates":[-75.88558899999998,5.308165000000031]},"properties":{"OBJECTID":67,"Rio":"Rio Risaralda","Punto_Monitoreo":"Río Risaralda - Antes Descarga Municipio Mistrató","Latitud_WGS84":5.308165,"Longitud_WGS84":-75.885589,"N_Registros":37,"Año_Min":2013,"Año_Max":2025,"Fuente_CRS":"WGS84 (geovisor CVC/CARDER)"}},{"type":"Feature","id":68,"geometry":{"type":"Point","coordinates":[-75.87873499999995,5.293912000000034]},"properties":{"OBJECTID":68,"Rio":"Rio Risaralda","Punto_Monitoreo":"Río Risaralda - Después Descarga Municipio Mistrató","Latitud_WGS84":5.293912,"Longitud_WGS84":-75.878735,"N_Registros":45,"Año_Min":2010,"Año_Max":2025,"Fuente_CRS":"WGS84 (geovisor CVC/CARDER)"}},{"type":"Feature","id":69,"geometry":{"type":"Point","coordinates":[-75.84263499999997,5.11117900000005]},"properties":{"OBJECTID":69,"Rio":"Rio Risaralda","Punto_Monitoreo":"Río Risaralda - Las Palmeras","Latitud_WGS84":5.111179,"Longitud_WGS84":-75.842635,"N_Registros":61,"Año_Min":1999,"Año_Max":2025,"Fuente_CRS":"WGS84 (geovisor CVC/CARDER)"}},{"type":"Feature","id":70,"geometry":{"type":"Point","coordinates":[-75.85907699999996,4.9878740000000334]},"properties":{"OBJECTID":70,"Rio":"Rio Risaralda","Punto_Monitoreo":"Río Risaralda - Puente Negro","Latitud_WGS84":4.987874,"Longitud_WGS84":-75.859077,"N_Registros":50,"Año_Min":2007,"Año_Max":2025,"Fuente_CRS":"WGS84 (geovisor CVC/CARDER)"}},{"type":"Feature","id":71,"geometry":{"type":"Point","coordinates":[-75.84094499999998,5.247729000000049]},"properties":{"OBJECTID":71,"Rio":"Rio Risaralda","Punto_Monitoreo":"Río Risaralda - Puente Umbría","Latitud_WGS84":5.247729,"Longitud_WGS84":-75.840945,"N_Registros":65,"Año_Min":1997,"Año_Max":2025,"Fuente_CRS":"WGS84 (geovisor CVC/CARDER)"}},{"type":"Feature","id":72,"geometry":{"type":"Point","coordinates":[-76.17932299999995,3.694142000000056]},"properties":{"OBJECTID":72,"Rio":"Rio Sabaletas","Punto_Monitoreo":"Rio Sabaletas - Antes caserío Los Medios","Latitud_WGS84":3.694142,"Longitud_WGS84":-76.179323,"N_Registros":16,"Año_Min":2017,"Año_Max":2025,"Fuente_CRS":"EPSG:3115"}},{"type":"Feature","id":73,"geometry":{"type":"Point","coordinates":[-76.38586399999997,3.7455790000000206]},"properties":{"OBJECTID":73,"Rio":"Rio Sabaletas","Punto_Monitoreo":"Rio Sabaletas - Antes desembocadura a Rio Cauca","Latitud_WGS84":3.745579,"Longitud_WGS84":-76.385864,"N_Registros":16,"Año_Min":2017,"Año_Max":2025,"Fuente_CRS":"EPSG:3115"}},{"type":"Feature","id":74,"geometry":{"type":"Point","coordinates":[-76.18733299999997,3.689689000000044]},"properties":{"OBJECTID":74,"Rio":"Rio Sabaletas","Punto_Monitoreo":"Rio Sabaletas - Bocatoma Acuavalle Santa Elena","Latitud_WGS84":3.689689,"Longitud_WGS84":-76.187333,"N_Registros":16,"Año_Min":2017,"Año_Max":2025,"Fuente_CRS":"EPSG:3115"}},{"type":"Feature","id":75,"geometry":{"type":"Point","coordinates":[-76.23065099999997,3.688158000000044]},"properties":{"OBJECTID":75,"Rio":"Rio Sabaletas","Punto_Monitoreo":"Rio Sabaletas - Cruce sector vía La Novillera","Latitud_WGS84":3.688158,"Longitud_WGS84":-76.230651,"N_Registros":16,"Año_Min":2017,"Año_Max":2025,"Fuente_CRS":"EPSG:3115"}},{"type":"Feature","id":76,"geometry":{"type":"Point","coordinates":[-76.26410899999996,3.690590000000043]},"properties":{"OBJECTID":76,"Rio":"Rio Sabaletas","Punto_Monitoreo":"Rio Sabaletas - Puente vía Santa Elena-Ginebra","Latitud_WGS84":3.69059,"Longitud_WGS84":-76.264109,"N_Registros":16,"Año_Min":2017,"Año_Max":2025,"Fuente_CRS":"EPSG:3115"}},{"type":"Feature","id":77,"geometry":{"type":"Point","coordinates":[-76.18747899999994,3.6883680000000254]},"properties":{"OBJECTID":77,"Rio":"Rio Sabaletas","Punto_Monitoreo":"Río Sabaletas - Puente después caserío Los Medios","Latitud_WGS84":3.688368,"Longitud_WGS84":-76.187479,"N_Registros":2,"Año_Min":2017,"Año_Max":2017,"Fuente_CRS":"EPSG:3115"}},{"type":"Feature","id":78,"geometry":{"type":"Point","coordinates":[-76.15570799999995,4.012376000000074]},"properties":{"OBJECTID":78,"Rio":"Rio Tulua","Punto_Monitoreo":"Rio Tulua - Antes Jardin Botanico (limnigrafo CVC)","Latitud_WGS84":4.012376,"Longitud_WGS84":-76.155708,"N_Registros":19,"Año_Min":2016,"Año_Max":2025,"Fuente_CRS":"EPSG:3115"}},{"type":"Feature","id":79,"geometry":{"type":"Point","coordinates":[-76.21613199999996,4.1297570000000405]},"properties":{"OBJECTID":79,"Rio":"Rio Tulua","Punto_Monitoreo":"Rio Tulua - Antes desembocadura a Río Cauca","Latitud_WGS84":4.129757,"Longitud_WGS84":-76.216132,"N_Registros":6,"Año_Min":2018,"Año_Max":2024,"Fuente_CRS":"EPSG:3115"}},{"type":"Feature","id":80,"geometry":{"type":"Point","coordinates":[-76.20241999999996,4.110881000000063]},"properties":{"OBJECTID":80,"Rio":"Rio Tulua","Punto_Monitoreo":"Rio Tulua - Despues Urbanizacion Maracaibo","Latitud_WGS84":4.110881,"Longitud_WGS84":-76.20242,"N_Registros":19,"Año_Min":2016,"Año_Max":2025,"Fuente_CRS":"EPSG:3115"}},{"type":"Feature","id":81,"geometry":{"type":"Point","coordinates":[-76.19437099999999,4.092140000000029]},"properties":{"OBJECTID":81,"Rio":"Rio Tulua","Punto_Monitoreo":"Rio Tulua - Puente Ferrocarril Barrio La Trinidad","Latitud_WGS84":4.09214,"Longitud_WGS84":-76.194371,"N_Registros":19,"Año_Min":2016,"Año_Max":2025,"Fuente_CRS":"EPSG:3115"}},{"type":"Feature","id":82,"geometry":{"type":"Point","coordinates":[-76.19690899999995,4.102134000000035]},"properties":{"OBJECTID":82,"Rio":"Rio Tulua","Punto_Monitoreo":"Rio Tulua - Puente Nuevo (Barrio 7 de Agosto)","Latitud_WGS84":4.102134,"Longitud_WGS84":-76.196909,"N_Registros":19,"Año_Min":2016,"Año_Max":2025,"Fuente_CRS":"EPSG:3115"}},{"type":"Feature","id":83,"geometry":{"type":"Point","coordinates":[-76.21613199999996,4.1297570000000405]},"properties":{"OBJECTID":83,"Rio":"Rio Tulua","Punto_Monitoreo":"Rio Tulua - antes desembocadura a Río Cauca (vereda El Salto)","Latitud_WGS84":4.129757,"Longitud_WGS84":-76.216132,"N_Registros":13,"Año_Min":2016,"Año_Max":2025,"Fuente_CRS":"EPSG:3115"}},{"type":"Feature","id":84,"geometry":{"type":"Point","coordinates":[-76.37214899999998,4.124056000000053]},"properties":{"OBJECTID":84,"Rio":"Rio Riofrio","Punto_Monitoreo":"Rio Riofrio - Rio Valcanes","Latitud_WGS84":4.124056,"Longitud_WGS84":-76.372149,"N_Registros":18,"Año_Min":2016,"Año_Max":2025,"Fuente_CRS":"EPSG:3115"}},{"type":"Feature","id":170,"geometry":{"type":"Point","coordinates":[-76.21519399999994,3.2654170000000704]},"properties":{"OBJECTID":170,"Rio":"Rio Desbaratado","Punto_Monitoreo":"Antes de bocatoma cabecera Miranda","Latitud_WGS84":3.265417,"Longitud_WGS84":-76.215194,"N_Registros":18,"Año_Min":2019,"Año_Max":2026,"Fuente_CRS":"EPSG:3115 (CRC)"}},{"type":"Feature","id":171,"geometry":{"type":"Point","coordinates":[-76.30605599999996,3.286000000000058]},"properties":{"OBJECTID":171,"Rio":"Rio Desbaratado","Punto_Monitoreo":"Antes de porcícola (Pte. Jordán)","Latitud_WGS84":3.286,"Longitud_WGS84":-76.306056,"N_Registros":18,"Año_Min":2019,"Año_Max":2026,"Fuente_CRS":"EPSG:3115 (CRC)"}},{"type":"Feature","id":172,"geometry":{"type":"Point","coordinates":[-76.31986099999995,3.281778000000031]},"properties":{"OBJECTID":172,"Rio":"Rio Desbaratado","Punto_Monitoreo":"Puente Ortigal","Latitud_WGS84":3.281778,"Longitud_WGS84":-76.319861,"N_Registros":18,"Año_Min":2019,"Año_Max":2026,"Fuente_CRS":"EPSG:3115 (CRC)"}},{"type":"Feature","id":173,"geometry":{"type":"Point","coordinates":[-76.41581999999994,3.184316000000024]},"properties":{"OBJECTID":173,"Rio":"Rio Palo","Punto_Monitoreo":"Antes Bocatoma Propal","Latitud_WGS84":3.184316,"Longitud_WGS84":-76.41582,"N_Registros":8,"Año_Min":2010,"Año_Max":2012,"Fuente_CRS":"Geovisor CVC (fuente CRC sin coordenadas)"}},{"type":"Feature","id":174,"geometry":{"type":"Point","coordinates":[-76.39391699999999,3.128159000000039]},"properties":{"OBJECTID":174,"Rio":"Rio Palo","Punto_Monitoreo":"Antes de PTAR Guachené","Latitud_WGS84":3.128159,"Longitud_WGS84":-76.393917,"N_Registros":25,"Año_Min":2016,"Año_Max":2025,"Fuente_CRS":"EPSG:3115 (CRC)"}},{"type":"Feature","id":175,"geometry":{"type":"Point","coordinates":[-76.34868599999999,3.0619830000000547]},"properties":{"OBJECTID":175,"Rio":"Rio Palo","Punto_Monitoreo":"Bocatoma corregimiento El Palo","Latitud_WGS84":3.061983,"Longitud_WGS84":-76.348686,"N_Registros":20,"Año_Min":2017,"Año_Max":2025,"Fuente_CRS":"EPSG:3115 (CRC)"}},{"type":"Feature","id":176,"geometry":{"type":"Point","coordinates":[-76.45854299999996,3.2590670000000728]},"properties":{"OBJECTID":176,"Rio":"Rio Palo","Punto_Monitoreo":"Desembocadura a río Cauca","Latitud_WGS84":3.259067,"Longitud_WGS84":-76.458543,"N_Registros":25,"Año_Min":2016,"Año_Max":2025,"Fuente_CRS":"EPSG:3115 (CRC)"}},{"type":"Feature","id":177,"geometry":{"type":"Point","coordinates":[-76.40341699999993,3.1331560000000422]},"properties":{"OBJECTID":177,"Rio":"Rio Palo","Punto_Monitoreo":"Después de PTAR Guachené","Latitud_WGS84":3.133156,"Longitud_WGS84":-76.403417,"N_Registros":22,"Año_Min":2017,"Año_Max":2025,"Fuente_CRS":"EPSG:3115 (CRC)"}},{"type":"Feature","id":178,"geometry":{"type":"Point","coordinates":[-76.41410099999996,3.2052580000000717]},"properties":{"OBJECTID":178,"Rio":"Rio Palo","Punto_Monitoreo":"Puente PICC","Latitud_WGS84":3.205258,"Longitud_WGS84":-76.414101,"N_Registros":22,"Año_Min":2017,"Año_Max":2025,"Fuente_CRS":"EPSG:3115 (CRC)"}},{"type":"Feature","id":179,"geometry":{"type":"Point","coordinates":[-76.42179699999997,3.2162440000000743]},"properties":{"OBJECTID":179,"Rio":"Rio Palo","Punto_Monitoreo":"Puente Perico Negro","Latitud_WGS84":3.216244,"Longitud_WGS84":-76.421797,"N_Registros":25,"Año_Min":2016,"Año_Max":2025,"Fuente_CRS":"EPSG:3115 (CRC)"}},{"type":"Feature","id":180,"geometry":{"type":"Point","coordinates":[-76.42242899999997,3.230295000000069]},"properties":{"OBJECTID":180,"Rio":"Rio Palo","Punto_Monitoreo":"Puente Puerto Tejada","Latitud_WGS84":3.230295,"Longitud_WGS84":-76.422429,"N_Registros":22,"Año_Min":2017,"Año_Max":2025,"Fuente_CRS":"EPSG:3115 (CRC)"}},{"type":"Feature","id":181,"geometry":{"type":"Point","coordinates":[-76.41984599999995,3.163996000000054]},"properties":{"OBJECTID":181,"Rio":"Rio Palo","Punto_Monitoreo":"Puente del Maíz","Latitud_WGS84":3.163996,"Longitud_WGS84":-76.419846,"N_Registros":22,"Año_Min":2017,"Año_Max":2025,"Fuente_CRS":"EPSG:3115 (CRC)"}},{"type":"Feature","id":182,"geometry":{"type":"Point","coordinates":[-76.46274999999997,3.5161390000000665]},"properties":{"OBJECTID":182,"Rio":"Rio Guachal","Punto_Monitoreo":"GG1 - Después Confluencia Ríos Fraile Y Bolo","Latitud_WGS84":3.516139,"Longitud_WGS84":-76.46275,"N_Registros":0,"Año_Min":null,"Año_Max":null,"Fuente_CRS":"EPSG:3115 (PORH CVC-Univalle Convenio 245-021, 2023)"}},{"type":"Feature","id":183,"geometry":{"type":"Point","coordinates":[-76.45659599999993,3.5597720000000663]},"properties":{"OBJECTID":183,"Rio":"Rio Guachal","Punto_Monitoreo":"GG2 - Puente vía Yumbo-Aeropuerto","Latitud_WGS84":3.559772,"Longitud_WGS84":-76.456596,"N_Registros":0,"Año_Min":null,"Año_Max":null,"Fuente_CRS":"EPSG:3115 (PORH CVC-Univalle Convenio 245-021, 2023)"}}]}