{
  "type": "FeatureCollection",
  "features": [
    {
      "type": "Feature",
      "id": 1,
      "geometry": {
        "type": "Point",
        "coordinates": [
          -76.27163499999995,
          3.609461000000067
        ]
      },
      "properties": {
        "OBJECTID": 1,
        "Join_Count": 1,
        "TARGET_FID": 1,
        "Rio": "Amaime",
        "Estacion": "Amaime",
        "Municipio": "El Cerrito",
        "Suspendida": "No",
        "Cuenca": "Amaime",
        "Latitud": 3.609461,
        "Longitud": -76.271635,
        "OBJECTID_1": 2142,
        "COD_DRENAJ": "2609128000000",
        "NOM1_DRENA": "Rio Amaime",
        "NOM2_DRENA": " ",
        "TIPO_DRENA": "1402010201",
        "ESTADO_DRE": " ",
        "VERTIENTE": "Cauca",
        "COD_CUENCA": "26128000000",
        "NOM_CUENCA": "Amaime",
        "COD_AREA_D": "26128000000",
        "ESCALA": 0,
        "NIVEL_VISU": 2,
        "FUENTE": " ",
        "RULEID": 1,
        "ID_DRENAJE": 2795,
        "MONITOREO": " ",
        "COD_AREA_1": " ",
        "COD_TRAMO": " ",
        "NUM_TRAMO": " ",
        "CLASE": " ",
        "Shape__Len": 86195.0376975,
        "LENGTH": 0,
        "NAME": " ",
        "CATEGORIA": 0,
        "LON_2010": 0,
        "VERIF": 0,
        "Longi": 0,
        "COD_DRENAJE": null,
        "NOM1_DRENAJE": null,
        "NOM2_DRENAJE": null,
        "TIPO_DRENAJE": null,
        "ESTADO_DRENAJE": null,
        "COD_AREA_DRENAJE": null,
        "NIVEL_VISUAL": null,
        "COD_AREA_DRENAJE_IDEAM": null
      }
    },
    {
      "type": "Feature",
      "id": 2,
      "geometry": {
        "type": "Point",
        "coordinates": [
          -76.18241199999994,
          3.6166600000000244
        ]
      },
      "properties": {
        "OBJECTID": 2,
        "Join_Count": 1,
        "TARGET_FID": 2,
        "Rio": "Amaime",
        "Estacion": "Los Ceibos",
        "Municipio": "Palmira",
        "Suspendida": "No",
        "Cuenca": "Amaime",
        "Latitud": 3.61666,
        "Longitud": -76.182412,
        "OBJECTID_1": 2142,
        "COD_DRENAJ": "2609128000000",
        "NOM1_DRENA": "Rio Amaime",
        "NOM2_DRENA": " ",
        "TIPO_DRENA": "1402010201",
        "ESTADO_DRE": " ",
        "VERTIENTE": "Cauca",
        "COD_CUENCA": "26128000000",
        "NOM_CUENCA": "Amaime",
        "COD_AREA_D": "26128000000",
        "ESCALA": 0,
        "NIVEL_VISU": 2,
        "FUENTE": " ",
        "RULEID": 1,
        "ID_DRENAJE": 2795,
        "MONITOREO": " ",
        "COD_AREA_1": " ",
        "COD_TRAMO": " ",
        "NUM_TRAMO": " ",
        "CLASE": " ",
        "Shape__Len": 86195.0376975,
        "LENGTH": 0,
        "NAME": " ",
        "CATEGORIA": 0,
        "LON_2010": 0,
        "VERIF": 0,
        "Longi": 0,
        "COD_DRENAJE": null,
        "NOM1_DRENAJE": null,
        "NOM2_DRENAJE": null,
        "TIPO_DRENAJE": null,
        "ESTADO_DRENAJE": null,
        "COD_AREA_DRENAJE": null,
        "NIVEL_VISUAL": null,
        "COD_AREA_DRENAJE_IDEAM": null
      }
    },
    {
      "type": "Feature",
      "id": 3,
      "geometry": {
        "type": "Point",
        "coordinates": [
          -76.23314599999998,
          3.7659720000000334
        ]
      },
      "properties": {
        "OBJECTID": 3,
        "Join_Count": 1,
        "TARGET_FID": 3,
        "Rio": "Guabas",
        "Estacion": "Puente Piedra",
        "Municipio": "Ginebra",
        "Suspendida": "No",
        "Cuenca": "Guabas",
        "Latitud": 3.765972,
        "Longitud": -76.233146,
        "OBJECTID_1": 2221,
        "COD_DRENAJ": "2632131000000",
        "NOM1_DRENA": "Rio Guabas",
        "NOM2_DRENA": " ",
        "TIPO_DRENA": "1402010201",
        "ESTADO_DRE": " ",
        "VERTIENTE": "Cauca",
        "COD_CUENCA": "26131000000",
        "NOM_CUENCA": "Guabas",
        "COD_AREA_D": "26131000000",
        "ESCALA": 0,
        "NIVEL_VISU": 2,
        "FUENTE": " ",
        "RULEID": 1,
        "ID_DRENAJE": 2894,
        "MONITOREO": " ",
        "COD_AREA_1": " ",
        "COD_TRAMO": " ",
        "NUM_TRAMO": " ",
        "CLASE": " ",
        "Shape__Len": 42185.7781595,
        "LENGTH": 0,
        "NAME": " ",
        "CATEGORIA": 0,
        "LON_2010": 0,
        "VERIF": 0,
        "Longi": 0,
        "COD_DRENAJE": null,
        "NOM1_DRENAJE": null,
        "NOM2_DRENAJE": null,
        "TIPO_DRENAJE": null,
        "ESTADO_DRENAJE": null,
        "COD_AREA_DRENAJE": null,
        "NIVEL_VISUAL": null,
        "COD_AREA_DRENAJE_IDEAM": null
      }
    },
    {
      "type": "Feature",
      "id": 4,
      "geometry": {
        "type": "Point",
        "coordinates": [
          -76.26465699999994,
          3.888242000000048
        ]
      },
      "properties": {
        "OBJECTID": 4,
        "Join_Count": 1,
        "TARGET_FID": 4,
        "Rio": "Guadalajara",
        "Estacion": "El Vergel",
        "Municipio": "Guadalajara de Buga",
        "Suspendida": "No",
        "Cuenca": "Guadalajara",
        "Latitud": 3.888242,
        "Longitud": -76.264657,
        "OBJECTID_1": 2224,
        "COD_DRENAJ": "2633136000000",
        "NOM1_DRENA": "Rio Guadalajara",
        "NOM2_DRENA": " ",
        "TIPO_DRENA": "1402010201",
        "ESTADO_DRE": " ",
        "VERTIENTE": "Cauca",
        "COD_CUENCA": "26136000000",
        "NOM_CUENCA": "Guadalajara",
        "COD_AREA_D": "26136000000",
        "ESCALA": 0,
        "NIVEL_VISU": 2,
        "FUENTE": " ",
        "RULEID": 1,
        "ID_DRENAJE": 2897,
        "MONITOREO": " ",
        "COD_AREA_1": " ",
        "COD_TRAMO": " ",
        "NUM_TRAMO": " ",
        "CLASE": " ",
        "Shape__Len": 26186.6267291,
        "LENGTH": 0,
        "NAME": " ",
        "CATEGORIA": 0,
        "LON_2010": 0,
        "VERIF": 0,
        "Longi": 0,
        "COD_DRENAJE": null,
        "NOM1_DRENAJE": null,
        "NOM2_DRENAJE": null,
        "TIPO_DRENAJE": null,
        "ESTADO_DRENAJE": null,
        "COD_AREA_DRENAJE": null,
        "NIVEL_VISUAL": null,
        "COD_AREA_DRENAJE_IDEAM": null
      }
    },
    {
      "type": "Feature",
      "id": 5,
      "geometry": {
        "type": "Point",
        "coordinates": [
          -76.29786799999994,
          3.472731000000067
        ]
      },
      "properties": {
        "OBJECTID": 5,
        "Join_Count": 1,
        "TARGET_FID": 5,
        "Rio": "Rio Bolo",
        "Estacion": "Arriba",
        "Municipio": "Palmira",
        "Suspendida": "Si",
        "Cuenca": "Guachal (Bolo-Fraile)",
        "Latitud": 3.472731,
        "Longitud": -76.297868,
        "OBJECTID_1": 114419,
        "COD_DRENAJ": "2607127030000",
        "NOM1_DRENA": "Rio Bolo",
        "NOM2_DRENA": " ",
        "TIPO_DRENA": "1402010201",
        "ESTADO_DRE": " ",
        "VERTIENTE": "Cauca",
        "COD_CUENCA": "26127000000",
        "NOM_CUENCA": "Guachal",
        "COD_AREA_D": "26127100000",
        "ESCALA": 0,
        "NIVEL_VISU": 2,
        "FUENTE": " ",
        "RULEID": 1,
        "ID_DRENAJE": 137307,
        "MONITOREO": " ",
        "COD_AREA_1": " ",
        "COD_TRAMO": " ",
        "NUM_TRAMO": " ",
        "CLASE": " ",
        "Shape__Len": 47984.4403403,
        "LENGTH": 0,
        "NAME": " ",
        "CATEGORIA": 0,
        "LON_2010": 0,
        "VERIF": 0,
        "Longi": 0,
        "COD_DRENAJE": null,
        "NOM1_DRENAJE": null,
        "NOM2_DRENAJE": null,
        "TIPO_DRENAJE": null,
        "ESTADO_DRENAJE": null,
        "COD_AREA_DRENAJE": null,
        "NIVEL_VISUAL": null,
        "COD_AREA_DRENAJE_IDEAM": null
      }
    },
    {
      "type": "Feature",
      "id": 6,
      "geometry": {
        "type": "Point",
        "coordinates": [
          -76.17410499999994,
          3.4197200000000407
        ]
      },
      "properties": {
        "OBJECTID": 6,
        "Join_Count": 1,
        "TARGET_FID": 6,
        "Rio": "Rio Bolo",
        "Estacion": "Los Minchos",
        "Municipio": "Pradera",
        "Suspendida": "No",
        "Cuenca": "Guachal (Bolo-Fraile)",
        "Latitud": 3.41972,
        "Longitud": -76.174105,
        "OBJECTID_1": 114419,
        "COD_DRENAJ": "2607127030000",
        "NOM1_DRENA": "Rio Bolo",
        "NOM2_DRENA": " ",
        "TIPO_DRENA": "1402010201",
        "ESTADO_DRE": " ",
        "VERTIENTE": "Cauca",
        "COD_CUENCA": "26127000000",
        "NOM_CUENCA": "Guachal",
        "COD_AREA_D": "26127100000",
        "ESCALA": 0,
        "NIVEL_VISU": 2,
        "FUENTE": " ",
        "RULEID": 1,
        "ID_DRENAJE": 137307,
        "MONITOREO": " ",
        "COD_AREA_1": " ",
        "COD_TRAMO": " ",
        "NUM_TRAMO": " ",
        "CLASE": " ",
        "Shape__Len": 47984.4403403,
        "LENGTH": 0,
        "NAME": " ",
        "CATEGORIA": 0,
        "LON_2010": 0,
        "VERIF": 0,
        "Longi": 0,
        "COD_DRENAJE": null,
        "NOM1_DRENAJE": null,
        "NOM2_DRENAJE": null,
        "TIPO_DRENAJE": null,
        "ESTADO_DRENAJE": null,
        "COD_AREA_DRENAJE": null,
        "NIVEL_VISUAL": null,
        "COD_AREA_DRENAJE_IDEAM": null
      }
    },
    {
      "type": "Feature",
      "id": 7,
      "geometry": {
        "type": "Point",
        "coordinates": [
          -76.08262699999995,
          4.097444000000053
        ]
      },
      "properties": {
        "OBJECTID": 7,
        "Join_Count": 1,
        "TARGET_FID": 7,
        "Rio": "Rio Bugalagrande",
        "Estacion": "El Placer",
        "Municipio": "Andalucia",
        "Suspendida": "No",
        "Cuenca": "Bugalagrande",
        "Latitud": 4.097444,
        "Longitud": -76.082627,
        "OBJECTID_1": 2156,
        "COD_DRENAJ": "2635144000000",
        "NOM1_DRENA": "Rio Bugalagrande",
        "NOM2_DRENA": " ",
        "TIPO_DRENA": "1402010201",
        "ESTADO_DRE": " ",
        "VERTIENTE": "Cauca",
        "COD_CUENCA": "26144000000",
        "NOM_CUENCA": "Bugalagrande",
        "COD_AREA_D": "26144000000",
        "ESCALA": 0,
        "NIVEL_VISU": 2,
        "FUENTE": " ",
        "RULEID": 1,
        "ID_DRENAJE": 2812,
        "MONITOREO": " ",
        "COD_AREA_1": " ",
        "COD_TRAMO": " ",
        "NUM_TRAMO": " ",
        "CLASE": " ",
        "Shape__Len": 99204.5417737,
        "LENGTH": 0,
        "NAME": " ",
        "CATEGORIA": 0,
        "LON_2010": 0,
        "VERIF": 0,
        "Longi": 0,
        "COD_DRENAJE": null,
        "NOM1_DRENAJE": null,
        "NOM2_DRENAJE": null,
        "TIPO_DRENAJE": null,
        "ESTADO_DRENAJE": null,
        "COD_AREA_DRENAJE": null,
        "NIVEL_VISUAL": null,
        "COD_AREA_DRENAJE_IDEAM": null
      }
    },
    {
      "type": "Feature",
      "id": 8,
      "geometry": {
        "type": "Point",
        "coordinates": [
          -76.34403099999997,
          3.281791000000055
        ]
      },
      "properties": {
        "OBJECTID": 8,
        "Join_Count": 1,
        "TARGET_FID": 8,
        "Rio": "Rio Desbaratado",
        "Estacion": "Ortigal",
        "Municipio": "Florida",
        "Suspendida": "Si",
        "Cuenca": "Desbaratado",
        "Latitud": 3.281791,
        "Longitud": -76.344031,
        "OBJECTID_1": 2208,
        "COD_DRENAJ": "2622122000000",
        "NOM1_DRENA": "Rio Desbaratado",
        "NOM2_DRENA": " ",
        "TIPO_DRENA": "1402010201",
        "ESTADO_DRE": " ",
        "VERTIENTE": "Cauca",
        "COD_CUENCA": "26122000000",
        "NOM_CUENCA": "Desbaratado",
        "COD_AREA_D": "26120000000",
        "ESCALA": 0,
        "NIVEL_VISU": 1,
        "FUENTE": " ",
        "RULEID": 1,
        "ID_DRENAJE": 2877,
        "MONITOREO": " ",
        "COD_AREA_1": " ",
        "COD_TRAMO": " ",
        "NUM_TRAMO": " ",
        "CLASE": " ",
        "Shape__Len": 65335.9004445,
        "LENGTH": 0,
        "NAME": " ",
        "CATEGORIA": 0,
        "LON_2010": 0,
        "VERIF": 0,
        "Longi": 0,
        "COD_DRENAJE": null,
        "NOM1_DRENAJE": null,
        "NOM2_DRENAJE": null,
        "TIPO_DRENAJE": null,
        "ESTADO_DRENAJE": null,
        "COD_AREA_DRENAJE": null,
        "NIVEL_VISUAL": null,
        "COD_AREA_DRENAJE_IDEAM": null
      }
    },
    {
      "type": "Feature",
      "id": 9,
      "geometry": {
        "type": "Point",
        "coordinates": [
          -76.26498799999996,
          3.33483300000006
        ]
      },
      "properties": {
        "OBJECTID": 9,
        "Join_Count": 1,
        "TARGET_FID": 9,
        "Rio": "Rio Fraile",
        "Estacion": "La Industria",
        "Municipio": "Florida",
        "Suspendida": "No",
        "Cuenca": "Guachal (Bolo-Fraile)",
        "Latitud": 3.334833,
        "Longitud": -76.264988,
        "OBJECTID_1": 118701,
        "COD_DRENAJ": "2607127010000",
        "NOM1_DRENA": "Rio Fraile",
        "NOM2_DRENA": " ",
        "TIPO_DRENA": "1402010201",
        "ESTADO_DRE": " ",
        "VERTIENTE": "Cauca",
        "COD_CUENCA": "26127000000",
        "NOM_CUENCA": "Guachal",
        "COD_AREA_D": "26127060000",
        "ESCALA": 0,
        "NIVEL_VISU": 2,
        "FUENTE": " ",
        "RULEID": 1,
        "ID_DRENAJE": 142669,
        "MONITOREO": " ",
        "COD_AREA_1": "2607127010000",
        "COD_TRAMO": " ",
        "NUM_TRAMO": " ",
        "CLASE": " ",
        "Shape__Len": 80545.5129151,
        "LENGTH": 0,
        "NAME": " ",
        "CATEGORIA": 0,
        "LON_2010": 0,
        "VERIF": 0,
        "Longi": 0,
        "COD_DRENAJE": null,
        "NOM1_DRENAJE": null,
        "NOM2_DRENAJE": null,
        "TIPO_DRENAJE": null,
        "ESTADO_DRENAJE": null,
        "COD_AREA_DRENAJE": null,
        "NIVEL_VISUAL": null,
        "COD_AREA_DRENAJE_IDEAM": null
      }
    },
    {
      "type": "Feature",
      "id": 10,
      "geometry": {
        "type": "Point",
        "coordinates": [
          -76.04598199999998,
          4.29793200000006
        ]
      },
      "properties": {
        "OBJECTID": 10,
        "Join_Count": 1,
        "TARGET_FID": 10,
        "Rio": "Rio La Paila",
        "Estacion": "La Sorpresa",
        "Municipio": "Zarzal",
        "Suspendida": "No",
        "Cuenca": "La Paila",
        "Latitud": 4.297932,
        "Longitud": -76.045982,
        "OBJECTID_1": 2229,
        "COD_DRENAJ": "2636145000000",
        "NOM1_DRENA": "Rio La Paila",
        "NOM2_DRENA": " ",
        "TIPO_DRENA": "1402010201",
        "ESTADO_DRE": " ",
        "VERTIENTE": "Cauca",
        "COD_CUENCA": "26145000000",
        "NOM_CUENCA": "La Paila",
        "COD_AREA_D": "26145000000",
        "ESCALA": 0,
        "NIVEL_VISU": 2,
        "FUENTE": " ",
        "RULEID": 1,
        "ID_DRENAJE": 2902,
        "MONITOREO": " ",
        "COD_AREA_1": " ",
        "COD_TRAMO": " ",
        "NUM_TRAMO": " ",
        "CLASE": " ",
        "Shape__Len": 66350.2759945,
        "LENGTH": 0,
        "NAME": " ",
        "CATEGORIA": 0,
        "LON_2010": 0,
        "VERIF": 0,
        "Longi": 0,
        "COD_DRENAJE": null,
        "NOM1_DRENAJE": null,
        "NOM2_DRENAJE": null,
        "TIPO_DRENAJE": null,
        "ESTADO_DRENAJE": null,
        "COD_AREA_DRENAJE": null,
        "NIVEL_VISUAL": null,
        "COD_AREA_DRENAJE_IDEAM": null
      }
    },
    {
      "type": "Feature",
      "id": 11,
      "geometry": {
        "type": "Point",
        "coordinates": [
          -76.36923599999994,
          3.0590490000000727
        ]
      },
      "properties": {
        "OBJECTID": 11,
        "Join_Count": 1,
        "TARGET_FID": 11,
        "Rio": "Rio Palo",
        "Estacion": "Bocatoma",
        "Municipio": "Caloto",
        "Suspendida": "No",
        "Cuenca": "Cauca",
        "Latitud": 3.059049,
        "Longitud": -76.369236,
        "OBJECTID_1": 0,
        "COD_DRENAJ": " ",
        "NOM1_DRENA": "Rio Palo",
        "NOM2_DRENA": " ",
        "TIPO_DRENA": " ",
        "ESTADO_DRE": " ",
        "VERTIENTE": " ",
        "COD_CUENCA": " ",
        "NOM_CUENCA": " ",
        "COD_AREA_D": " ",
        "ESCALA": 0,
        "NIVEL_VISU": 0,
        "FUENTE": " ",
        "RULEID": 0,
        "ID_DRENAJE": 0,
        "MONITOREO": " ",
        "COD_AREA_1": " ",
        "COD_TRAMO": " ",
        "NUM_TRAMO": " ",
        "CLASE": " ",
        "Shape__Len": 0,
        "LENGTH": 60941.922,
        "NAME": "RIO PALO",
        "CATEGORIA": 3,
        "LON_2010": 60941.9144241,
        "VERIF": 0.00757589999557,
        "Longi": 60.9418983,
        "COD_DRENAJE": null,
        "NOM1_DRENAJE": null,
        "NOM2_DRENAJE": null,
        "TIPO_DRENAJE": null,
        "ESTADO_DRENAJE": null,
        "COD_AREA_DRENAJE": null,
        "NIVEL_VISUAL": null,
        "COD_AREA_DRENAJE_IDEAM": null
      }
    },
    {
      "type": "Feature",
      "id": 12,
      "geometry": {
        "type": "Point",
        "coordinates": [
          -76.34656399999994,
          3.063803000000064
        ]
      },
      "properties": {
        "OBJECTID": 12,
        "Join_Count": 1,
        "TARGET_FID": 12,
        "Rio": "Rio Palo",
        "Estacion": "Canal Bocatoma",
        "Municipio": "Caloto",
        "Suspendida": "No",
        "Cuenca": "Cauca",
        "Latitud": 3.063803,
        "Longitud": -76.346564,
        "OBJECTID_1": 0,
        "COD_DRENAJ": " ",
        "NOM1_DRENA": "Rio Palo",
        "NOM2_DRENA": " ",
        "TIPO_DRENA": " ",
        "ESTADO_DRE": " ",
        "VERTIENTE": " ",
        "COD_CUENCA": " ",
        "NOM_CUENCA": " ",
        "COD_AREA_D": " ",
        "ESCALA": 0,
        "NIVEL_VISU": 0,
        "FUENTE": " ",
        "RULEID": 0,
        "ID_DRENAJE": 0,
        "MONITOREO": " ",
        "COD_AREA_1": " ",
        "COD_TRAMO": " ",
        "NUM_TRAMO": " ",
        "CLASE": " ",
        "Shape__Len": 0,
        "LENGTH": 60941.922,
        "NAME": "RIO PALO",
        "CATEGORIA": 3,
        "LON_2010": 60941.9144241,
        "VERIF": 0.00757589999557,
        "Longi": 60.9418983,
        "COD_DRENAJE": null,
        "NOM1_DRENAJE": null,
        "NOM2_DRENAJE": null,
        "TIPO_DRENAJE": null,
        "ESTADO_DRENAJE": null,
        "COD_AREA_DRENAJE": null,
        "NIVEL_VISUAL": null,
        "COD_AREA_DRENAJE_IDEAM": null
      }
    },
    {
      "type": "Feature",
      "id": 13,
      "geometry": {
        "type": "Point",
        "coordinates": [
          -76.42272199999996,
          3.2305070000000455
        ]
      },
      "properties": {
        "OBJECTID": 13,
        "Join_Count": 1,
        "TARGET_FID": 13,
        "Rio": "Rio Palo",
        "Estacion": "Puerto Tejada",
        "Municipio": "Puerto Tejada",
        "Suspendida": "No",
        "Cuenca": "Cauca",
        "Latitud": 3.230507,
        "Longitud": -76.422722,
        "OBJECTID_1": 0,
        "COD_DRENAJ": " ",
        "NOM1_DRENA": "Rio Palo",
        "NOM2_DRENA": " ",
        "TIPO_DRENA": " ",
        "ESTADO_DRE": " ",
        "VERTIENTE": " ",
        "COD_CUENCA": " ",
        "NOM_CUENCA": " ",
        "COD_AREA_D": " ",
        "ESCALA": 0,
        "NIVEL_VISU": 0,
        "FUENTE": " ",
        "RULEID": 0,
        "ID_DRENAJE": 0,
        "MONITOREO": " ",
        "COD_AREA_1": " ",
        "COD_TRAMO": " ",
        "NUM_TRAMO": " ",
        "CLASE": " ",
        "Shape__Len": 0,
        "LENGTH": 60941.922,
        "NAME": "RIO PALO",
        "CATEGORIA": 3,
        "LON_2010": 60941.9144241,
        "VERIF": 0.00757589999557,
        "Longi": 60.9418983,
        "COD_DRENAJE": null,
        "NOM1_DRENAJE": null,
        "NOM2_DRENAJE": null,
        "TIPO_DRENAJE": null,
        "ESTADO_DRENAJE": null,
        "COD_AREA_DRENAJE": null,
        "NIVEL_VISUAL": null,
        "COD_AREA_DRENAJE_IDEAM": null
      }
    },
    {
      "type": "Feature",
      "id": 14,
      "geometry": {
        "type": "Point",
        "coordinates": [
          -76.36537999999996,
          4.13301400000006
        ]
      },
      "properties": {
        "OBJECTID": 14,
        "Join_Count": 1,
        "TARGET_FID": 14,
        "Rio": "Riofrio",
        "Estacion": "Salonica",
        "Municipio": "Riofrio",
        "Suspendida": "No",
        "Cuenca": "Riofrio",
        "Latitud": 4.133014,
        "Longitud": -76.36538,
        "OBJECTID_1": 2262,
        "COD_DRENAJ": "2611240000000",
        "NOM1_DRENA": "Rio Riofrio",
        "NOM2_DRENA": " ",
        "TIPO_DRENA": "1402010201",
        "ESTADO_DRE": " ",
        "VERTIENTE": "Cauca",
        "COD_CUENCA": "26240000000",
        "NOM_CUENCA": "Riofrio",
        "COD_AREA_D": "26240000000",
        "ESCALA": 0,
        "NIVEL_VISU": 2,
        "FUENTE": " ",
        "RULEID": 1,
        "ID_DRENAJE": 2948,
        "MONITOREO": " ",
        "COD_AREA_1": " ",
        "COD_TRAMO": " ",
        "NUM_TRAMO": " ",
        "CLASE": " ",
        "Shape__Len": 43640.1364837,
        "LENGTH": 0,
        "NAME": " ",
        "CATEGORIA": 0,
        "LON_2010": 0,
        "VERIF": 0,
        "Longi": 0,
        "COD_DRENAJE": null,
        "NOM1_DRENAJE": null,
        "NOM2_DRENAJE": null,
        "TIPO_DRENAJE": null,
        "ESTADO_DRENAJE": null,
        "COD_AREA_DRENAJE": null,
        "NIVEL_VISUAL": null,
        "COD_AREA_DRENAJE_IDEAM": null
      }
    },
    {
      "type": "Feature",
      "id": 15,
      "geometry": {
        "type": "Point",
        "coordinates": [
          -76.15787799999998,
          4.016055000000051
        ]
      },
      "properties": {
        "OBJECTID": 15,
        "Join_Count": 1,
        "TARGET_FID": 15,
        "Rio": "Tulua",
        "Estacion": "Mateguadua",
        "Municipio": "Tulua",
        "Suspendida": "No",
        "Cuenca": "Tulua",
        "Latitud": 4.016055,
        "Longitud": -76.157878,
        "OBJECTID_1": 2282,
        "COD_DRENAJ": "2610141000000",
        "NOM1_DRENA": "Rio Tulua",
        "NOM2_DRENA": " ",
        "TIPO_DRENA": "1402010201",
        "ESTADO_DRE": " ",
        "VERTIENTE": "Cauca",
        "COD_CUENCA": "26141000000",
        "NOM_CUENCA": "Tulua",
        "COD_AREA_D": "26141000000",
        "ESCALA": 0,
        "NIVEL_VISU": 2,
        "FUENTE": " ",
        "RULEID": 1,
        "ID_DRENAJE": 2973,
        "MONITOREO": " ",
        "COD_AREA_1": " ",
        "COD_TRAMO": " ",
        "NUM_TRAMO": " ",
        "CLASE": " ",
        "Shape__Len": 73267.4471041,
        "LENGTH": 0,
        "NAME": " ",
        "CATEGORIA": 0,
        "LON_2010": 0,
        "VERIF": 0,
        "Longi": 0,
        "COD_DRENAJE": null,
        "NOM1_DRENAJE": null,
        "NOM2_DRENAJE": null,
        "TIPO_DRENAJE": null,
        "ESTADO_DRENAJE": null,
        "COD_AREA_DRENAJE": null,
        "NIVEL_VISUAL": null,
        "COD_AREA_DRENAJE_IDEAM": null
      }
    },
    {
      "type": "Feature",
      "id": 16,
      "geometry": {
        "type": "Point",
        "coordinates": [
          -75.8134,
          5.18854
        ]
      },
      "properties": {
        "OBJECTID": 16,
        "Join_Count": null,
        "TARGET_FID": null,
        "Rio": "Rio Risaralda",
        "Estacion": "Casa Maquinas",
        "Municipio": "",
        "Suspendida": "No",
        "Cuenca": "Risaralda",
        "Latitud": 5.18854,
        "Longitud": -75.8134,
        "OBJECTID_1": null,
        "COD_DRENAJ": null,
        "NOM1_DRENA": null,
        "NOM2_DRENA": null,
        "TIPO_DRENA": null,
        "ESTADO_DRE": null,
        "VERTIENTE": null,
        "COD_CUENCA": null,
        "NOM_CUENCA": null,
        "COD_AREA_D": null,
        "ESCALA": null,
        "NIVEL_VISU": null,
        "FUENTE": null,
        "RULEID": null,
        "ID_DRENAJE": null,
        "MONITOREO": null,
        "COD_AREA_1": null,
        "COD_TRAMO": null,
        "NUM_TRAMO": null,
        "CLASE": null,
        "Shape__Len": null,
        "LENGTH": null,
        "NAME": null,
        "CATEGORIA": null,
        "LON_2010": null,
        "VERIF": null,
        "Longi": null,
        "COD_DRENAJE": null,
        "NOM1_DRENAJE": null,
        "NOM2_DRENAJE": null,
        "TIPO_DRENAJE": null,
        "ESTADO_DRENAJE": null,
        "COD_AREA_DRENAJE": null,
        "NIVEL_VISUAL": null,
        "COD_AREA_DRENAJE_IDEAM": null
      }
    },
    {
      "type": "Feature",
      "id": 17,
      "geometry": {
        "type": "Point",
        "coordinates": [
          -75.804,
          5.22567
        ]
      },
      "properties": {
        "OBJECTID": 17,
        "Join_Count": null,
        "TARGET_FID": null,
        "Rio": "Rio Risaralda",
        "Estacion": "Rio Risaralda EHT",
        "Municipio": "",
        "Suspendida": "No",
        "Cuenca": "Risaralda",
        "Latitud": 5.22567,
        "Longitud": -75.804,
        "OBJECTID_1": null,
        "COD_DRENAJ": null,
        "NOM1_DRENA": null,
        "NOM2_DRENA": null,
        "TIPO_DRENA": null,
        "ESTADO_DRE": null,
        "VERTIENTE": null,
        "COD_CUENCA": null,
        "NOM_CUENCA": null,
        "COD_AREA_D": null,
        "ESCALA": null,
        "NIVEL_VISU": null,
        "FUENTE": null,
        "RULEID": null,
        "ID_DRENAJE": null,
        "MONITOREO": null,
        "COD_AREA_1": null,
        "COD_TRAMO": null,
        "NUM_TRAMO": null,
        "CLASE": null,
        "Shape__Len": null,
        "LENGTH": null,
        "NAME": null,
        "CATEGORIA": null,
        "LON_2010": null,
        "VERIF": null,
        "Longi": null,
        "COD_DRENAJE": null,
        "NOM1_DRENAJE": null,
        "NOM2_DRENAJE": null,
        "TIPO_DRENAJE": null,
        "ESTADO_DRENAJE": null,
        "COD_AREA_DRENAJE": null,
        "NIVEL_VISUAL": null,
        "COD_AREA_DRENAJE_IDEAM": null
      }
    },
    {
      "type": "Feature",
      "id": 18,
      "geometry": {
        "type": "Point",
        "coordinates": [
          -76.349902,
          3.374429
        ]
      },
      "properties": {
        "OBJECTID": 18,
        "Join_Count": null,
        "TARGET_FID": null,
        "Rio": "Rio Fraile",
        "Estacion": "Buichitolo",
        "Municipio": "Candelaria",
        "Suspendida": "No",
        "Cuenca": "Guachal (Bolo-Fraile)",
        "Latitud": 3.374429,
        "Longitud": -76.349902,
        "OBJECTID_1": null,
        "COD_DRENAJ": null,
        "NOM1_DRENA": null,
        "NOM2_DRENA": null,
        "TIPO_DRENA": null,
        "ESTADO_DRE": null,
        "VERTIENTE": null,
        "COD_CUENCA": null,
        "NOM_CUENCA": null,
        "COD_AREA_D": null,
        "ESCALA": null,
        "NIVEL_VISU": null,
        "FUENTE": null,
        "RULEID": null,
        "ID_DRENAJE": null,
        "MONITOREO": null,
        "COD_AREA_1": null,
        "COD_TRAMO": null,
        "NUM_TRAMO": null,
        "CLASE": null,
        "Shape__Len": null,
        "LENGTH": null,
        "NAME": null,
        "CATEGORIA": null,
        "LON_2010": null,
        "VERIF": null,
        "Longi": null,
        "COD_DRENAJE": null,
        "NOM1_DRENAJE": null,
        "NOM2_DRENAJE": null,
        "TIPO_DRENAJE": null,
        "ESTADO_DRENAJE": null,
        "COD_AREA_DRENAJE": null,
        "NIVEL_VISUAL": null,
        "COD_AREA_DRENAJE_IDEAM": null
      }
    },
    {
      "type": "Feature",
      "id": 19,
      "geometry": {
        "type": "Point",
        "coordinates": [
          -76.243118,
          4.141772
        ]
      },
      "properties": {
        "OBJECTID": 19,
        "Join_Count": null,
        "TARGET_FID": null,
        "Rio": "Rio Tulua",
        "Estacion": "La Rafaela",
        "Municipio": "Tulua",
        "Suspendida": "Si",
        "Cuenca": "Tulua",
        "Latitud": 4.141772,
        "Longitud": -76.243118,
        "OBJECTID_1": null,
        "COD_DRENAJ": null,
        "NOM1_DRENA": null,
        "NOM2_DRENA": null,
        "TIPO_DRENA": null,
        "ESTADO_DRE": null,
        "VERTIENTE": null,
        "COD_CUENCA": null,
        "NOM_CUENCA": null,
        "COD_AREA_D": null,
        "ESCALA": null,
        "NIVEL_VISU": null,
        "FUENTE": null,
        "RULEID": null,
        "ID_DRENAJE": null,
        "MONITOREO": null,
        "COD_AREA_1": null,
        "COD_TRAMO": null,
        "NUM_TRAMO": null,
        "CLASE": null,
        "Shape__Len": null,
        "LENGTH": null,
        "NAME": null,
        "CATEGORIA": null,
        "LON_2010": null,
        "VERIF": null,
        "Longi": null,
        "COD_DRENAJE": null,
        "NOM1_DRENAJE": null,
        "NOM2_DRENAJE": null,
        "TIPO_DRENAJE": null,
        "ESTADO_DRENAJE": null,
        "COD_AREA_DRENAJE": null,
        "NIVEL_VISUAL": null,
        "COD_AREA_DRENAJE_IDEAM": null
      }
    }
  ]
}