{"type":"FeatureCollection","crs":{"type":"name","properties":{"name":"urn:ogc:def:crs:OGC:1.3:CRS84"}},"features":[{"type":"Feature","geometry":{"type":"Point","coordinates":[-75.844,5.109283]},"properties":{"Rio":"Rio Risaralda","Punto_Monitoreo":"Quebrada Chapata - Desembocadura","Latitud_WGS84":5.109283,"Longitud_WGS84":-75.844,"N_Registros":50,"Año_Min":1998,"Año_Max":2025,"Fuente_CRS":"WGS84 (geovisor CVC/CARDER)","csv_filename":"Rio_Risaralda_Quebrada_Chapata_Desembocadura.csv","parametros_recientes":"[{\"param\": \"pH Campo\", \"valor\": \"8.1\", \"anio\": 2025}, {\"param\": \"Temperatura Agua (°C)\", \"valor\": \"23.5\", \"anio\": 2025}, {\"param\": \"Turbiedad (UNT)\", \"valor\": \"5.43\", \"anio\": 2025}, {\"param\": \"Sólidos Suspendidos Totales (mg/l)\", \"valor\": \"11.4\", \"anio\": 2025}, {\"param\": \"DBO (mg O2/l)\", \"valor\": \"< 2\", \"anio\": 2025}, {\"param\": \"DQO (mg O2/l)\", \"valor\": \"< 20\", \"anio\": 2025}, {\"param\": \"Oxígeno Disuelto (mg O2/l)\", \"valor\": \"7.88\", \"anio\": 2012}, {\"param\": \"Nitrógeno Total (mg N/l)\", \"valor\": \"< 5\", \"anio\": 2025}, {\"param\": \"Fósforo Total (mg P/l)\", \"valor\": \"< 0.015\", \"anio\": 2025}]"}},{"type":"Feature","geometry":{"type":"Point","coordinates":[-76.220366,3.769996]},"properties":{"Rio":"Rio Guabas","Punto_Monitoreo":"Rio Guabas - Quebrada Los Lulos - Antes desembocadura a rio Guabas","Latitud_WGS84":3.769996,"Longitud_WGS84":-76.220366,"N_Registros":17,"Año_Min":2016,"Año_Max":2025,"Fuente_CRS":"EPSG:3115","csv_filename":"Rio_Guabas_Rio_Guabas_Quebrada_Los_Lulos_Antes_desemboca.csv","parametros_recientes":"[{\"param\": \"pH Campo\", \"valor\": \"8.14\", \"anio\": 2025}, {\"param\": \"Temperatura Agua (°C)\", \"valor\": \"19.9\", \"anio\": 2025}, {\"param\": \"Turbiedad (UNT)\", \"valor\": \"4.7\", \"anio\": 2025}, {\"param\": \"Sólidos Suspendidos Totales (mg/l)\", \"valor\": \"11.7\", \"anio\": 2024}, {\"param\": \"DBO (mg O2/l)\", \"valor\": \"1.18\", \"anio\": 2025}, {\"param\": \"DQO (mg O2/l)\", \"valor\": \"12.4\", \"anio\": 2025}, {\"param\": \"Oxígeno Disuelto (mg O2/l)\", \"valor\": \"7.52\", \"anio\": 2025}, {\"param\": \"Nitrógeno Total (mg N/l)\", \"valor\": \"1.05\", \"anio\": 2025}, {\"param\": \"Fósforo Total (mg P/l)\", \"valor\": \"0.0946\", \"anio\": 2025}, {\"param\": \"Coliformes Fecales (NMP/100ml)\", \"valor\": \"430\", \"anio\": 2025}]"}},{"type":"Feature","geometry":{"type":"Point","coordinates":[-76.186934,3.61777]},"properties":{"Rio":"Rio Amaime","Punto_Monitoreo":"Rio Amaime - Antes Caserio Tablones - Balneario Puerto Amor","Latitud_WGS84":3.61777,"Longitud_WGS84":-76.186934,"N_Registros":18,"Año_Min":2016,"Año_Max":2025,"Fuente_CRS":"EPSG:3115","csv_filename":"Rio_Amaime_Rio_Amaime_Antes_Caserio_Tablones_Balneario_P.csv","parametros_recientes":"[{\"param\": \"pH Campo\", \"valor\": \"8.1\", \"anio\": 2024}, {\"param\": \"Temperatura Agua (°C)\", \"valor\": \"17.7\", \"anio\": 2024}, {\"param\": \"Turbiedad (UNT)\", \"valor\": \"8.5\", \"anio\": 2025}, {\"param\": \"Sólidos Suspendidos Totales (mg/l)\", \"valor\": \"11.7\", \"anio\": 2025}, {\"param\": \"DBO (mg O2/l)\", \"valor\": \"0.924\", \"anio\": 2025}, {\"param\": \"DQO (mg O2/l)\", \"valor\": \"12.4\", \"anio\": 2025}, {\"param\": \"Oxígeno Disuelto (mg O2/l)\", \"valor\": \"6.75\", \"anio\": 2025}, {\"param\": \"Nitrógeno Total (mg N/l)\", \"valor\": \"2.11\", \"anio\": 2025}, {\"param\": \"Fósforo Total (mg P/l)\", \"valor\": \"0.0946\", \"anio\": 2025}, {\"param\": \"Coliformes Fecales (NMP/100ml)\", \"valor\": \"2300\", \"anio\": 2025}]"}},{"type":"Feature","geometry":{"type":"Point","coordinates":[-76.26564,3.611248]},"properties":{"Rio":"Rio Amaime","Punto_Monitoreo":"Rio Amaime - Antes Caserio el Placer","Latitud_WGS84":3.611248,"Longitud_WGS84":-76.26564,"N_Registros":19,"Año_Min":2016,"Año_Max":2025,"Fuente_CRS":"EPSG:3115","csv_filename":"Rio_Amaime_Rio_Amaime_Antes_Caserio_el_Placer.csv","parametros_recientes":"[{\"param\": \"pH Campo\", \"valor\": \"7.79\", \"anio\": 2025}, {\"param\": \"Temperatura Agua (°C)\", \"valor\": \"19.8\", \"anio\": 2025}, {\"param\": \"Turbiedad (UNT)\", \"valor\": \"9.4\", \"anio\": 2025}, {\"param\": \"Sólidos Suspendidos Totales (mg/l)\", \"valor\": \"11.7\", \"anio\": 2025}, {\"param\": \"DBO (mg O2/l)\", \"valor\": \"1\", \"anio\": 2025}, {\"param\": \"DQO (mg O2/l)\", \"valor\": \"12.4\", \"anio\": 2025}, {\"param\": \"Oxígeno Disuelto (mg O2/l)\", \"valor\": \"6.88\", \"anio\": 2025}, {\"param\": \"Nitrógeno Total (mg N/l)\", \"valor\": \"3.4\", \"anio\": 2025}, {\"param\": \"Fósforo Total (mg P/l)\", \"valor\": \"0.0946\", \"anio\": 2025}, {\"param\": \"Coliformes Fecales (NMP/100ml)\", \"valor\": \"15000\", \"anio\": 2025}]"}},{"type":"Feature","geometry":{"type":"Point","coordinates":[-76.279243,3.604254]},"properties":{"Rio":"Rio Amaime","Punto_Monitoreo":"Rio Amaime - Antes desembocadura de Rio Nima","Latitud_WGS84":3.604254,"Longitud_WGS84":-76.279243,"N_Registros":19,"Año_Min":2016,"Año_Max":2025,"Fuente_CRS":"EPSG:3115","csv_filename":"Rio_Amaime_Rio_Amaime_Antes_desembocadura_de_Rio_Nima.csv","parametros_recientes":"[{\"param\": \"pH Campo\", \"valor\": \"7.85\", \"anio\": 2025}, {\"param\": \"Temperatura Agua (°C)\", \"valor\": \"19.5\", \"anio\": 2025}, {\"param\": \"Turbiedad (UNT)\", \"valor\": \"13\", \"anio\": 2025}, {\"param\": \"Sólidos Suspendidos Totales (mg/l)\", \"valor\": \"11.7\", \"anio\": 2025}, {\"param\": \"DBO (mg O2/l)\", \"valor\": \"6.67\", \"anio\": 2025}, {\"param\": \"DQO (mg O2/l)\", \"valor\": \"22.1\", \"anio\": 2025}, {\"param\": \"Oxígeno Disuelto (mg O2/l)\", \"valor\": \"5.33\", \"anio\": 2025}, {\"param\": \"Nitrógeno Total (mg N/l)\", \"valor\": \"3.78\", \"anio\": 2025}, {\"param\": \"Fósforo Total (mg P/l)\", \"valor\": \"0.433\", \"anio\": 2025}, {\"param\": \"Coliformes Fecales (NMP/100ml)\", \"valor\": \"430000\", \"anio\": 2025}]"}},{"type":"Feature","geometry":{"type":"Point","coordinates":[-76.108868,3.617634]},"properties":{"Rio":"Rio Amaime","Punto_Monitoreo":"Rio Amaime - Despues Caserio Auji","Latitud_WGS84":3.617634,"Longitud_WGS84":-76.108868,"N_Registros":15,"Año_Min":2016,"Año_Max":2023,"Fuente_CRS":"EPSG:3115","csv_filename":"Rio_Amaime_Rio_Amaime_Despues_Caserio_Auji.csv","parametros_recientes":"[{\"param\": \"pH Campo\", \"valor\": \"8.02\", \"anio\": 2023}, {\"param\": \"Temperatura Agua (°C)\", \"valor\": \"19.1\", \"anio\": 2023}, {\"param\": \"Turbiedad (UNT)\", \"valor\": \"12\", \"anio\": 2023}, {\"param\": \"Sólidos Suspendidos Totales (mg/l)\", \"valor\": \"13\", \"anio\": 2023}, {\"param\": \"DBO (mg O2/l)\", \"valor\": \"0.924\", \"anio\": 2023}, {\"param\": \"DQO (mg O2/l)\", \"valor\": \"24.6\", \"anio\": 2023}, {\"param\": \"Oxígeno Disuelto (mg O2/l)\", \"valor\": \"8.07\", \"anio\": 2023}, {\"param\": \"Nitrógeno Total (mg N/l)\", \"valor\": \"0.5\", \"anio\": 2023}, {\"param\": \"Fósforo Total (mg P/l)\", \"valor\": \"0.0946\", \"anio\": 2023}, {\"param\": \"Coliformes Fecales (NMP/100ml)\", \"valor\": \"4600\", \"anio\": 2023}]"}},{"type":"Feature","geometry":{"type":"Point","coordinates":[-76.408735,3.665939]},"properties":{"Rio":"Rio Amaime","Punto_Monitoreo":"Rio Amaime - antes Desembocadura a Rio Cauca","Latitud_WGS84":3.665939,"Longitud_WGS84":-76.408735,"N_Registros":19,"Año_Min":2016,"Año_Max":2025,"Fuente_CRS":"EPSG:3115","csv_filename":"Rio_Amaime_Rio_Amaime_antes_Desembocadura_a_Rio_Cauca.csv","parametros_recientes":"[{\"param\": \"pH Campo\", \"valor\": \"7.94\", \"anio\": 2025}, {\"param\": \"Temperatura Agua (°C)\", \"valor\": \"21.2\", \"anio\": 2025}, {\"param\": \"Turbiedad (UNT)\", \"valor\": \"6.1\", \"anio\": 2025}, {\"param\": \"Sólidos Suspendidos Totales (mg/l)\", \"valor\": \"11.7\", \"anio\": 2025}, {\"param\": \"DBO (mg O2/l)\", \"valor\": \"1.43\", \"anio\": 2025}, {\"param\": \"DQO (mg O2/l)\", \"valor\": \"12.4\", \"anio\": 2025}, {\"param\": \"Oxígeno Disuelto (mg O2/l)\", \"valor\": \"5.47\", \"anio\": 2025}, {\"param\": \"Nitrógeno Total (mg N/l)\", \"valor\": \"3.72\", \"anio\": 2025}, {\"param\": \"Fósforo Total (mg P/l)\", \"valor\": \"0.286\", \"anio\": 2025}, {\"param\": \"Coliformes Fecales (NMP/100ml)\", \"valor\": \"2400\", \"anio\": 2025}]"}},{"type":"Feature","geometry":{"type":"Point","coordinates":[-76.448059,3.49987]},"properties":{"Rio":"Rio Bolo","Punto_Monitoreo":"Rio Bolo - Antes desembocadura a Frayle en puente Recta Cali - Palmira","Latitud_WGS84":3.49987,"Longitud_WGS84":-76.448059,"N_Registros":16,"Año_Min":2016,"Año_Max":2025,"Fuente_CRS":"EPSG:3115","csv_filename":"Rio_Bolo_Rio_Bolo_Antes_desembocadura_a_Frayle_en_puente.csv","parametros_recientes":"[{\"param\": \"pH Campo\", \"valor\": \"7.7\", \"anio\": 2025}, {\"param\": \"Temperatura Agua (°C)\", \"valor\": \"23\", \"anio\": 2025}, {\"param\": \"Turbiedad (UNT)\", \"valor\": \"65\", \"anio\": 2025}, {\"param\": \"Sólidos Suspendidos Totales (mg/l)\", \"valor\": \"169\", \"anio\": 2025}, {\"param\": \"DBO (mg O2/l)\", \"valor\": \"3.2\", \"anio\": 2025}, {\"param\": \"DQO (mg O2/l)\", \"valor\": \"12.4\", \"anio\": 2025}, {\"param\": \"Oxígeno Disuelto (mg O2/l)\", \"valor\": \"6\", \"anio\": 2025}, {\"param\": \"Nitrógeno Total (mg N/l)\", \"valor\": \"2.7\", \"anio\": 2025}, {\"param\": \"Fósforo Total (mg P/l)\", \"valor\": \"0.23\", \"anio\": 2025}, {\"param\": \"Coliformes Fecales (NMP/100ml)\", \"valor\": \"93000\", \"anio\": 2025}]"}},{"type":"Feature","geometry":{"type":"Point","coordinates":[-76.173935,3.419529]},"properties":{"Rio":"Rio Bolo","Punto_Monitoreo":"Rio Bolo - Limnígrafo CVC - Los Minchos","Latitud_WGS84":3.419529,"Longitud_WGS84":-76.173935,"N_Registros":15,"Año_Min":2016,"Año_Max":2025,"Fuente_CRS":"EPSG:3115","csv_filename":"Rio_Bolo_Rio_Bolo_Limnigrafo_CVC_Los_Minchos.csv","parametros_recientes":"[{\"param\": \"pH Campo\", \"valor\": \"7.6\", \"anio\": 2025}, {\"param\": \"Temperatura Agua (°C)\", \"valor\": \"18\", \"anio\": 2025}, {\"param\": \"Turbiedad (UNT)\", \"valor\": \"7.8\", \"anio\": 2025}, {\"param\": \"Sólidos Suspendidos Totales (mg/l)\", \"valor\": \"19\", \"anio\": 2025}, {\"param\": \"DBO (mg O2/l)\", \"valor\": \"1.5\", \"anio\": 2025}, {\"param\": \"DQO (mg O2/l)\", \"valor\": \"33\", \"anio\": 2025}, {\"param\": \"Oxígeno Disuelto (mg O2/l)\", \"valor\": \"7.6\", \"anio\": 2025}, {\"param\": \"Nitrógeno Total (mg N/l)\", \"valor\": \"1.4\", \"anio\": 2025}, {\"param\": \"Fósforo Total (mg P/l)\", \"valor\": \"0.0946\", \"anio\": 2025}, {\"param\": \"Coliformes Fecales (NMP/100ml)\", \"valor\": \"1500\", \"anio\": 2025}]"}},{"type":"Feature","geometry":{"type":"Point","coordinates":[-76.3362,3.459193]},"properties":{"Rio":"Rio Bolo","Punto_Monitoreo":"Rio Bolo - Puente Bolo - San Isidro - vía a Candelaria","Latitud_WGS84":3.459193,"Longitud_WGS84":-76.3362,"N_Registros":16,"Año_Min":2016,"Año_Max":2025,"Fuente_CRS":"EPSG:3115","csv_filename":"Rio_Bolo_Rio_Bolo_Puente_Bolo_San_Isidro_via_a_Candelari.csv","parametros_recientes":"[{\"param\": \"pH Campo\", \"valor\": \"7.6\", \"anio\": 2025}, {\"param\": \"Temperatura Agua (°C)\", \"valor\": \"22\", \"anio\": 2025}, {\"param\": \"Turbiedad (UNT)\", \"valor\": \"34\", \"anio\": 2025}, {\"param\": \"Sólidos Suspendidos Totales (mg/l)\", \"valor\": \"39\", \"anio\": 2025}, {\"param\": \"DBO (mg O2/l)\", \"valor\": \"1.9\", \"anio\": 2025}, {\"param\": \"DQO (mg O2/l)\", \"valor\": \"12.4\", \"anio\": 2025}, {\"param\": \"Oxígeno Disuelto (mg O2/l)\", \"valor\": \"6.8\", \"anio\": 2025}, {\"param\": \"Nitrógeno Total (mg N/l)\", \"valor\": \"2.5\", \"anio\": 2025}, {\"param\": \"Fósforo Total (mg P/l)\", \"valor\": \"0.14\", \"anio\": 2025}, {\"param\": \"Coliformes Fecales (NMP/100ml)\", \"valor\": \"93000\", \"anio\": 2025}]"}},{"type":"Feature","geometry":{"type":"Point","coordinates":[-76.24564,3.431176]},"properties":{"Rio":"Rio Bolo","Punto_Monitoreo":"Rio Bolo - Puente Pradera - Palmira","Latitud_WGS84":3.431176,"Longitud_WGS84":-76.24564,"N_Registros":16,"Año_Min":2016,"Año_Max":2025,"Fuente_CRS":"EPSG:3115","csv_filename":"Rio_Bolo_Rio_Bolo_Puente_Pradera_Palmira.csv","parametros_recientes":"[{\"param\": \"pH Campo\", \"valor\": \"7.8\", \"anio\": 2025}, {\"param\": \"Temperatura Agua (°C)\", \"valor\": \"21\", \"anio\": 2025}, {\"param\": \"Turbiedad (UNT)\", \"valor\": \"12\", \"anio\": 2025}, {\"param\": \"Sólidos Suspendidos Totales (mg/l)\", \"valor\": \"25\", \"anio\": 2025}, {\"param\": \"DBO (mg O2/l)\", \"valor\": \"5.2\", \"anio\": 2025}, {\"param\": \"DQO (mg O2/l)\", \"valor\": \"12.4\", \"anio\": 2025}, {\"param\": \"Oxígeno Disuelto (mg O2/l)\", \"valor\": \"7.1\", \"anio\": 2025}, {\"param\": \"Nitrógeno Total (mg N/l)\", \"valor\": \"1.5\", \"anio\": 2025}, {\"param\": \"Fósforo Total (mg P/l)\", \"valor\": \"0.0946\", \"anio\": 2025}, {\"param\": \"Coliformes Fecales (NMP/100ml)\", \"valor\": \"24000\", \"anio\": 2025}]"}},{"type":"Feature","geometry":{"type":"Point","coordinates":[-76.145174,4.17503]},"properties":{"Rio":"Rio Bugalagrande","Punto_Monitoreo":"Rio Bugalagrande - Conciviles - Andalucía","Latitud_WGS84":4.17503,"Longitud_WGS84":-76.145174,"N_Registros":18,"Año_Min":2016,"Año_Max":2025,"Fuente_CRS":"EPSG:3115","csv_filename":"Rio_Bugalagrande_Rio_Bugalagrande_Conciviles_Andalucia.csv","parametros_recientes":"[{\"param\": \"pH Campo\", \"valor\": \"7.65\", \"anio\": 2025}, {\"param\": \"Temperatura Agua (°C)\", \"valor\": \"21.6\", \"anio\": 2025}, {\"param\": \"Turbiedad (UNT)\", \"valor\": \"20\", \"anio\": 2025}, {\"param\": \"Sólidos Suspendidos Totales (mg/l)\", \"valor\": \"22\", \"anio\": 2025}, {\"param\": \"DBO (mg O2/l)\", \"valor\": \"1.17\", \"anio\": 2025}, {\"param\": \"DQO (mg O2/l)\", \"valor\": \"12.4\", \"anio\": 2025}, {\"param\": \"Oxígeno Disuelto (mg O2/l)\", \"valor\": \"7.03\", \"anio\": 2025}, {\"param\": \"Nitrógeno Total (mg N/l)\", \"valor\": \"0.463\", \"anio\": 2025}, {\"param\": \"Fósforo Total (mg P/l)\", \"valor\": \"0.0946\", \"anio\": 2025}, {\"param\": \"Coliformes Fecales (NMP/100ml)\", \"valor\": \"2400\", \"anio\": 2025}]"}},{"type":"Feature","geometry":{"type":"Point","coordinates":[-76.078444,4.094426]},"properties":{"Rio":"Rio Bugalagrande","Punto_Monitoreo":"Rio Bugalagrande - Puente Colgante El Placer","Latitud_WGS84":4.094426,"Longitud_WGS84":-76.078444,"N_Registros":15,"Año_Min":2016,"Año_Max":2024,"Fuente_CRS":"EPSG:3115","csv_filename":"Rio_Bugalagrande_Rio_Bugalagrande_Puente_Colgante_El_Pla.csv","parametros_recientes":"[{\"param\": \"pH Campo\", \"valor\": \"8.68\", \"anio\": 2024}, {\"param\": \"Temperatura Agua (°C)\", \"valor\": \"23\", \"anio\": 2024}, {\"param\": \"Turbiedad (UNT)\", \"valor\": \"1.8\", \"anio\": 2024}, {\"param\": \"Sólidos Suspendidos Totales (mg/l)\", \"valor\": \"11.7\", \"anio\": 2024}, {\"param\": \"DBO (mg O2/l)\", \"valor\": \"1.3\", \"anio\": 2024}, {\"param\": \"DQO (mg O2/l)\", \"valor\": \"28.5\", \"anio\": 2024}, {\"param\": \"Oxígeno Disuelto (mg O2/l)\", \"valor\": \"8.87\", \"anio\": 2024}, {\"param\": \"Nitrógeno Total (mg N/l)\", \"valor\": \"0.67\", \"anio\": 2024}, {\"param\": \"Fósforo Total (mg P/l)\", \"valor\": \"0.0946\", \"anio\": 2024}, {\"param\": \"Coliformes Fecales (NMP/100ml)\", \"valor\": \"430\", \"anio\": 2024}]"}},{"type":"Feature","geometry":{"type":"Point","coordinates":[-76.156756,4.194746]},"properties":{"Rio":"Rio Bugalagrande","Punto_Monitoreo":"Rio Bugalagrande - Puente Variante Bugalagrande","Latitud_WGS84":4.194746,"Longitud_WGS84":-76.156756,"N_Registros":18,"Año_Min":2016,"Año_Max":2025,"Fuente_CRS":"EPSG:3115","csv_filename":"Rio_Bugalagrande_Rio_Bugalagrande_Puente_Variante_Bugala.csv","parametros_recientes":"[{\"param\": \"pH Campo\", \"valor\": \"8.11\", \"anio\": 2025}, {\"param\": \"Temperatura Agua (°C)\", \"valor\": \"24\", \"anio\": 2025}, {\"param\": \"Turbiedad (UNT)\", \"valor\": \"6.8\", \"anio\": 2025}, {\"param\": \"Sólidos Suspendidos Totales (mg/l)\", \"valor\": \"11.7\", \"anio\": 2025}, {\"param\": \"DBO (mg O2/l)\", \"valor\": \"1.24\", \"anio\": 2025}, {\"param\": \"DQO (mg O2/l)\", \"valor\": \"12.4\", \"anio\": 2025}, {\"param\": \"Oxígeno Disuelto (mg O2/l)\", \"valor\": \"6.21\", \"anio\": 2025}, {\"param\": \"Nitrógeno Total (mg N/l)\", \"valor\": \"0.463\", \"anio\": 2025}, {\"param\": \"Fósforo Total (mg P/l)\", \"valor\": \"0.0946\", \"anio\": 2025}, {\"param\": \"Coliformes Fecales (NMP/100ml)\", \"valor\": \"2400\", \"anio\": 2025}]"}},{"type":"Feature","geometry":{"type":"Point","coordinates":[-76.036542,4.094919]},"properties":{"Rio":"Rio Bugalagrande","Punto_Monitoreo":"Rio Bugalagrande - Puente antes Caserio San Rafael.","Latitud_WGS84":4.094919,"Longitud_WGS84":-76.036542,"N_Registros":14,"Año_Min":2016,"Año_Max":2024,"Fuente_CRS":"EPSG:3115","csv_filename":"Rio_Bugalagrande_Rio_Bugalagrande_Puente_antes_Caserio_S.csv","parametros_recientes":"[{\"param\": \"pH Campo\", \"valor\": \"8.08\", \"anio\": 2023}, {\"param\": \"Temperatura Agua (°C)\", \"valor\": \"20.6\", \"anio\": 2024}, {\"param\": \"Turbiedad (UNT)\", \"valor\": \"5.5\", \"anio\": 2024}, {\"param\": \"Sólidos Suspendidos Totales (mg/l)\", \"valor\": \"11.7\", \"anio\": 2024}, {\"param\": \"DBO (mg O2/l)\", \"valor\": \"1.35\", \"anio\": 2024}, {\"param\": \"DQO (mg O2/l)\", \"valor\": \"12.4\", \"anio\": 2024}, {\"param\": \"Oxígeno Disuelto (mg O2/l)\", \"valor\": \"8.18\", \"anio\": 2024}, {\"param\": \"Nitrógeno Total (mg N/l)\", \"valor\": \"0.463\", \"anio\": 2024}, {\"param\": \"Fósforo Total (mg P/l)\", \"valor\": \"0.0946\", \"anio\": 2024}, {\"param\": \"Coliformes Fecales (NMP/100ml)\", \"valor\": \"1500\", \"anio\": 2024}]"}},{"type":"Feature","geometry":{"type":"Point","coordinates":[-76.164733,4.257935]},"properties":{"Rio":"Rio Bugalagrande","Punto_Monitoreo":"Rio Bugalagrande - antes desembocadura a Río Cauca - Hacienda El Guayabo","Latitud_WGS84":4.257935,"Longitud_WGS84":-76.164733,"N_Registros":18,"Año_Min":2016,"Año_Max":2025,"Fuente_CRS":"EPSG:3115","csv_filename":"Rio_Bugalagrande_Rio_Bugalagrande_antes_desembocadura_a.csv","parametros_recientes":"[{\"param\": \"pH Campo\", \"valor\": \"8.06\", \"anio\": 2025}, {\"param\": \"Temperatura Agua (°C)\", \"valor\": \"25.9\", \"anio\": 2025}, {\"param\": \"Turbiedad (UNT)\", \"valor\": \"10\", \"anio\": 2025}, {\"param\": \"Sólidos Suspendidos Totales (mg/l)\", \"valor\": \"11.7\", \"anio\": 2025}, {\"param\": \"DBO (mg O2/l)\", \"valor\": \"1.83\", \"anio\": 2025}, {\"param\": \"DQO (mg O2/l)\", \"valor\": \"12.4\", \"anio\": 2025}, {\"param\": \"Oxígeno Disuelto (mg O2/l)\", \"valor\": \"5.59\", \"anio\": 2025}, {\"param\": \"Nitrógeno Total (mg N/l)\", \"valor\": \"0.808\", \"anio\": 2025}, {\"param\": \"Fósforo Total (mg P/l)\", \"valor\": \"0.0946\", \"anio\": 2025}, {\"param\": \"Coliformes Fecales (NMP/100ml)\", \"valor\": \"46000\", \"anio\": 2025}]"}},{"type":"Feature","geometry":{"type":"Point","coordinates":[-75.88808,4.892604]},"properties":{"Rio":"Rio Risaralda","Punto_Monitoreo":"Río Cauca - Antes río Risaralda","Latitud_WGS84":4.892604,"Longitud_WGS84":-75.88808,"N_Registros":47,"Año_Min":2001,"Año_Max":2025,"Fuente_CRS":"WGS84 (geovisor CVC/CARDER)","csv_filename":"Rio_Risaralda_Rio_Cauca_Antes_rio_Risaralda.csv","parametros_recientes":"[{\"param\": \"pH Campo\", \"valor\": \"7.22\", \"anio\": 2025}, {\"param\": \"Temperatura Agua (°C)\", \"valor\": \"25.4\", \"anio\": 2025}, {\"param\": \"Turbiedad (UNT)\", \"valor\": \"120\", \"anio\": 2025}, {\"param\": \"Sólidos Suspendidos Totales (mg/l)\", \"valor\": \"219\", \"anio\": 2025}, {\"param\": \"DBO (mg O2/l)\", \"valor\": \"9.25\", \"anio\": 2025}, {\"param\": \"DQO (mg O2/l)\", \"valor\": \"24.4\", \"anio\": 2025}, {\"param\": \"Oxígeno Disuelto (mg O2/l)\", \"valor\": \"4.26\", \"anio\": 2008}, {\"param\": \"Nitrógeno Total (mg N/l)\", \"valor\": \"< 5\", \"anio\": 2025}, {\"param\": \"Fósforo Total (mg P/l)\", \"valor\": \"0.539\", \"anio\": 2025}]"}},{"type":"Feature","geometry":{"type":"Point","coordinates":[-76.455438,3.498186]},"properties":{"Rio":"Rio Frayle","Punto_Monitoreo":"Rio Frayle - Antes Desembocadura a rio Guachal Recta Cali Palmira","Latitud_WGS84":3.498186,"Longitud_WGS84":-76.455438,"N_Registros":15,"Año_Min":2016,"Año_Max":2025,"Fuente_CRS":"EPSG:3115","csv_filename":"Rio_Frayle_Rio_Frayle_Antes_Desembocadura_a_rio_Guachal.csv","parametros_recientes":"[{\"param\": \"pH Campo\", \"valor\": \"7.4\", \"anio\": 2025}, {\"param\": \"Temperatura Agua (°C)\", \"valor\": \"24\", \"anio\": 2025}, {\"param\": \"Turbiedad (UNT)\", \"valor\": \"85\", \"anio\": 2025}, {\"param\": \"Sólidos Suspendidos Totales (mg/l)\", \"valor\": \"172\", \"anio\": 2025}, {\"param\": \"DBO (mg O2/l)\", \"valor\": \"4.2\", \"anio\": 2025}, {\"param\": \"DQO (mg O2/l)\", \"valor\": \"25\", \"anio\": 2025}, {\"param\": \"Oxígeno Disuelto (mg O2/l)\", \"valor\": \"3\", \"anio\": 2025}, {\"param\": \"Nitrógeno Total (mg N/l)\", \"valor\": \"3.1\", \"anio\": 2025}, {\"param\": \"Fósforo Total (mg P/l)\", \"valor\": \"0.37\", \"anio\": 2025}, {\"param\": \"Coliformes Fecales (NMP/100ml)\", \"valor\": \"93000\", \"anio\": 2025}]"}},{"type":"Feature","geometry":{"type":"Point","coordinates":[-76.349164,3.373742]},"properties":{"Rio":"Rio Frayle","Punto_Monitoreo":"Rio Frayle - Limnigrafo CVC - caserio Brisas de Frayle","Latitud_WGS84":3.373742,"Longitud_WGS84":-76.349164,"N_Registros":16,"Año_Min":2016,"Año_Max":2025,"Fuente_CRS":"EPSG:3115","csv_filename":"Rio_Frayle_Rio_Frayle_Limnigrafo_CVC_caserio_Brisas_de_F.csv","parametros_recientes":"[{\"param\": \"pH Campo\", \"valor\": \"7.6\", \"anio\": 2025}, {\"param\": \"Temperatura Agua (°C)\", \"valor\": \"21\", \"anio\": 2025}, {\"param\": \"Turbiedad (UNT)\", \"valor\": \"50\", \"anio\": 2025}, {\"param\": \"Sólidos Suspendidos Totales (mg/l)\", \"valor\": \"44\", \"anio\": 2025}, {\"param\": \"DBO (mg O2/l)\", \"valor\": \"1.9\", \"anio\": 2025}, {\"param\": \"DQO (mg O2/l)\", \"valor\": \"12.4\", \"anio\": 2025}, {\"param\": \"Oxígeno Disuelto (mg O2/l)\", \"valor\": \"6.8\", \"anio\": 2025}, {\"param\": \"Nitrógeno Total (mg N/l)\", \"valor\": \"1.5\", \"anio\": 2025}, {\"param\": \"Fósforo Total (mg P/l)\", \"valor\": \"0.17\", \"anio\": 2025}, {\"param\": \"Coliformes Fecales (NMP/100ml)\", \"valor\": \"93000\", \"anio\": 2025}]"}},{"type":"Feature","geometry":{"type":"Point","coordinates":[-76.210105,3.305802]},"properties":{"Rio":"Rio Frayle","Punto_Monitoreo":"Rio Frayle - Nacimiento El Pedregal","Latitud_WGS84":3.305802,"Longitud_WGS84":-76.210105,"N_Registros":16,"Año_Min":2016,"Año_Max":2025,"Fuente_CRS":"EPSG:3115","csv_filename":"Rio_Frayle_Rio_Frayle_Nacimiento_El_Pedregal.csv","parametros_recientes":"[{\"param\": \"pH Campo\", \"valor\": \"7.4\", \"anio\": 2025}, {\"param\": \"Temperatura Agua (°C)\", \"valor\": \"18\", \"anio\": 2025}, {\"param\": \"Turbiedad (UNT)\", \"valor\": \"7.7\", \"anio\": 2025}, {\"param\": \"Sólidos Suspendidos Totales (mg/l)\", \"valor\": \"11.7\", \"anio\": 2025}, {\"param\": \"DBO (mg O2/l)\", \"valor\": \"1.1\", \"anio\": 2025}, {\"param\": \"DQO (mg O2/l)\", \"valor\": \"12.4\", \"anio\": 2025}, {\"param\": \"Oxígeno Disuelto (mg O2/l)\", \"valor\": \"7.8\", \"anio\": 2025}, {\"param\": \"Nitrógeno Total (mg N/l)\", \"valor\": \"1.7\", \"anio\": 2025}, {\"param\": \"Fósforo Total (mg P/l)\", \"valor\": \"0.0946\", \"anio\": 2025}, {\"param\": \"Coliformes Fecales (NMP/100ml)\", \"valor\": \"930.0000000000001\", \"anio\": 2025}]"}},{"type":"Feature","geometry":{"type":"Point","coordinates":[-76.237517,3.318517]},"properties":{"Rio":"Rio Frayle","Punto_Monitoreo":"Rio Frayle - Puente Vía a Miranda","Latitud_WGS84":3.318517,"Longitud_WGS84":-76.237517,"N_Registros":16,"Año_Min":2016,"Año_Max":2025,"Fuente_CRS":"EPSG:3115","csv_filename":"Rio_Frayle_Rio_Frayle_Puente_Via_a_Miranda.csv","parametros_recientes":"[{\"param\": \"pH Campo\", \"valor\": \"7.3\", \"anio\": 2025}, {\"param\": \"Temperatura Agua (°C)\", \"valor\": \"21\", \"anio\": 2025}, {\"param\": \"Turbiedad (UNT)\", \"valor\": \"28\", \"anio\": 2025}, {\"param\": \"Sólidos Suspendidos Totales (mg/l)\", \"valor\": \"41\", \"anio\": 2025}, {\"param\": \"DBO (mg O2/l)\", \"valor\": \"7\", \"anio\": 2025}, {\"param\": \"DQO (mg O2/l)\", \"valor\": \"25\", \"anio\": 2025}, {\"param\": \"Oxígeno Disuelto (mg O2/l)\", \"valor\": \"6.8\", \"anio\": 2025}, {\"param\": \"Nitrógeno Total (mg N/l)\", \"valor\": \"4.3\", \"anio\": 2025}, {\"param\": \"Fósforo Total (mg P/l)\", \"valor\": \"0.44\", \"anio\": 2025}, {\"param\": \"Coliformes Fecales (NMP/100ml)\", \"valor\": \"2400000\", \"anio\": 2025}]"}},{"type":"Feature","geometry":{"type":"Point","coordinates":[-76.176617,3.749357]},"properties":{"Rio":"Rio Guabas","Punto_Monitoreo":"Rio Guabas - Antes Mina La Victoria","Latitud_WGS84":3.749357,"Longitud_WGS84":-76.176617,"N_Registros":17,"Año_Min":2016,"Año_Max":2025,"Fuente_CRS":"EPSG:3115","csv_filename":"Rio_Guabas_Rio_Guabas_Antes_Mina_La_Victoria.csv","parametros_recientes":"[{\"param\": \"pH Campo\", \"valor\": \"8.26\", \"anio\": 2025}, {\"param\": \"Temperatura Agua (°C)\", \"valor\": \"17.5\", \"anio\": 2025}, {\"param\": \"Turbiedad (UNT)\", \"valor\": \"24\", \"anio\": 2025}, {\"param\": \"Sólidos Suspendidos Totales (mg/l)\", \"valor\": \"16.3\", \"anio\": 2024}, {\"param\": \"DBO (mg O2/l)\", \"valor\": \"2.36\", \"anio\": 2025}, {\"param\": \"DQO (mg O2/l)\", \"valor\": \"14.4\", \"anio\": 2025}, {\"param\": \"Oxígeno Disuelto (mg O2/l)\", \"valor\": \"7.93\", \"anio\": 2025}, {\"param\": \"Nitrógeno Total (mg N/l)\", \"valor\": \"1.11\", \"anio\": 2025}, {\"param\": \"Fósforo Total (mg P/l)\", \"valor\": \"0.0946\", \"anio\": 2025}, {\"param\": \"Coliformes Fecales (NMP/100ml)\", \"valor\": \"15000\", \"anio\": 2025}]"}},{"type":"Feature","geometry":{"type":"Point","coordinates":[-76.376225,3.770083]},"properties":{"Rio":"Rio Guabas","Punto_Monitoreo":"Rio Guabas - Antes desembocadura a Río Cauca","Latitud_WGS84":3.770083,"Longitud_WGS84":-76.376225,"N_Registros":17,"Año_Min":2016,"Año_Max":2025,"Fuente_CRS":"EPSG:3115","csv_filename":"Rio_Guabas_Rio_Guabas_Antes_desembocadura_a_Rio_Cauca.csv","parametros_recientes":"[{\"param\": \"pH Campo\", \"valor\": \"7.88\", \"anio\": 2025}, {\"param\": \"Temperatura Agua (°C)\", \"valor\": \"21\", \"anio\": 2025}, {\"param\": \"Turbiedad (UNT)\", \"valor\": \"55\", \"anio\": 2025}, {\"param\": \"Sólidos Suspendidos Totales (mg/l)\", \"valor\": \"33.3\", \"anio\": 2024}, {\"param\": \"DBO (mg O2/l)\", \"valor\": \"1.55\", \"anio\": 2025}, {\"param\": \"DQO (mg O2/l)\", \"valor\": \"12.4\", \"anio\": 2025}, {\"param\": \"Oxígeno Disuelto (mg O2/l)\", \"valor\": \"7.51\", \"anio\": 2025}, {\"param\": \"Nitrógeno Total (mg N/l)\", \"valor\": \"1.42\", \"anio\": 2025}, {\"param\": \"Fósforo Total (mg P/l)\", \"valor\": \"0.0946\", \"anio\": 2025}, {\"param\": \"Coliformes Fecales (NMP/100ml)\", \"valor\": \"9300\", \"anio\": 2025}]"}},{"type":"Feature","geometry":{"type":"Point","coordinates":[-76.230902,3.76628]},"properties":{"Rio":"Rio Guabas","Punto_Monitoreo":"Rio Guabas - Puente Rojo - Bocatoma Acueducto de Ginebra","Latitud_WGS84":3.76628,"Longitud_WGS84":-76.230902,"N_Registros":15,"Año_Min":2016,"Año_Max":2025,"Fuente_CRS":"EPSG:3115","csv_filename":"Rio_Guabas_Rio_Guabas_Puente_Rojo_Bocatoma_Acueducto_de.csv","parametros_recientes":"[{\"param\": \"pH Campo\", \"valor\": \"8.17\", \"anio\": 2025}, {\"param\": \"Temperatura Agua (°C)\", \"valor\": \"18.4\", \"anio\": 2025}, {\"param\": \"Turbiedad (UNT)\", \"valor\": \"25\", \"anio\": 2025}, {\"param\": \"Sólidos Suspendidos Totales (mg/l)\", \"valor\": \"16\", \"anio\": 2024}, {\"param\": \"DBO (mg O2/l)\", \"valor\": \"1.81\", \"anio\": 2025}, {\"param\": \"DQO (mg O2/l)\", \"valor\": \"12.4\", \"anio\": 2025}, {\"param\": \"Oxígeno Disuelto (mg O2/l)\", \"valor\": \"7.82\", \"anio\": 2025}, {\"param\": \"Nitrógeno Total (mg N/l)\", \"valor\": \"1.44\", \"anio\": 2025}, {\"param\": \"Fósforo Total (mg P/l)\", \"valor\": \"0.0946\", \"anio\": 2025}, {\"param\": \"Coliformes Fecales (NMP/100ml)\", \"valor\": \"4300\", \"anio\": 2025}]"}},{"type":"Feature","geometry":{"type":"Point","coordinates":[-76.196419,3.751694]},"properties":{"Rio":"Rio Guabas","Punto_Monitoreo":"Rio Guabas - Puente despues Mina La Victoria","Latitud_WGS84":3.751694,"Longitud_WGS84":-76.196419,"N_Registros":10,"Año_Min":2017,"Año_Max":2024,"Fuente_CRS":"EPSG:3115","csv_filename":"Rio_Guabas_Rio_Guabas_Puente_despues_Mina_La_Victoria.csv","parametros_recientes":"[{\"param\": \"pH Campo\", \"valor\": \"7.49\", \"anio\": 2024}, {\"param\": \"Temperatura Agua (°C)\", \"valor\": \"21.3\", \"anio\": 2024}, {\"param\": \"Turbiedad (UNT)\", \"valor\": \"6.8\", \"anio\": 2024}, {\"param\": \"Sólidos Suspendidos Totales (mg/l)\", \"valor\": \"11.7\", \"anio\": 2024}, {\"param\": \"DBO (mg O2/l)\", \"valor\": \"2.05\", \"anio\": 2024}, {\"param\": \"DQO (mg O2/l)\", \"valor\": \"12.4\", \"anio\": 2024}, {\"param\": \"Oxígeno Disuelto (mg O2/l)\", \"valor\": \"7.44\", \"anio\": 2024}, {\"param\": \"Nitrógeno Total (mg N/l)\", \"valor\": \"1.07\", \"anio\": 2023}, {\"param\": \"Fósforo Total (mg P/l)\", \"valor\": \"0.0946\", \"anio\": 2024}, {\"param\": \"Coliformes Fecales (NMP/100ml)\", \"valor\": \"93\", \"anio\": 2024}]"}},{"type":"Feature","geometry":{"type":"Point","coordinates":[-76.196421,3.751691]},"properties":{"Rio":"Rio Guabas","Punto_Monitoreo":"Rio Guabas - despues Mina La Victoria","Latitud_WGS84":3.751691,"Longitud_WGS84":-76.196421,"N_Registros":7,"Año_Min":2016,"Año_Max":2025,"Fuente_CRS":"EPSG:3115","csv_filename":"Rio_Guabas_Rio_Guabas_despues_Mina_La_Victoria.csv","parametros_recientes":"[{\"param\": \"pH Campo\", \"valor\": \"8.29\", \"anio\": 2025}, {\"param\": \"Temperatura Agua (°C)\", \"valor\": \"17.5\", \"anio\": 2025}, {\"param\": \"Turbiedad (UNT)\", \"valor\": \"22\", \"anio\": 2025}, {\"param\": \"Sólidos Suspendidos Totales (mg/l)\", \"valor\": \"13\", \"anio\": 2024}, {\"param\": \"DBO (mg O2/l)\", \"valor\": \"1.86\", \"anio\": 2025}, {\"param\": \"DQO (mg O2/l)\", \"valor\": \"12.4\", \"anio\": 2025}, {\"param\": \"Oxígeno Disuelto (mg O2/l)\", \"valor\": \"7.83\", \"anio\": 2025}, {\"param\": \"Nitrógeno Total (mg N/l)\", \"valor\": \"1.24\", \"anio\": 2025}, {\"param\": \"Fósforo Total (mg P/l)\", \"valor\": \"0.0946\", \"anio\": 2025}, {\"param\": \"Coliformes Fecales (NMP/100ml)\", \"valor\": \"9300\", \"anio\": 2025}]"}},{"type":"Feature","geometry":{"type":"Point","coordinates":[-76.452736,3.587519]},"properties":{"Rio":"Rio Guachal","Punto_Monitoreo":"GG3 - Rio Guachal - Antes Desembocadura a Rio Cauca","Latitud_WGS84":3.587519,"Longitud_WGS84":-76.452736,"N_Registros":16,"Año_Min":2016,"Año_Max":2025,"Fuente_CRS":"EPSG:3115 (corregido PORH GG3)","csv_filename":"Rio_Guachal_GG3_Rio_Guachal_Antes_Desembocadura_a_Rio_Ca.csv","parametros_recientes":"[{\"param\": \"pH Campo\", \"valor\": \"7.4\", \"anio\": 2025}, {\"param\": \"Temperatura Agua (°C)\", \"valor\": \"25\", \"anio\": 2025}, {\"param\": \"Turbiedad (UNT)\", \"valor\": \"70\", \"anio\": 2025}, {\"param\": \"Sólidos Suspendidos Totales (mg/l)\", \"valor\": \"109\", \"anio\": 2025}, {\"param\": \"DBO (mg O2/l)\", \"valor\": \"5.7\", \"anio\": 2025}, {\"param\": \"DQO (mg O2/l)\", \"valor\": \"23\", \"anio\": 2025}, {\"param\": \"Oxígeno Disuelto (mg O2/l)\", \"valor\": \"3\", \"anio\": 2025}, {\"param\": \"Nitrógeno Total (mg N/l)\", \"valor\": \"3.4\", \"anio\": 2025}, {\"param\": \"Fósforo Total (mg P/l)\", \"valor\": \"0.51\", \"anio\": 2025}, {\"param\": \"Coliformes Fecales (NMP/100ml)\", \"valor\": \"459999.9999999999\", \"anio\": 2025}]"}},{"type":"Feature","geometry":{"type":"Point","coordinates":[-76.196725,3.881162]},"properties":{"Rio":"Rio Guadalajara","Punto_Monitoreo":"Rio Guadalajara - Antes desembocadura de Quebrada La Magdalena - puente Colgante","Latitud_WGS84":3.881162,"Longitud_WGS84":-76.196725,"N_Registros":19,"Año_Min":2016,"Año_Max":2025,"Fuente_CRS":"EPSG:3115","csv_filename":"Rio_Guadalajara_Rio_Guadalajara_Antes_desembocadura_de_Q.csv","parametros_recientes":"[{\"param\": \"pH Campo\", \"valor\": \"7.6\", \"anio\": 2025}, {\"param\": \"Temperatura Agua (°C)\", \"valor\": \"18.5\", \"anio\": 2025}, {\"param\": \"Turbiedad (UNT)\", \"valor\": \"8.8\", \"anio\": 2025}, {\"param\": \"Sólidos Suspendidos Totales (mg/l)\", \"valor\": \"12.2\", \"anio\": 2025}, {\"param\": \"DBO (mg O2/l)\", \"valor\": \"1.27\", \"anio\": 2025}, {\"param\": \"DQO (mg O2/l)\", \"valor\": \"12.4\", \"anio\": 2025}, {\"param\": \"Oxígeno Disuelto (mg O2/l)\", \"valor\": \"7.71\", \"anio\": 2025}, {\"param\": \"Nitrógeno Total (mg N/l)\", \"valor\": \"0.788\", \"anio\": 2025}, {\"param\": \"Fósforo Total (mg P/l)\", \"valor\": \"0.0946\", \"anio\": 2025}, {\"param\": \"Coliformes Fecales (NMP/100ml)\", \"valor\": \"12000\", \"anio\": 2025}]"}},{"type":"Feature","geometry":{"type":"Point","coordinates":[-76.271875,3.886896]},"properties":{"Rio":"Rio Guadalajara","Punto_Monitoreo":"Rio Guadalajara - Bocatoma Acueducto Buga","Latitud_WGS84":3.886896,"Longitud_WGS84":-76.271875,"N_Registros":19,"Año_Min":2016,"Año_Max":2025,"Fuente_CRS":"EPSG:3115","csv_filename":"Rio_Guadalajara_Rio_Guadalajara_Bocatoma_Acueducto_Buga.csv","parametros_recientes":"[{\"param\": \"pH Campo\", \"valor\": \"7.97\", \"anio\": 2025}, {\"param\": \"Temperatura Agua (°C)\", \"valor\": \"20.2\", \"anio\": 2025}, {\"param\": \"Turbiedad (UNT)\", \"valor\": \"12\", \"anio\": 2025}, {\"param\": \"Sólidos Suspendidos Totales (mg/l)\", \"valor\": \"11.7\", \"anio\": 2025}, {\"param\": \"DBO (mg O2/l)\", \"valor\": \"0.97\", \"anio\": 2025}, {\"param\": \"DQO (mg O2/l)\", \"valor\": \"12.4\", \"anio\": 2025}, {\"param\": \"Oxígeno Disuelto (mg O2/l)\", \"valor\": \"6.83\", \"anio\": 2025}, {\"param\": \"Nitrógeno Total (mg N/l)\", \"valor\": \"0.735\", \"anio\": 2025}, {\"param\": \"Fósforo Total (mg P/l)\", \"valor\": \"0.0946\", \"anio\": 2025}, {\"param\": \"Coliformes Fecales (NMP/100ml)\", \"valor\": \"24000\", \"anio\": 2025}]"}},{"type":"Feature","geometry":{"type":"Point","coordinates":[-76.170954,3.875809]},"properties":{"Rio":"Rio Guadalajara","Punto_Monitoreo":"Rio Guadalajara - La Piscina - Vía a Alaska","Latitud_WGS84":3.875809,"Longitud_WGS84":-76.170954,"N_Registros":19,"Año_Min":2016,"Año_Max":2025,"Fuente_CRS":"EPSG:3115","csv_filename":"Rio_Guadalajara_Rio_Guadalajara_La_Piscina_Via_a_Alaska.csv","parametros_recientes":"[{\"param\": \"pH Campo\", \"valor\": \"7.32\", \"anio\": 2025}, {\"param\": \"Temperatura Agua (°C)\", \"valor\": \"17\", \"anio\": 2025}, {\"param\": \"Turbiedad (UNT)\", \"valor\": \"4\", \"anio\": 2025}, {\"param\": \"Sólidos Suspendidos Totales (mg/l)\", \"valor\": \"11.7\", \"anio\": 2025}, {\"param\": \"DBO (mg O2/l)\", \"valor\": \"1.57\", \"anio\": 2025}, {\"param\": \"DQO (mg O2/l)\", \"valor\": \"12.4\", \"anio\": 2025}, {\"param\": \"Oxígeno Disuelto (mg O2/l)\", \"valor\": \"7.91\", \"anio\": 2025}, {\"param\": \"Nitrógeno Total (mg N/l)\", \"valor\": \"0.463\", \"anio\": 2025}, {\"param\": \"Fósforo Total (mg P/l)\", \"valor\": \"0.0946\", \"anio\": 2025}, {\"param\": \"Coliformes Fecales (NMP/100ml)\", \"valor\": \"230\", \"anio\": 2025}]"}},{"type":"Feature","geometry":{"type":"Point","coordinates":[-76.235202,3.894336]},"properties":{"Rio":"Rio Guadalajara","Punto_Monitoreo":"Rio Guadalajara - Puente Balneario los Guaduales","Latitud_WGS84":3.894336,"Longitud_WGS84":-76.235202,"N_Registros":19,"Año_Min":2016,"Año_Max":2025,"Fuente_CRS":"EPSG:3115","csv_filename":"Rio_Guadalajara_Rio_Guadalajara_Puente_Balneario_los_Gua.csv","parametros_recientes":"[{\"param\": \"pH Campo\", \"valor\": \"7.86\", \"anio\": 2025}, {\"param\": \"Temperatura Agua (°C)\", \"valor\": \"19.8\", \"anio\": 2025}, {\"param\": \"Turbiedad (UNT)\", \"valor\": \"11\", \"anio\": 2025}, {\"param\": \"Sólidos Suspendidos Totales (mg/l)\", \"valor\": \"11.7\", \"anio\": 2025}, {\"param\": \"DBO (mg O2/l)\", \"valor\": \"1.25\", \"anio\": 2025}, {\"param\": \"DQO (mg O2/l)\", \"valor\": \"12.4\", \"anio\": 2025}, {\"param\": \"Oxígeno Disuelto (mg O2/l)\", \"valor\": \"7.82\", \"anio\": 2025}, {\"param\": \"Nitrógeno Total (mg N/l)\", \"valor\": \"0.548\", \"anio\": 2025}, {\"param\": \"Fósforo Total (mg P/l)\", \"valor\": \"0.0946\", \"anio\": 2025}, {\"param\": \"Coliformes Fecales (NMP/100ml)\", \"valor\": \"24000\", \"anio\": 2025}]"}},{"type":"Feature","geometry":{"type":"Point","coordinates":[-76.308083,3.896775]},"properties":{"Rio":"Rio Guadalajara","Punto_Monitoreo":"Rio Guadalajara - Puente Frente vía Ferrea","Latitud_WGS84":3.896775,"Longitud_WGS84":-76.308083,"N_Registros":19,"Año_Min":2016,"Año_Max":2025,"Fuente_CRS":"EPSG:3115","csv_filename":"Rio_Guadalajara_Rio_Guadalajara_Puente_Frente_via_Ferrea.csv","parametros_recientes":"[{\"param\": \"pH Campo\", \"valor\": \"8.03\", \"anio\": 2025}, {\"param\": \"Temperatura Agua (°C)\", \"valor\": \"21\", \"anio\": 2025}, {\"param\": \"Turbiedad (UNT)\", \"valor\": \"12\", \"anio\": 2025}, {\"param\": \"Sólidos Suspendidos Totales (mg/l)\", \"valor\": \"14.6\", \"anio\": 2025}, {\"param\": \"DBO (mg O2/l)\", \"valor\": \"1.23\", \"anio\": 2025}, {\"param\": \"DQO (mg O2/l)\", \"valor\": \"12.4\", \"anio\": 2025}, {\"param\": \"Oxígeno Disuelto (mg O2/l)\", \"valor\": \"8.04\", \"anio\": 2025}, {\"param\": \"Nitrógeno Total (mg N/l)\", \"valor\": \"0.498\", \"anio\": 2025}, {\"param\": \"Fósforo Total (mg P/l)\", \"valor\": \"0.0946\", \"anio\": 2025}, {\"param\": \"Coliformes Fecales (NMP/100ml)\", \"valor\": \"24000\", \"anio\": 2025}]"}},{"type":"Feature","geometry":{"type":"Point","coordinates":[-76.339853,3.899098]},"properties":{"Rio":"Rio Guadalajara","Punto_Monitoreo":"Rio Guadalajara - antes desembocadura a Rio Cauca (El Porvenir)","Latitud_WGS84":3.899098,"Longitud_WGS84":-76.339853,"N_Registros":19,"Año_Min":2016,"Año_Max":2025,"Fuente_CRS":"EPSG:3115","csv_filename":"Rio_Guadalajara_Rio_Guadalajara_antes_desembocadura_a_Ri.csv","parametros_recientes":"[{\"param\": \"pH Campo\", \"valor\": \"7.64\", \"anio\": 2025}, {\"param\": \"Temperatura Agua (°C)\", \"valor\": \"21.2\", \"anio\": 2025}, {\"param\": \"Turbiedad (UNT)\", \"valor\": \"34\", \"anio\": 2025}, {\"param\": \"Sólidos Suspendidos Totales (mg/l)\", \"valor\": \"33\", \"anio\": 2025}, {\"param\": \"DBO (mg O2/l)\", \"valor\": \"16.8\", \"anio\": 2025}, {\"param\": \"DQO (mg O2/l)\", \"valor\": \"31.9\", \"anio\": 2025}, {\"param\": \"Oxígeno Disuelto (mg O2/l)\", \"valor\": \"6\", \"anio\": 2025}, {\"param\": \"Nitrógeno Total (mg N/l)\", \"valor\": \"8.46\", \"anio\": 2025}, {\"param\": \"Fósforo Total (mg P/l)\", \"valor\": \"1.12\", \"anio\": 2025}, {\"param\": \"Coliformes Fecales (NMP/100ml)\", \"valor\": \"1100000\", \"anio\": 2025}]"}},{"type":"Feature","geometry":{"type":"Point","coordinates":[-75.813516,5.235894]},"properties":{"Rio":"Rio Risaralda","Punto_Monitoreo":"Río Guatica - Desembocadura río Risaralda","Latitud_WGS84":5.235894,"Longitud_WGS84":-75.813516,"N_Registros":32,"Año_Min":2000,"Año_Max":2025,"Fuente_CRS":"WGS84 (geovisor CVC/CARDER)","csv_filename":"Rio_Risaralda_Rio_Guatica_Desembocadura_rio_Risaralda.csv","parametros_recientes":"[{\"param\": \"pH Campo\", \"valor\": \"7.33\", \"anio\": 2025}, {\"param\": \"Temperatura Agua (°C)\", \"valor\": \"19.8\", \"anio\": 2025}, {\"param\": \"Turbiedad (UNT)\", \"valor\": \"21.1\", \"anio\": 2025}, {\"param\": \"Sólidos Suspendidos Totales (mg/l)\", \"valor\": \"55.5\", \"anio\": 2025}, {\"param\": \"DBO (mg O2/l)\", \"valor\": \"< 2\", \"anio\": 2025}, {\"param\": \"DQO (mg O2/l)\", \"valor\": \"< 20\", \"anio\": 2025}, {\"param\": \"Oxígeno Disuelto (mg O2/l)\", \"valor\": \"6.26\", \"anio\": 2008}]"}},{"type":"Feature","geometry":{"type":"Point","coordinates":[-76.366268,4.124693]},"properties":{"Rio":"Rio Riofrio","Punto_Monitoreo":"Rio Riofrio - Rio Guayabal","Latitud_WGS84":4.124693,"Longitud_WGS84":-76.366268,"N_Registros":18,"Año_Min":2016,"Año_Max":2025,"Fuente_CRS":"EPSG:3115","csv_filename":"Rio_Riofrio_Rio_Riofrio_Rio_Guayabal.csv","parametros_recientes":"[{\"param\": \"pH Campo\", \"valor\": \"7.9\", \"anio\": 2025}, {\"param\": \"Temperatura Agua (°C)\", \"valor\": \"20\", \"anio\": 2025}, {\"param\": \"Turbiedad (UNT)\", \"valor\": \"2.2\", \"anio\": 2025}, {\"param\": \"Sólidos Suspendidos Totales (mg/l)\", \"valor\": \"11.7\", \"anio\": 2025}, {\"param\": \"DBO (mg O2/l)\", \"valor\": \"1.7\", \"anio\": 2025}, {\"param\": \"DQO (mg O2/l)\", \"valor\": \"20\", \"anio\": 2025}, {\"param\": \"Oxígeno Disuelto (mg O2/l)\", \"valor\": \"7.5\", \"anio\": 2025}, {\"param\": \"Nitrógeno Total (mg N/l)\", \"valor\": \"1.4\", \"anio\": 2025}, {\"param\": \"Fósforo Total (mg P/l)\", \"valor\": \"0.0946\", \"anio\": 2025}, {\"param\": \"Coliformes Fecales (NMP/100ml)\", \"valor\": \"36\", \"anio\": 2025}]"}},{"type":"Feature","geometry":{"type":"Point","coordinates":[-76.144667,4.346313]},"properties":{"Rio":"Rio La Paila","Punto_Monitoreo":"Rio La Paila - Antes desembocadura a Rio Cauca","Latitud_WGS84":4.346313,"Longitud_WGS84":-76.144667,"N_Registros":17,"Año_Min":2016,"Año_Max":2025,"Fuente_CRS":"EPSG:3115","csv_filename":"Rio_La_Paila_Rio_La_Paila_Antes_desembocadura_a_Rio_Cauc.csv","parametros_recientes":"[{\"param\": \"pH Campo\", \"valor\": \"7.25\", \"anio\": 2025}, {\"param\": \"Temperatura Agua (°C)\", \"valor\": \"24\", \"anio\": 2025}, {\"param\": \"Turbiedad (UNT)\", \"valor\": \"32\", \"anio\": 2025}, {\"param\": \"Sólidos Suspendidos Totales (mg/l)\", \"valor\": \"28.8\", \"anio\": 2025}, {\"param\": \"DBO (mg O2/l)\", \"valor\": \"3.67\", \"anio\": 2025}, {\"param\": \"DQO (mg O2/l)\", \"valor\": \"79.8\", \"anio\": 2025}, {\"param\": \"Oxígeno Disuelto (mg O2/l)\", \"valor\": \"0.9\", \"anio\": 2025}, {\"param\": \"Nitrógeno Total (mg N/l)\", \"valor\": \"1.32\", \"anio\": 2025}, {\"param\": \"Fósforo Total (mg P/l)\", \"valor\": \"0.467\", \"anio\": 2025}, {\"param\": \"Coliformes Fecales (NMP/100ml)\", \"valor\": \"2300\", \"anio\": 2025}]"}},{"type":"Feature","geometry":{"type":"Point","coordinates":[-76.042678,4.295466]},"properties":{"Rio":"Rio La Paila","Punto_Monitoreo":"Rio La Paila - Planta Acuavalle","Latitud_WGS84":4.295466,"Longitud_WGS84":-76.042678,"N_Registros":18,"Año_Min":2016,"Año_Max":2025,"Fuente_CRS":"EPSG:3115","csv_filename":"Rio_La_Paila_Rio_La_Paila_Planta_Acuavalle.csv","parametros_recientes":"[{\"param\": \"pH Campo\", \"valor\": \"8.22\", \"anio\": 2025}, {\"param\": \"Temperatura Agua (°C)\", \"valor\": \"23.3\", \"anio\": 2025}, {\"param\": \"Turbiedad (UNT)\", \"valor\": \"4.9\", \"anio\": 2025}, {\"param\": \"Sólidos Suspendidos Totales (mg/l)\", \"valor\": \"11.7\", \"anio\": 2025}, {\"param\": \"DBO (mg O2/l)\", \"valor\": \"1.18\", \"anio\": 2025}, {\"param\": \"DQO (mg O2/l)\", \"valor\": \"12.4\", \"anio\": 2025}, {\"param\": \"Oxígeno Disuelto (mg O2/l)\", \"valor\": \"5.24\", \"anio\": 2025}, {\"param\": \"Nitrógeno Total (mg N/l)\", \"valor\": \"1.35\", \"anio\": 2025}, {\"param\": \"Fósforo Total (mg P/l)\", \"valor\": \"0.0946\", \"anio\": 2025}, {\"param\": \"Coliformes Fecales (NMP/100ml)\", \"valor\": \"430\", \"anio\": 2025}]"}},{"type":"Feature","geometry":{"type":"Point","coordinates":[-76.036823,4.239842]},"properties":{"Rio":"Rio La Paila","Punto_Monitoreo":"Rio La Paila - Puente Paila arriba - vía a Sevilla","Latitud_WGS84":4.239842,"Longitud_WGS84":-76.036823,"N_Registros":18,"Año_Min":2016,"Año_Max":2025,"Fuente_CRS":"EPSG:3115","csv_filename":"Rio_La_Paila_Rio_La_Paila_Puente_Paila_arriba_via_a_Sevi.csv","parametros_recientes":"[{\"param\": \"pH Campo\", \"valor\": \"8.82\", \"anio\": 2025}, {\"param\": \"Temperatura Agua (°C)\", \"valor\": \"24.7\", \"anio\": 2025}, {\"param\": \"Turbiedad (UNT)\", \"valor\": \"2.4\", \"anio\": 2025}, {\"param\": \"Sólidos Suspendidos Totales (mg/l)\", \"valor\": \"11.7\", \"anio\": 2025}, {\"param\": \"DBO (mg O2/l)\", \"valor\": \"1.33\", \"anio\": 2025}, {\"param\": \"DQO (mg O2/l)\", \"valor\": \"12.4\", \"anio\": 2025}, {\"param\": \"Oxígeno Disuelto (mg O2/l)\", \"valor\": \"10.8\", \"anio\": 2025}, {\"param\": \"Nitrógeno Total (mg N/l)\", \"valor\": \"0.788\", \"anio\": 2025}, {\"param\": \"Fósforo Total (mg P/l)\", \"valor\": \"0.0946\", \"anio\": 2025}, {\"param\": \"Coliformes Fecales (NMP/100ml)\", \"valor\": \"360\", \"anio\": 2025}]"}},{"type":"Feature","geometry":{"type":"Point","coordinates":[-76.023405,4.293773]},"properties":{"Rio":"Rio La Paila","Punto_Monitoreo":"Rio La Paila - antes desembocadura del rio Totoro","Latitud_WGS84":4.293773,"Longitud_WGS84":-76.023405,"N_Registros":19,"Año_Min":2016,"Año_Max":2025,"Fuente_CRS":"EPSG:3115","csv_filename":"Rio_La_Paila_Rio_La_Paila_antes_desembocadura_del_rio_To.csv","parametros_recientes":"[{\"param\": \"pH Campo\", \"valor\": \"8.83\", \"anio\": 2025}, {\"param\": \"Temperatura Agua (°C)\", \"valor\": \"25.5\", \"anio\": 2025}, {\"param\": \"Turbiedad (UNT)\", \"valor\": \"1.9\", \"anio\": 2025}, {\"param\": \"Sólidos Suspendidos Totales (mg/l)\", \"valor\": \"11.7\", \"anio\": 2025}, {\"param\": \"DBO (mg O2/l)\", \"valor\": \"1.4\", \"anio\": 2025}, {\"param\": \"DQO (mg O2/l)\", \"valor\": \"12.4\", \"anio\": 2025}, {\"param\": \"Oxígeno Disuelto (mg O2/l)\", \"valor\": \"9.57\", \"anio\": 2025}, {\"param\": \"Nitrógeno Total (mg N/l)\", \"valor\": \"0.419\", \"anio\": 2025}, {\"param\": \"Fósforo Total (mg P/l)\", \"valor\": \"0.0946\", \"anio\": 2025}, {\"param\": \"Coliformes Fecales (NMP/100ml)\", \"valor\": \"230\", \"anio\": 2025}]"}},{"type":"Feature","geometry":{"type":"Point","coordinates":[-76.18134,3.525624]},"properties":{"Rio":"Rio Nima","Punto_Monitoreo":"Rio Nima - Acueducto Nima","Latitud_WGS84":3.525624,"Longitud_WGS84":-76.18134,"N_Registros":18,"Año_Min":2016,"Año_Max":2025,"Fuente_CRS":"EPSG:3115","csv_filename":"Rio_Nima_Rio_Nima_Acueducto_Nima.csv","parametros_recientes":"[{\"param\": \"pH Campo\", \"valor\": \"8.29\", \"anio\": 2024}, {\"param\": \"Temperatura Agua (°C)\", \"valor\": \"19\", \"anio\": 2025}, {\"param\": \"Turbiedad (UNT)\", \"valor\": \"14\", \"anio\": 2025}, {\"param\": \"Sólidos Suspendidos Totales (mg/l)\", \"valor\": \"12.8\", \"anio\": 2025}, {\"param\": \"DBO (mg O2/l)\", \"valor\": \"2.1\", \"anio\": 2025}, {\"param\": \"DQO (mg O2/l)\", \"valor\": \"12.4\", \"anio\": 2025}, {\"param\": \"Oxígeno Disuelto (mg O2/l)\", \"valor\": \"6.98\", \"anio\": 2025}, {\"param\": \"Nitrógeno Total (mg N/l)\", \"valor\": \"3.2\", \"anio\": 2025}, {\"param\": \"Fósforo Total (mg P/l)\", \"valor\": \"0.0946\", \"anio\": 2025}, {\"param\": \"Coliformes Fecales (NMP/100ml)\", \"valor\": \"4300\", \"anio\": 2025}]"}},{"type":"Feature","geometry":{"type":"Point","coordinates":[-76.155231,3.518806]},"properties":{"Rio":"Rio Nima","Punto_Monitoreo":"Rio Nima - Antes Caserio de tenjo","Latitud_WGS84":3.518806,"Longitud_WGS84":-76.155231,"N_Registros":17,"Año_Min":2016,"Año_Max":2025,"Fuente_CRS":"EPSG:3115","csv_filename":"Rio_Nima_Rio_Nima_Antes_Caserio_de_tenjo.csv","parametros_recientes":"[{\"param\": \"pH Campo\", \"valor\": \"8.35\", \"anio\": 2024}, {\"param\": \"Temperatura Agua (°C)\", \"valor\": \"18.1\", \"anio\": 2024}, {\"param\": \"Turbiedad (UNT)\", \"valor\": \"21\", \"anio\": 2025}, {\"param\": \"Sólidos Suspendidos Totales (mg/l)\", \"valor\": \"24.2\", \"anio\": 2025}, {\"param\": \"DBO (mg O2/l)\", \"valor\": \"1.26\", \"anio\": 2025}, {\"param\": \"DQO (mg O2/l)\", \"valor\": \"12.4\", \"anio\": 2025}, {\"param\": \"Oxígeno Disuelto (mg O2/l)\", \"valor\": \"7.33\", \"anio\": 2025}, {\"param\": \"Nitrógeno Total (mg N/l)\", \"valor\": \"3.03\", \"anio\": 2025}, {\"param\": \"Fósforo Total (mg P/l)\", \"valor\": \"0.0946\", \"anio\": 2025}, {\"param\": \"Coliformes Fecales (NMP/100ml)\", \"valor\": \"430\", \"anio\": 2025}]"}},{"type":"Feature","geometry":{"type":"Point","coordinates":[-76.278693,3.603654]},"properties":{"Rio":"Rio Nima","Punto_Monitoreo":"Rio Nima - Antes desembocadura a rio Amaime","Latitud_WGS84":3.603654,"Longitud_WGS84":-76.278693,"N_Registros":18,"Año_Min":2016,"Año_Max":2025,"Fuente_CRS":"EPSG:3115","csv_filename":"Rio_Nima_Rio_Nima_Antes_desembocadura_a_rio_Amaime.csv","parametros_recientes":"[{\"param\": \"pH Campo\", \"valor\": \"8.02\", \"anio\": 2024}, {\"param\": \"Temperatura Agua (°C)\", \"valor\": \"23\", \"anio\": 2025}, {\"param\": \"Turbiedad (UNT)\", \"valor\": \"55\", \"anio\": 2025}, {\"param\": \"Sólidos Suspendidos Totales (mg/l)\", \"valor\": \"45\", \"anio\": 2025}, {\"param\": \"DBO (mg O2/l)\", \"valor\": \"10.6\", \"anio\": 2025}, {\"param\": \"DQO (mg O2/l)\", \"valor\": \"26.4\", \"anio\": 2025}, {\"param\": \"Oxígeno Disuelto (mg O2/l)\", \"valor\": \"4.34\", \"anio\": 2025}, {\"param\": \"Nitrógeno Total (mg N/l)\", \"valor\": \"4.43\", \"anio\": 2025}, {\"param\": \"Fósforo Total (mg P/l)\", \"valor\": \"0.311\", \"anio\": 2025}, {\"param\": \"Coliformes Fecales (NMP/100ml)\", \"valor\": \"2400000\", \"anio\": 2025}]"}},{"type":"Feature","geometry":{"type":"Point","coordinates":[-76.432137,3.445243]},"properties":{"Rio":"Rio Parraga","Punto_Monitoreo":"Rio Parraga - antes Desembocadura a rio Frayle","Latitud_WGS84":3.445243,"Longitud_WGS84":-76.432137,"N_Registros":5,"Año_Min":2016,"Año_Max":2018,"Fuente_CRS":"EPSG:3115","csv_filename":"Rio_Parraga_Rio_Parraga_antes_Desembocadura_a_rio_Frayle.csv","parametros_recientes":"[{\"param\": \"pH Campo\", \"valor\": \"7.71\", \"anio\": 2018}, {\"param\": \"Temperatura Agua (°C)\", \"valor\": \"24.5\", \"anio\": 2018}, {\"param\": \"Turbiedad (UNT)\", \"valor\": \"26\", \"anio\": 2018}, {\"param\": \"Sólidos Suspendidos Totales (mg/l)\", \"valor\": \"277\", \"anio\": 2018}, {\"param\": \"DBO (mg O2/l)\", \"valor\": \"4.71\", \"anio\": 2018}, {\"param\": \"DQO (mg O2/l)\", \"valor\": \"55\", \"anio\": 2018}, {\"param\": \"Oxígeno Disuelto (mg O2/l)\", \"valor\": \"2.77\", \"anio\": 2018}, {\"param\": \"Nitrógeno Total (mg N/l)\", \"valor\": \"4.98\", \"anio\": 2017}, {\"param\": \"Fósforo Total (mg P/l)\", \"valor\": \"0.317\", \"anio\": 2018}, {\"param\": \"Coliformes Fecales (NMP/100ml)\", \"valor\": \"46000\", \"anio\": 2018}]"}},{"type":"Feature","geometry":{"type":"Point","coordinates":[-76.267165,3.353248]},"properties":{"Rio":"Rio Parraga","Punto_Monitoreo":"Rio Parraga - puente via Florida - Pradera","Latitud_WGS84":3.353248,"Longitud_WGS84":-76.267165,"N_Registros":5,"Año_Min":2016,"Año_Max":2018,"Fuente_CRS":"EPSG:3115","csv_filename":"Rio_Parraga_Rio_Parraga_puente_via_Florida_Pradera.csv","parametros_recientes":"[{\"param\": \"pH Campo\", \"valor\": \"7.93\", \"anio\": 2018}, {\"param\": \"Temperatura Agua (°C)\", \"valor\": \"23.6\", \"anio\": 2018}, {\"param\": \"Turbiedad (UNT)\", \"valor\": \"19\", \"anio\": 2018}, {\"param\": \"Sólidos Suspendidos Totales (mg/l)\", \"valor\": \"128\", \"anio\": 2018}, {\"param\": \"DBO (mg O2/l)\", \"valor\": \"4.46\", \"anio\": 2018}, {\"param\": \"DQO (mg O2/l)\", \"valor\": \"28.1\", \"anio\": 2018}, {\"param\": \"Oxígeno Disuelto (mg O2/l)\", \"valor\": \"5.8\", \"anio\": 2018}, {\"param\": \"Nitrógeno Total (mg N/l)\", \"valor\": \"4.77\", \"anio\": 2017}, {\"param\": \"Fósforo Total (mg P/l)\", \"valor\": \"0.0662\", \"anio\": 2018}, {\"param\": \"Coliformes Fecales (NMP/100ml)\", \"valor\": \"110000\", \"anio\": 2018}]"}},{"type":"Feature","geometry":{"type":"Point","coordinates":[-76.351611,3.404467]},"properties":{"Rio":"Rio Parraga","Punto_Monitoreo":"Rio Parraga - puente vía Candelaria - Florida","Latitud_WGS84":3.404467,"Longitud_WGS84":-76.351611,"N_Registros":5,"Año_Min":2016,"Año_Max":2018,"Fuente_CRS":"EPSG:3115","csv_filename":"Rio_Parraga_Rio_Parraga_puente_via_Candelaria_Florida.csv","parametros_recientes":"[{\"param\": \"pH Campo\", \"valor\": \"7.85\", \"anio\": 2018}, {\"param\": \"Temperatura Agua (°C)\", \"valor\": \"23.5\", \"anio\": 2018}, {\"param\": \"Turbiedad (UNT)\", \"valor\": \"26\", \"anio\": 2018}, {\"param\": \"Sólidos Suspendidos Totales (mg/l)\", \"valor\": \"233\", \"anio\": 2018}, {\"param\": \"DBO (mg O2/l)\", \"valor\": \"16\", \"anio\": 2018}, {\"param\": \"DQO (mg O2/l)\", \"valor\": \"56.4\", \"anio\": 2018}, {\"param\": \"Oxígeno Disuelto (mg O2/l)\", \"valor\": \"1.28\", \"anio\": 2018}, {\"param\": \"Nitrógeno Total (mg N/l)\", \"valor\": \"7.54\", \"anio\": 2017}, {\"param\": \"Fósforo Total (mg P/l)\", \"valor\": \"0.221\", \"anio\": 2018}, {\"param\": \"Coliformes Fecales (NMP/100ml)\", \"valor\": \"46000\", \"anio\": 2018}]"}},{"type":"Feature","geometry":{"type":"Point","coordinates":[-76.297195,4.156958]},"properties":{"Rio":"Rio Riofrio","Punto_Monitoreo":"Rio Riofrio - Antes Municipio Riofrio","Latitud_WGS84":4.156958,"Longitud_WGS84":-76.297195,"N_Registros":18,"Año_Min":2016,"Año_Max":2025,"Fuente_CRS":"EPSG:3115","csv_filename":"Rio_Riofrio_Rio_Riofrio_Antes_Municipio_Riofrio.csv","parametros_recientes":"[{\"param\": \"pH Campo\", \"valor\": \"7.7\", \"anio\": 2025}, {\"param\": \"Temperatura Agua (°C)\", \"valor\": \"24\", \"anio\": 2025}, {\"param\": \"Turbiedad (UNT)\", \"valor\": \"60\", \"anio\": 2025}, {\"param\": \"Sólidos Suspendidos Totales (mg/l)\", \"valor\": \"49\", \"anio\": 2025}, {\"param\": \"DBO (mg O2/l)\", \"valor\": \"1.3\", \"anio\": 2025}, {\"param\": \"DQO (mg O2/l)\", \"valor\": \"12.4\", \"anio\": 2025}, {\"param\": \"Oxígeno Disuelto (mg O2/l)\", \"valor\": \"7.3\", \"anio\": 2025}, {\"param\": \"Nitrógeno Total (mg N/l)\", \"valor\": \"2.7\", \"anio\": 2025}, {\"param\": \"Fósforo Total (mg P/l)\", \"valor\": \"0.0946\", \"anio\": 2025}, {\"param\": \"Coliformes Fecales (NMP/100ml)\", \"valor\": \"93000\", \"anio\": 2025}]"}},{"type":"Feature","geometry":{"type":"Point","coordinates":[-76.283638,4.141371]},"properties":{"Rio":"Rio Riofrio","Punto_Monitoreo":"Rio Riofrio - Antes desembocadura a Río Cauca","Latitud_WGS84":4.141371,"Longitud_WGS84":-76.283638,"N_Registros":16,"Año_Min":2016,"Año_Max":2025,"Fuente_CRS":"EPSG:3115","csv_filename":"Rio_Riofrio_Rio_Riofrio_Antes_desembocadura_a_Rio_Cauca.csv","parametros_recientes":"[{\"param\": \"pH Campo\", \"valor\": \"7.8\", \"anio\": 2025}, {\"param\": \"Temperatura Agua (°C)\", \"valor\": \"23\", \"anio\": 2025}, {\"param\": \"Turbiedad (UNT)\", \"valor\": \"50\", \"anio\": 2025}, {\"param\": \"Sólidos Suspendidos Totales (mg/l)\", \"valor\": \"34\", \"anio\": 2025}, {\"param\": \"DBO (mg O2/l)\", \"valor\": \"1.2\", \"anio\": 2025}, {\"param\": \"DQO (mg O2/l)\", \"valor\": \"24\", \"anio\": 2025}, {\"param\": \"Oxígeno Disuelto (mg O2/l)\", \"valor\": \"7.3\", \"anio\": 2025}, {\"param\": \"Nitrógeno Total (mg N/l)\", \"valor\": \"1.9\", \"anio\": 2025}, {\"param\": \"Fósforo Total (mg P/l)\", \"valor\": \"0.0946\", \"anio\": 2025}, {\"param\": \"Coliformes Fecales (NMP/100ml)\", \"valor\": \"240000\", \"anio\": 2025}]"}},{"type":"Feature","geometry":{"type":"Point","coordinates":[-76.331567,4.172028]},"properties":{"Rio":"Rio Riofrio","Punto_Monitoreo":"Rio Riofrio - Bocatoma Acueducto de Riofrio","Latitud_WGS84":4.172028,"Longitud_WGS84":-76.331567,"N_Registros":18,"Año_Min":2016,"Año_Max":2025,"Fuente_CRS":"EPSG:3115","csv_filename":"Rio_Riofrio_Rio_Riofrio_Bocatoma_Acueducto_de_Riofrio.csv","parametros_recientes":"[{\"param\": \"pH Campo\", \"valor\": \"8\", \"anio\": 2025}, {\"param\": \"Temperatura Agua (°C)\", \"valor\": \"21\", \"anio\": 2025}, {\"param\": \"Turbiedad (UNT)\", \"valor\": \"7.2\", \"anio\": 2025}, {\"param\": \"Sólidos Suspendidos Totales (mg/l)\", \"valor\": \"11.7\", \"anio\": 2024}, {\"param\": \"DBO (mg O2/l)\", \"valor\": \"2.5\", \"anio\": 2025}, {\"param\": \"DQO (mg O2/l)\", \"valor\": \"12.4\", \"anio\": 2025}, {\"param\": \"Oxígeno Disuelto (mg O2/l)\", \"valor\": \"7.4\", \"anio\": 2025}, {\"param\": \"Nitrógeno Total (mg N/l)\", \"valor\": \"1.7\", \"anio\": 2025}, {\"param\": \"Fósforo Total (mg P/l)\", \"valor\": \"0.0946\", \"anio\": 2025}, {\"param\": \"Coliformes Fecales (NMP/100ml)\", \"valor\": \"9300\", \"anio\": 2025}]"}},{"type":"Feature","geometry":{"type":"Point","coordinates":[-76.365018,4.132912]},"properties":{"Rio":"Rio Riofrio","Punto_Monitoreo":"Rio Riofrio - puente despues Salonica - limnigrafo CVC","Latitud_WGS84":4.132912,"Longitud_WGS84":-76.365018,"N_Registros":18,"Año_Min":2016,"Año_Max":2025,"Fuente_CRS":"EPSG:3115","csv_filename":"Rio_Riofrio_Rio_Riofrio_puente_despues_Salonica_limnigra.csv","parametros_recientes":"[{\"param\": \"pH Campo\", \"valor\": \"7.9\", \"anio\": 2025}, {\"param\": \"Temperatura Agua (°C)\", \"valor\": \"23\", \"anio\": 2025}, {\"param\": \"Turbiedad (UNT)\", \"valor\": \"8.2\", \"anio\": 2025}, {\"param\": \"Sólidos Suspendidos Totales (mg/l)\", \"valor\": \"12\", \"anio\": 2025}, {\"param\": \"DBO (mg O2/l)\", \"valor\": \"1.5\", \"anio\": 2025}, {\"param\": \"DQO (mg O2/l)\", \"valor\": \"12.4\", \"anio\": 2025}, {\"param\": \"Oxígeno Disuelto (mg O2/l)\", \"valor\": \"7.4\", \"anio\": 2025}, {\"param\": \"Nitrógeno Total (mg N/l)\", \"valor\": \"1.7\", \"anio\": 2025}, {\"param\": \"Fósforo Total (mg P/l)\", \"valor\": \"0.0946\", \"anio\": 2025}, {\"param\": \"Coliformes Fecales (NMP/100ml)\", \"valor\": \"240000\", \"anio\": 2025}]"}},{"type":"Feature","geometry":{"type":"Point","coordinates":[-75.885589,5.308165]},"properties":{"Rio":"Rio Risaralda","Punto_Monitoreo":"Río Risaralda - Antes Descarga Municipio Mistrató","Latitud_WGS84":5.308165,"Longitud_WGS84":-75.885589,"N_Registros":37,"Año_Min":2013,"Año_Max":2025,"Fuente_CRS":"WGS84 (geovisor CVC/CARDER)","csv_filename":"Rio_Risaralda_Rio_Risaralda_Antes_Descarga_Municipio_Mis.csv","parametros_recientes":"[{\"param\": \"pH Campo\", \"valor\": \"7.55\", \"anio\": 2025}, {\"param\": \"Temperatura Agua (°C)\", \"valor\": \"17.1\", \"anio\": 2025}, {\"param\": \"Turbiedad (UNT)\", \"valor\": \"25.5\", \"anio\": 2025}, {\"param\": \"Sólidos Suspendidos Totales (mg/l)\", \"valor\": \"47.9\", \"anio\": 2025}, {\"param\": \"DBO (mg O2/l)\", \"valor\": \"< 2\", \"anio\": 2025}, {\"param\": \"DQO (mg O2/l)\", \"valor\": \"< 20\", \"anio\": 2025}, {\"param\": \"Nitrógeno Total (mg N/l)\", \"valor\": \"< 5\", \"anio\": 2025}, {\"param\": \"Fósforo Total (mg P/l)\", \"valor\": \"< 0.15\", \"anio\": 2025}]"}},{"type":"Feature","geometry":{"type":"Point","coordinates":[-75.878735,5.293912]},"properties":{"Rio":"Rio Risaralda","Punto_Monitoreo":"Río Risaralda - Después Descarga Municipio Mistrató","Latitud_WGS84":5.293912,"Longitud_WGS84":-75.878735,"N_Registros":45,"Año_Min":2010,"Año_Max":2025,"Fuente_CRS":"WGS84 (geovisor CVC/CARDER)","csv_filename":"Rio_Risaralda_Rio_Risaralda_Despues_Descarga_Municipio_M.csv","parametros_recientes":"[{\"param\": \"pH Campo\", \"valor\": \"7.83\", \"anio\": 2025}, {\"param\": \"Temperatura Agua (°C)\", \"valor\": \"17.6\", \"anio\": 2025}, {\"param\": \"Turbiedad (UNT)\", \"valor\": \"4.25\", \"anio\": 2025}, {\"param\": \"Sólidos Suspendidos Totales (mg/l)\", \"valor\": \"11.7\", \"anio\": 2025}, {\"param\": \"DBO (mg O2/l)\", \"valor\": \"< 2\", \"anio\": 2025}, {\"param\": \"DQO (mg O2/l)\", \"valor\": \"< 20\", \"anio\": 2025}, {\"param\": \"Oxígeno Disuelto (mg O2/l)\", \"valor\": \"5.28\", \"anio\": 2012}, {\"param\": \"Nitrógeno Total (mg N/l)\", \"valor\": \"< 5\", \"anio\": 2025}, {\"param\": \"Fósforo Total (mg P/l)\", \"valor\": \"0.421\", \"anio\": 2025}]"}},{"type":"Feature","geometry":{"type":"Point","coordinates":[-75.842635,5.111179]},"properties":{"Rio":"Rio Risaralda","Punto_Monitoreo":"Río Risaralda - Las Palmeras","Latitud_WGS84":5.111179,"Longitud_WGS84":-75.842635,"N_Registros":61,"Año_Min":1999,"Año_Max":2025,"Fuente_CRS":"WGS84 (geovisor CVC/CARDER)","csv_filename":"Rio_Risaralda_Rio_Risaralda_Las_Palmeras.csv","parametros_recientes":"[{\"param\": \"pH Campo\", \"valor\": \"7.89\", \"anio\": 2025}, {\"param\": \"Temperatura Agua (°C)\", \"valor\": \"18.9\", \"anio\": 2025}, {\"param\": \"Turbiedad (UNT)\", \"valor\": \"6.51\", \"anio\": 2025}, {\"param\": \"Sólidos Suspendidos Totales (mg/l)\", \"valor\": \"17.1\", \"anio\": 2025}, {\"param\": \"DBO (mg O2/l)\", \"valor\": \"5.86\", \"anio\": 2025}, {\"param\": \"DQO (mg O2/l)\", \"valor\": \"< 20\", \"anio\": 2025}, {\"param\": \"Oxígeno Disuelto (mg O2/l)\", \"valor\": \"8.02\", \"anio\": 2011}]"}},{"type":"Feature","geometry":{"type":"Point","coordinates":[-75.859077,4.987874]},"properties":{"Rio":"Rio Risaralda","Punto_Monitoreo":"Río Risaralda - Puente Negro","Latitud_WGS84":4.987874,"Longitud_WGS84":-75.859077,"N_Registros":50,"Año_Min":2007,"Año_Max":2025,"Fuente_CRS":"WGS84 (geovisor CVC/CARDER)","csv_filename":"Rio_Risaralda_Rio_Risaralda_Puente_Negro.csv","parametros_recientes":"[{\"param\": \"pH Campo\", \"valor\": \"7.61\", \"anio\": 2025}, {\"param\": \"Temperatura Agua (°C)\", \"valor\": \"21.5\", \"anio\": 2025}, {\"param\": \"Turbiedad (UNT)\", \"valor\": \"15.1\", \"anio\": 2025}, {\"param\": \"Sólidos Suspendidos Totales (mg/l)\", \"valor\": \"36.4\", \"anio\": 2025}, {\"param\": \"DBO (mg O2/l)\", \"valor\": \"< 2\", \"anio\": 2025}, {\"param\": \"DQO (mg O2/l)\", \"valor\": \"< 20\", \"anio\": 2025}, {\"param\": \"Oxígeno Disuelto (mg O2/l)\", \"valor\": \"7.76\", \"anio\": 2016}]"}},{"type":"Feature","geometry":{"type":"Point","coordinates":[-75.840945,5.247729]},"properties":{"Rio":"Rio Risaralda","Punto_Monitoreo":"Río Risaralda - Puente Umbría","Latitud_WGS84":5.247729,"Longitud_WGS84":-75.840945,"N_Registros":65,"Año_Min":1997,"Año_Max":2025,"Fuente_CRS":"WGS84 (geovisor CVC/CARDER)","csv_filename":"Rio_Risaralda_Rio_Risaralda_Puente_Umbria.csv","parametros_recientes":"[{\"param\": \"pH Campo\", \"valor\": \"7.84\", \"anio\": 2025}, {\"param\": \"Temperatura Agua (°C)\", \"valor\": \"19.3\", \"anio\": 2025}, {\"param\": \"Turbiedad (UNT)\", \"valor\": \"5.85\", \"anio\": 2025}, {\"param\": \"Sólidos Suspendidos Totales (mg/l)\", \"valor\": \"7.1\", \"anio\": 2025}, {\"param\": \"DBO (mg O2/l)\", \"valor\": \"< 2\", \"anio\": 2025}, {\"param\": \"DQO (mg O2/l)\", \"valor\": \"< 20\", \"anio\": 2025}, {\"param\": \"Nitrógeno Total (mg N/l)\", \"valor\": \"< 5\", \"anio\": 2025}, {\"param\": \"Fósforo Total (mg P/l)\", \"valor\": \"< 0.15\", \"anio\": 2025}]"}},{"type":"Feature","geometry":{"type":"Point","coordinates":[-76.179323,3.694142]},"properties":{"Rio":"Rio Sabaletas","Punto_Monitoreo":"Rio Sabaletas - Antes caserío Los Medios","Latitud_WGS84":3.694142,"Longitud_WGS84":-76.179323,"N_Registros":16,"Año_Min":2017,"Año_Max":2025,"Fuente_CRS":"EPSG:3115","csv_filename":"Rio_Sabaletas_Rio_Sabaletas_Antes_caserio_Los_Medios.csv","parametros_recientes":"[{\"param\": \"pH Campo\", \"valor\": \"8.17\", \"anio\": 2025}, {\"param\": \"Temperatura Agua (°C)\", \"valor\": \"16.5\", \"anio\": 2025}, {\"param\": \"Turbiedad (UNT)\", \"valor\": \"2.7\", \"anio\": 2025}, {\"param\": \"Sólidos Suspendidos Totales (mg/l)\", \"valor\": \"11.7\", \"anio\": 2024}, {\"param\": \"DBO (mg O2/l)\", \"valor\": \"1.23\", \"anio\": 2025}, {\"param\": \"DQO (mg O2/l)\", \"valor\": \"12.4\", \"anio\": 2025}, {\"param\": \"Oxígeno Disuelto (mg O2/l)\", \"valor\": \"7.79\", \"anio\": 2025}, {\"param\": \"Nitrógeno Total (mg N/l)\", \"valor\": \"1.18\", \"anio\": 2025}, {\"param\": \"Fósforo Total (mg P/l)\", \"valor\": \"0.0946\", \"anio\": 2025}, {\"param\": \"Coliformes Fecales (NMP/100ml)\", \"valor\": \"230\", \"anio\": 2025}]"}},{"type":"Feature","geometry":{"type":"Point","coordinates":[-76.385864,3.745579]},"properties":{"Rio":"Rio Sabaletas","Punto_Monitoreo":"Rio Sabaletas - Antes desembocadura a Rio Cauca","Latitud_WGS84":3.745579,"Longitud_WGS84":-76.385864,"N_Registros":16,"Año_Min":2017,"Año_Max":2025,"Fuente_CRS":"EPSG:3115","csv_filename":"Rio_Sabaletas_Rio_Sabaletas_Antes_desembocadura_a_Rio_Ca.csv","parametros_recientes":"[{\"param\": \"pH Campo\", \"valor\": \"7.78\", \"anio\": 2025}, {\"param\": \"Temperatura Agua (°C)\", \"valor\": \"22.1\", \"anio\": 2025}, {\"param\": \"Turbiedad (UNT)\", \"valor\": \"900\", \"anio\": 2025}, {\"param\": \"Sólidos Suspendidos Totales (mg/l)\", \"valor\": \"14.5\", \"anio\": 2024}, {\"param\": \"DBO (mg O2/l)\", \"valor\": \"4.6\", \"anio\": 2025}, {\"param\": \"DQO (mg O2/l)\", \"valor\": \"37.2\", \"anio\": 2025}, {\"param\": \"Oxígeno Disuelto (mg O2/l)\", \"valor\": \"6.87\", \"anio\": 2025}, {\"param\": \"Nitrógeno Total (mg N/l)\", \"valor\": \"3.42\", \"anio\": 2025}, {\"param\": \"Fósforo Total (mg P/l)\", \"valor\": \"0.0946\", \"anio\": 2025}, {\"param\": \"Coliformes Fecales (NMP/100ml)\", \"valor\": \"9200\", \"anio\": 2025}]"}},{"type":"Feature","geometry":{"type":"Point","coordinates":[-76.187333,3.689689]},"properties":{"Rio":"Rio Sabaletas","Punto_Monitoreo":"Rio Sabaletas - Bocatoma Acuavalle Santa Elena","Latitud_WGS84":3.689689,"Longitud_WGS84":-76.187333,"N_Registros":16,"Año_Min":2017,"Año_Max":2025,"Fuente_CRS":"EPSG:3115","csv_filename":"Rio_Sabaletas_Rio_Sabaletas_Bocatoma_Acuavalle_Santa_Ele.csv","parametros_recientes":"[{\"param\": \"pH Campo\", \"valor\": \"8.12\", \"anio\": 2025}, {\"param\": \"Temperatura Agua (°C)\", \"valor\": \"17\", \"anio\": 2025}, {\"param\": \"Turbiedad (UNT)\", \"valor\": \"2.3\", \"anio\": 2025}, {\"param\": \"Sólidos Suspendidos Totales (mg/l)\", \"valor\": \"11.7\", \"anio\": 2024}, {\"param\": \"DBO (mg O2/l)\", \"valor\": \"0.97\", \"anio\": 2025}, {\"param\": \"DQO (mg O2/l)\", \"valor\": \"12.7\", \"anio\": 2025}, {\"param\": \"Oxígeno Disuelto (mg O2/l)\", \"valor\": \"7.59\", \"anio\": 2025}, {\"param\": \"Nitrógeno Total (mg N/l)\", \"valor\": \"0.996\", \"anio\": 2025}, {\"param\": \"Fósforo Total (mg P/l)\", \"valor\": \"0.0946\", \"anio\": 2025}, {\"param\": \"Coliformes Fecales (NMP/100ml)\", \"valor\": \"430\", \"anio\": 2025}]"}},{"type":"Feature","geometry":{"type":"Point","coordinates":[-76.230651,3.688158]},"properties":{"Rio":"Rio Sabaletas","Punto_Monitoreo":"Rio Sabaletas - Cruce sector vía La Novillera","Latitud_WGS84":3.688158,"Longitud_WGS84":-76.230651,"N_Registros":16,"Año_Min":2017,"Año_Max":2025,"Fuente_CRS":"EPSG:3115","csv_filename":"Rio_Sabaletas_Rio_Sabaletas_Cruce_sector_via_La_Noviller.csv","parametros_recientes":"[{\"param\": \"pH Campo\", \"valor\": \"7.72\", \"anio\": 2025}, {\"param\": \"Temperatura Agua (°C)\", \"valor\": \"21.3\", \"anio\": 2025}, {\"param\": \"Turbiedad (UNT)\", \"valor\": \"290\", \"anio\": 2025}, {\"param\": \"Sólidos Suspendidos Totales (mg/l)\", \"valor\": \"11.7\", \"anio\": 2024}, {\"param\": \"DBO (mg O2/l)\", \"valor\": \"5.86\", \"anio\": 2025}, {\"param\": \"DQO (mg O2/l)\", \"valor\": \"26.9\", \"anio\": 2025}, {\"param\": \"Oxígeno Disuelto (mg O2/l)\", \"valor\": \"7.15\", \"anio\": 2025}, {\"param\": \"Nitrógeno Total (mg N/l)\", \"valor\": \"2.84\", \"anio\": 2025}, {\"param\": \"Fósforo Total (mg P/l)\", \"valor\": \"0.252\", \"anio\": 2025}, {\"param\": \"Coliformes Fecales (NMP/100ml)\", \"valor\": \"9300\", \"anio\": 2025}]"}},{"type":"Feature","geometry":{"type":"Point","coordinates":[-76.264109,3.69059]},"properties":{"Rio":"Rio Sabaletas","Punto_Monitoreo":"Rio Sabaletas - Puente vía Santa Elena-Ginebra","Latitud_WGS84":3.69059,"Longitud_WGS84":-76.264109,"N_Registros":16,"Año_Min":2017,"Año_Max":2025,"Fuente_CRS":"EPSG:3115","csv_filename":"Rio_Sabaletas_Rio_Sabaletas_Puente_via_Santa_Elena_Gineb.csv","parametros_recientes":"[{\"param\": \"pH Campo\", \"valor\": \"7.8\", \"anio\": 2025}, {\"param\": \"Temperatura Agua (°C)\", \"valor\": \"22\", \"anio\": 2025}, {\"param\": \"Turbiedad (UNT)\", \"valor\": \"270\", \"anio\": 2025}, {\"param\": \"Sólidos Suspendidos Totales (mg/l)\", \"valor\": \"11.7\", \"anio\": 2024}, {\"param\": \"DBO (mg O2/l)\", \"valor\": \"5.22\", \"anio\": 2025}, {\"param\": \"DQO (mg O2/l)\", \"valor\": \"17\", \"anio\": 2025}, {\"param\": \"Oxígeno Disuelto (mg O2/l)\", \"valor\": \"7.11\", \"anio\": 2025}, {\"param\": \"Nitrógeno Total (mg N/l)\", \"valor\": \"2.57\", \"anio\": 2025}, {\"param\": \"Fósforo Total (mg P/l)\", \"valor\": \"0.234\", \"anio\": 2025}, {\"param\": \"Coliformes Fecales (NMP/100ml)\", \"valor\": \"24000\", \"anio\": 2025}]"}},{"type":"Feature","geometry":{"type":"Point","coordinates":[-76.187479,3.688368]},"properties":{"Rio":"Rio Sabaletas","Punto_Monitoreo":"Río Sabaletas - Puente después caserío Los Medios","Latitud_WGS84":3.688368,"Longitud_WGS84":-76.187479,"N_Registros":2,"Año_Min":2017,"Año_Max":2017,"Fuente_CRS":"EPSG:3115","csv_filename":"Rio_Sabaletas_Rio_Sabaletas_Puente_despues_caserio_Los_M.csv","parametros_recientes":"[{\"param\": \"pH Campo\", \"valor\": \"7.96\", \"anio\": 2017}, {\"param\": \"Temperatura Agua (°C)\", \"valor\": \"14\", \"anio\": 2017}, {\"param\": \"Turbiedad (UNT)\", \"valor\": \"1.2\", \"anio\": 2017}, {\"param\": \"Sólidos Suspendidos Totales (mg/l)\", \"valor\": \"14\", \"anio\": 2017}, {\"param\": \"DBO (mg O2/l)\", \"valor\": \"1.54\", \"anio\": 2017}, {\"param\": \"DQO (mg O2/l)\", \"valor\": \"20.3\", \"anio\": 2017}, {\"param\": \"Oxígeno Disuelto (mg O2/l)\", \"valor\": \"7.42\", \"anio\": 2017}, {\"param\": \"Fósforo Total (mg P/l)\", \"valor\": \"0.171\", \"anio\": 2017}, {\"param\": \"Coliformes Fecales (NMP/100ml)\", \"valor\": \"430\", \"anio\": 2017}]"}},{"type":"Feature","geometry":{"type":"Point","coordinates":[-76.155708,4.012376]},"properties":{"Rio":"Rio Tulua","Punto_Monitoreo":"Rio Tulua - Antes Jardin Botanico (limnigrafo CVC)","Latitud_WGS84":4.012376,"Longitud_WGS84":-76.155708,"N_Registros":19,"Año_Min":2016,"Año_Max":2025,"Fuente_CRS":"EPSG:3115","csv_filename":"Rio_Tulua_Rio_Tulua_Antes_Jardin_Botanico_limnigrafo_CVC.csv","parametros_recientes":"[{\"param\": \"pH Campo\", \"valor\": \"7.6\", \"anio\": 2025}, {\"param\": \"Temperatura Agua (°C)\", \"valor\": \"18.7\", \"anio\": 2025}, {\"param\": \"Turbiedad (UNT)\", \"valor\": \"11.5\", \"anio\": 2025}, {\"param\": \"Sólidos Suspendidos Totales (mg/l)\", \"valor\": \"21.8\", \"anio\": 2025}, {\"param\": \"DBO (mg O2/l)\", \"valor\": \"1.45\", \"anio\": 2025}, {\"param\": \"DQO (mg O2/l)\", \"valor\": \"12.4\", \"anio\": 2025}, {\"param\": \"Oxígeno Disuelto (mg O2/l)\", \"valor\": \"7.97\", \"anio\": 2025}, {\"param\": \"Nitrógeno Total (mg N/l)\", \"valor\": \"1.61\", \"anio\": 2025}, {\"param\": \"Fósforo Total (mg P/l)\", \"valor\": \"0.0946\", \"anio\": 2025}, {\"param\": \"Coliformes Fecales (NMP/100ml)\", \"valor\": \"930.0000000000001\", \"anio\": 2025}]"}},{"type":"Feature","geometry":{"type":"Point","coordinates":[-76.216132,4.129757]},"properties":{"Rio":"Rio Tulua","Punto_Monitoreo":"Rio Tulua - Antes desembocadura a Río Cauca","Latitud_WGS84":4.129757,"Longitud_WGS84":-76.216132,"N_Registros":6,"Año_Min":2018,"Año_Max":2024,"Fuente_CRS":"EPSG:3115","csv_filename":"Rio_Tulua_Rio_Tulua_Antes_desembocadura_a_Rio_Cauca.csv","parametros_recientes":"[{\"param\": \"pH Campo\", \"valor\": \"7.76\", \"anio\": 2024}, {\"param\": \"Temperatura Agua (°C)\", \"valor\": \"31.3\", \"anio\": 2024}, {\"param\": \"Turbiedad (UNT)\", \"valor\": \"29\", \"anio\": 2024}, {\"param\": \"Sólidos Suspendidos Totales (mg/l)\", \"valor\": \"43\", \"anio\": 2024}, {\"param\": \"DBO (mg O2/l)\", \"valor\": \"9.91\", \"anio\": 2024}, {\"param\": \"DQO (mg O2/l)\", \"valor\": \"136\", \"anio\": 2024}, {\"param\": \"Oxígeno Disuelto (mg O2/l)\", \"valor\": \"3.65\", \"anio\": 2024}, {\"param\": \"Nitrógeno Total (mg N/l)\", \"valor\": \"6.46\", \"anio\": 2022}, {\"param\": \"Fósforo Total (mg P/l)\", \"valor\": \"0.819\", \"anio\": 2024}, {\"param\": \"Coliformes Fecales (NMP/100ml)\", \"valor\": \"1500000\", \"anio\": 2024}]"}},{"type":"Feature","geometry":{"type":"Point","coordinates":[-76.20242,4.110881]},"properties":{"Rio":"Rio Tulua","Punto_Monitoreo":"Rio Tulua - Despues Urbanizacion Maracaibo","Latitud_WGS84":4.110881,"Longitud_WGS84":-76.20242,"N_Registros":19,"Año_Min":2016,"Año_Max":2025,"Fuente_CRS":"EPSG:3115","csv_filename":"Rio_Tulua_Rio_Tulua_Despues_Urbanizacion_Maracaibo.csv","parametros_recientes":"[{\"param\": \"pH Campo\", \"valor\": \"8.2\", \"anio\": 2025}, {\"param\": \"Temperatura Agua (°C)\", \"valor\": \"23.2\", \"anio\": 2025}, {\"param\": \"Turbiedad (UNT)\", \"valor\": \"9.5\", \"anio\": 2025}, {\"param\": \"Sólidos Suspendidos Totales (mg/l)\", \"valor\": \"11.7\", \"anio\": 2025}, {\"param\": \"DBO (mg O2/l)\", \"valor\": \"25.9\", \"anio\": 2025}, {\"param\": \"DQO (mg O2/l)\", \"valor\": \"39\", \"anio\": 2025}, {\"param\": \"Oxígeno Disuelto (mg O2/l)\", \"valor\": \"5.61\", \"anio\": 2025}, {\"param\": \"Nitrógeno Total (mg N/l)\", \"valor\": \"2.35\", \"anio\": 2025}, {\"param\": \"Fósforo Total (mg P/l)\", \"valor\": \"0.115\", \"anio\": 2025}, {\"param\": \"Coliformes Fecales (NMP/100ml)\", \"valor\": \"240000\", \"anio\": 2025}]"}},{"type":"Feature","geometry":{"type":"Point","coordinates":[-76.194371,4.09214]},"properties":{"Rio":"Rio Tulua","Punto_Monitoreo":"Rio Tulua - Puente Ferrocarril Barrio La Trinidad","Latitud_WGS84":4.09214,"Longitud_WGS84":-76.194371,"N_Registros":19,"Año_Min":2016,"Año_Max":2025,"Fuente_CRS":"EPSG:3115","csv_filename":"Rio_Tulua_Rio_Tulua_Puente_Ferrocarril_Barrio_La_Trinida.csv","parametros_recientes":"[{\"param\": \"pH Campo\", \"valor\": \"7.6\", \"anio\": 2025}, {\"param\": \"Temperatura Agua (°C)\", \"valor\": \"21.2\", \"anio\": 2025}, {\"param\": \"Turbiedad (UNT)\", \"valor\": \"11\", \"anio\": 2025}, {\"param\": \"Sólidos Suspendidos Totales (mg/l)\", \"valor\": \"11.7\", \"anio\": 2025}, {\"param\": \"DBO (mg O2/l)\", \"valor\": \"8.11\", \"anio\": 2025}, {\"param\": \"DQO (mg O2/l)\", \"valor\": \"28.3\", \"anio\": 2025}, {\"param\": \"Oxígeno Disuelto (mg O2/l)\", \"valor\": \"7.9\", \"anio\": 2025}, {\"param\": \"Nitrógeno Total (mg N/l)\", \"valor\": \"2.51\", \"anio\": 2025}, {\"param\": \"Fósforo Total (mg P/l)\", \"valor\": \"0.0946\", \"anio\": 2025}, {\"param\": \"Coliformes Fecales (NMP/100ml)\", \"valor\": \"240000\", \"anio\": 2025}]"}},{"type":"Feature","geometry":{"type":"Point","coordinates":[-76.196909,4.102134]},"properties":{"Rio":"Rio Tulua","Punto_Monitoreo":"Rio Tulua - Puente Nuevo (Barrio 7 de Agosto)","Latitud_WGS84":4.102134,"Longitud_WGS84":-76.196909,"N_Registros":19,"Año_Min":2016,"Año_Max":2025,"Fuente_CRS":"EPSG:3115","csv_filename":"Rio_Tulua_Rio_Tulua_Puente_Nuevo_Barrio_7_de_Agosto.csv","parametros_recientes":"[{\"param\": \"pH Campo\", \"valor\": \"7.8\", \"anio\": 2025}, {\"param\": \"Temperatura Agua (°C)\", \"valor\": \"21.8\", \"anio\": 2025}, {\"param\": \"Turbiedad (UNT)\", \"valor\": \"16\", \"anio\": 2025}, {\"param\": \"Sólidos Suspendidos Totales (mg/l)\", \"valor\": \"11.7\", \"anio\": 2025}, {\"param\": \"DBO (mg O2/l)\", \"valor\": \"7.76\", \"anio\": 2025}, {\"param\": \"DQO (mg O2/l)\", \"valor\": \"32\", \"anio\": 2025}, {\"param\": \"Oxígeno Disuelto (mg O2/l)\", \"valor\": \"7.35\", \"anio\": 2025}, {\"param\": \"Nitrógeno Total (mg N/l)\", \"valor\": \"3.35\", \"anio\": 2025}, {\"param\": \"Fósforo Total (mg P/l)\", \"valor\": \"0.166\", \"anio\": 2025}, {\"param\": \"Coliformes Fecales (NMP/100ml)\", \"valor\": \"459999.9999999999\", \"anio\": 2025}]"}},{"type":"Feature","geometry":{"type":"Point","coordinates":[-76.216132,4.129757]},"properties":{"Rio":"Rio Tulua","Punto_Monitoreo":"Rio Tulua - antes desembocadura a Río Cauca (vereda El Salto)","Latitud_WGS84":4.129757,"Longitud_WGS84":-76.216132,"N_Registros":13,"Año_Min":2016,"Año_Max":2025,"Fuente_CRS":"EPSG:3115","csv_filename":"Rio_Tulua_Rio_Tulua_antes_desembocadura_a_Rio_Cauca_vere.csv","parametros_recientes":"[{\"param\": \"pH Campo\", \"valor\": \"7.42\", \"anio\": 2025}, {\"param\": \"Temperatura Agua (°C)\", \"valor\": \"23.7\", \"anio\": 2025}, {\"param\": \"Turbiedad (UNT)\", \"valor\": \"37\", \"anio\": 2025}, {\"param\": \"Sólidos Suspendidos Totales (mg/l)\", \"valor\": \"20\", \"anio\": 2025}, {\"param\": \"DBO (mg O2/l)\", \"valor\": \"40.6\", \"anio\": 2025}, {\"param\": \"DQO (mg O2/l)\", \"valor\": \"85.8\", \"anio\": 2025}, {\"param\": \"Oxígeno Disuelto (mg O2/l)\", \"valor\": \"3.32\", \"anio\": 2025}, {\"param\": \"Nitrógeno Total (mg N/l)\", \"valor\": \"8.05\", \"anio\": 2025}, {\"param\": \"Fósforo Total (mg P/l)\", \"valor\": \"0.67\", \"anio\": 2025}, {\"param\": \"Coliformes Fecales (NMP/100ml)\", \"valor\": \"2400000\", \"anio\": 2025}]"}},{"type":"Feature","geometry":{"type":"Point","coordinates":[-76.372149,4.124056]},"properties":{"Rio":"Rio Riofrio","Punto_Monitoreo":"Rio Riofrio - Rio Valcanes","Latitud_WGS84":4.124056,"Longitud_WGS84":-76.372149,"N_Registros":18,"Año_Min":2016,"Año_Max":2025,"Fuente_CRS":"EPSG:3115","csv_filename":"Rio_Riofrio_Rio_Riofrio_Rio_Valcanes.csv","parametros_recientes":"[{\"param\": \"pH Campo\", \"valor\": \"8\", \"anio\": 2025}, {\"param\": \"Temperatura Agua (°C)\", \"valor\": \"21\", \"anio\": 2025}, {\"param\": \"Turbiedad (UNT)\", \"valor\": \"7.6\", \"anio\": 2025}, {\"param\": \"Sólidos Suspendidos Totales (mg/l)\", \"valor\": \"11.7\", \"anio\": 2025}, {\"param\": \"DBO (mg O2/l)\", \"valor\": \"0.924\", \"anio\": 2025}, {\"param\": \"DQO (mg O2/l)\", \"valor\": \"12.4\", \"anio\": 2025}, {\"param\": \"Oxígeno Disuelto (mg O2/l)\", \"valor\": \"7.4\", \"anio\": 2025}, {\"param\": \"Nitrógeno Total (mg N/l)\", \"valor\": \"1.4\", \"anio\": 2025}, {\"param\": \"Fósforo Total (mg P/l)\", \"valor\": \"0.0946\", \"anio\": 2025}, {\"param\": \"Coliformes Fecales (NMP/100ml)\", \"valor\": \"4300\", \"anio\": 2025}]"}},{"type":"Feature","geometry":{"type":"Point","coordinates":[-76.215194,3.265417]},"properties":{"Rio":"Rio Desbaratado","Punto_Monitoreo":"Antes de bocatoma cabecera Miranda","Latitud_WGS84":3.265417,"Longitud_WGS84":-76.215194,"N_Registros":18,"Año_Min":2019,"Año_Max":2026,"Fuente_CRS":"EPSG:3115 (CRC)","csv_filename":"Rio_Desbaratado_Antes_de_bocatoma_cabecera_Miranda.csv","parametros_recientes":"[{\"param\": \"pH Campo\", \"valor\": \"0\", \"anio\": 2026}, {\"param\": \"Temperatura Agua (°C)\", \"valor\": \"0\", \"anio\": 2026}, {\"param\": \"Turbiedad (UNT)\", \"valor\": \"0\", \"anio\": 2026}, {\"param\": \"Sólidos Suspendidos Totales (mg/l)\", \"valor\": \"0\", \"anio\": 2026}, {\"param\": \"DBO (mg O2/l)\", \"valor\": \"0\", \"anio\": 2026}, {\"param\": \"DQO (mg O2/l)\", \"valor\": \"0\", \"anio\": 2026}, {\"param\": \"Oxígeno Disuelto (mg O2/l)\", \"valor\": \"0\", \"anio\": 2026}, {\"param\": \"Nitrógeno Total (mg N/l)\", \"valor\": \"0.5\", \"anio\": 2023}, {\"param\": \"Fósforo Total (mg P/l)\", \"valor\": \"0.1\", \"anio\": 2023}, {\"param\": \"Coliformes Fecales (NMP/100ml)\", \"valor\": \"0\", \"anio\": 2026}]"}},{"type":"Feature","geometry":{"type":"Point","coordinates":[-76.306056,3.286]},"properties":{"Rio":"Rio Desbaratado","Punto_Monitoreo":"Antes de porcícola (Pte. Jordán)","Latitud_WGS84":3.286,"Longitud_WGS84":-76.306056,"N_Registros":18,"Año_Min":2019,"Año_Max":2026,"Fuente_CRS":"EPSG:3115 (CRC)","csv_filename":"Rio_Desbaratado_Antes_de_porcicola_Pte_Jordan.csv","parametros_recientes":"[{\"param\": \"pH Campo\", \"valor\": \"0\", \"anio\": 2026}, {\"param\": \"Temperatura Agua (°C)\", \"valor\": \"0\", \"anio\": 2026}, {\"param\": \"Turbiedad (UNT)\", \"valor\": \"0\", \"anio\": 2026}, {\"param\": \"Sólidos Suspendidos Totales (mg/l)\", \"valor\": \"0\", \"anio\": 2026}, {\"param\": \"DBO (mg O2/l)\", \"valor\": \"0\", \"anio\": 2026}, {\"param\": \"DQO (mg O2/l)\", \"valor\": \"0\", \"anio\": 2026}, {\"param\": \"Oxígeno Disuelto (mg O2/l)\", \"valor\": \"0\", \"anio\": 2026}, {\"param\": \"Nitrógeno Total (mg N/l)\", \"valor\": \"0.5\", \"anio\": 2023}, {\"param\": \"Fósforo Total (mg P/l)\", \"valor\": \"0.1\", \"anio\": 2023}, {\"param\": \"Coliformes Fecales (NMP/100ml)\", \"valor\": \"0\", \"anio\": 2026}]"}},{"type":"Feature","geometry":{"type":"Point","coordinates":[-76.319861,3.281778]},"properties":{"Rio":"Rio Desbaratado","Punto_Monitoreo":"Puente Ortigal","Latitud_WGS84":3.281778,"Longitud_WGS84":-76.319861,"N_Registros":18,"Año_Min":2019,"Año_Max":2026,"Fuente_CRS":"EPSG:3115 (CRC)","csv_filename":"Rio_Desbaratado_Puente_Ortigal.csv","parametros_recientes":"[{\"param\": \"pH Campo\", \"valor\": \"0\", \"anio\": 2026}, {\"param\": \"Temperatura Agua (°C)\", \"valor\": \"0\", \"anio\": 2026}, {\"param\": \"Turbiedad (UNT)\", \"valor\": \"0\", \"anio\": 2026}, {\"param\": \"Sólidos Suspendidos Totales (mg/l)\", \"valor\": \"0\", \"anio\": 2026}, {\"param\": \"DBO (mg O2/l)\", \"valor\": \"0\", \"anio\": 2026}, {\"param\": \"DQO (mg O2/l)\", \"valor\": \"0\", \"anio\": 2026}, {\"param\": \"Oxígeno Disuelto (mg O2/l)\", \"valor\": \"0\", \"anio\": 2026}, {\"param\": \"Nitrógeno Total (mg N/l)\", \"valor\": \"1.03\", \"anio\": 2023}, {\"param\": \"Fósforo Total (mg P/l)\", \"valor\": \"0.1\", \"anio\": 2023}, {\"param\": \"Coliformes Fecales (NMP/100ml)\", \"valor\": \"0\", \"anio\": 2026}]"}},{"type":"Feature","geometry":{"type":"Point","coordinates":[-76.41582,3.184316]},"properties":{"Rio":"Rio Palo","Punto_Monitoreo":"Antes Bocatoma Propal","Latitud_WGS84":3.184316,"Longitud_WGS84":-76.41582,"N_Registros":8,"Año_Min":2010,"Año_Max":2012,"Fuente_CRS":"Geovisor CVC (fuente CRC sin coordenadas)","csv_filename":"Rio_Palo_Antes_Bocatoma_Propal.csv","parametros_recientes":"[{\"param\": \"pH Campo\", \"valor\": \"7.78\", \"anio\": 2012}, {\"param\": \"Temperatura Agua (°C)\", \"valor\": \"25\", \"anio\": 2012}, {\"param\": \"Turbiedad (UNT)\", \"valor\": \"14.1\", \"anio\": 2012}, {\"param\": \"Sólidos Suspendidos Totales (mg/l)\", \"valor\": \"17.6\", \"anio\": 2012}, {\"param\": \"DBO (mg O2/l)\", \"valor\": \"0.5\", \"anio\": 2012}, {\"param\": \"DQO (mg O2/l)\", \"valor\": \"10\", \"anio\": 2012}, {\"param\": \"Oxígeno Disuelto (mg O2/l)\", \"valor\": \"6.71\", \"anio\": 2012}]"}},{"type":"Feature","geometry":{"type":"Point","coordinates":[-76.393917,3.128159]},"properties":{"Rio":"Rio Palo","Punto_Monitoreo":"Antes de PTAR Guachené","Latitud_WGS84":3.128159,"Longitud_WGS84":-76.393917,"N_Registros":25,"Año_Min":2016,"Año_Max":2025,"Fuente_CRS":"EPSG:3115 (CRC)","csv_filename":"Rio_Palo_Antes_de_PTAR_Guachene.csv","parametros_recientes":"[{\"param\": \"pH Campo\", \"valor\": \"6.75\", \"anio\": 2025}, {\"param\": \"Temperatura Agua (°C)\", \"valor\": \"20.61\", \"anio\": 2025}, {\"param\": \"Turbiedad (UNT)\", \"valor\": \"232\", \"anio\": 2025}, {\"param\": \"Sólidos Suspendidos Totales (mg/l)\", \"valor\": \"44\", \"anio\": 2025}, {\"param\": \"DBO (mg O2/l)\", \"valor\": \"10\", \"anio\": 2025}, {\"param\": \"DQO (mg O2/l)\", \"valor\": \"10\", \"anio\": 2025}, {\"param\": \"Oxígeno Disuelto (mg O2/l)\", \"valor\": \"6.22\", \"anio\": 2025}, {\"param\": \"Nitrógeno Total (mg N/l)\", \"valor\": \"0.75\", \"anio\": 2023}, {\"param\": \"Fósforo Total (mg P/l)\", \"valor\": \"0.1\", \"anio\": 2023}, {\"param\": \"Coliformes Fecales (NMP/100ml)\", \"valor\": \"140\", \"anio\": 2025}]"}},{"type":"Feature","geometry":{"type":"Point","coordinates":[-76.348686,3.061983]},"properties":{"Rio":"Rio Palo","Punto_Monitoreo":"Bocatoma corregimiento El Palo","Latitud_WGS84":3.061983,"Longitud_WGS84":-76.348686,"N_Registros":20,"Año_Min":2017,"Año_Max":2025,"Fuente_CRS":"EPSG:3115 (CRC)","csv_filename":"Rio_Palo_Bocatoma_corregimiento_El_Palo.csv","parametros_recientes":"[{\"param\": \"pH Campo\", \"valor\": \"5.4\", \"anio\": 2025}, {\"param\": \"Temperatura Agua (°C)\", \"valor\": \"17.3\", \"anio\": 2025}, {\"param\": \"Turbiedad (UNT)\", \"valor\": \"540\", \"anio\": 2025}, {\"param\": \"Sólidos Suspendidos Totales (mg/l)\", \"valor\": \"192\", \"anio\": 2025}, {\"param\": \"DBO (mg O2/l)\", \"valor\": \"10\", \"anio\": 2025}, {\"param\": \"DQO (mg O2/l)\", \"valor\": \"15\", \"anio\": 2025}, {\"param\": \"Oxígeno Disuelto (mg O2/l)\", \"valor\": \"7\", \"anio\": 2025}, {\"param\": \"Nitrógeno Total (mg N/l)\", \"valor\": \"0.82\", \"anio\": 2023}, {\"param\": \"Fósforo Total (mg P/l)\", \"valor\": \"0.1\", \"anio\": 2023}, {\"param\": \"Coliformes Fecales (NMP/100ml)\", \"valor\": \"200\", \"anio\": 2025}]"}},{"type":"Feature","geometry":{"type":"Point","coordinates":[-76.458543,3.259067]},"properties":{"Rio":"Rio Palo","Punto_Monitoreo":"Desembocadura a río Cauca","Latitud_WGS84":3.259067,"Longitud_WGS84":-76.458543,"N_Registros":25,"Año_Min":2016,"Año_Max":2025,"Fuente_CRS":"EPSG:3115 (CRC)","csv_filename":"Rio_Palo_Desembocadura_a_rio_Cauca.csv","parametros_recientes":"[{\"param\": \"pH Campo\", \"valor\": \"7.02\", \"anio\": 2025}, {\"param\": \"Temperatura Agua (°C)\", \"valor\": \"21.71\", \"anio\": 2025}, {\"param\": \"Turbiedad (UNT)\", \"valor\": \"604\", \"anio\": 2025}, {\"param\": \"Sólidos Suspendidos Totales (mg/l)\", \"valor\": \"140\", \"anio\": 2025}, {\"param\": \"DBO (mg O2/l)\", \"valor\": \"10\", \"anio\": 2025}, {\"param\": \"DQO (mg O2/l)\", \"valor\": \"38.7\", \"anio\": 2025}, {\"param\": \"Oxígeno Disuelto (mg O2/l)\", \"valor\": \"5.89\", \"anio\": 2025}, {\"param\": \"Nitrógeno Total (mg N/l)\", \"valor\": \"1.66\", \"anio\": 2023}, {\"param\": \"Fósforo Total (mg P/l)\", \"valor\": \"0.1\", \"anio\": 2023}, {\"param\": \"Coliformes Fecales (NMP/100ml)\", \"valor\": \"240\", \"anio\": 2025}]"}},{"type":"Feature","geometry":{"type":"Point","coordinates":[-76.403417,3.133156]},"properties":{"Rio":"Rio Palo","Punto_Monitoreo":"Después de PTAR Guachené","Latitud_WGS84":3.133156,"Longitud_WGS84":-76.403417,"N_Registros":22,"Año_Min":2017,"Año_Max":2025,"Fuente_CRS":"EPSG:3115 (CRC)","csv_filename":"Rio_Palo_Despues_de_PTAR_Guachene.csv","parametros_recientes":"[{\"param\": \"pH Campo\", \"valor\": \"6.6\", \"anio\": 2025}, {\"param\": \"Temperatura Agua (°C)\", \"valor\": \"20.32\", \"anio\": 2025}, {\"param\": \"Turbiedad (UNT)\", \"valor\": \"286\", \"anio\": 2025}, {\"param\": \"Sólidos Suspendidos Totales (mg/l)\", \"valor\": \"94.7\", \"anio\": 2025}, {\"param\": \"DBO (mg O2/l)\", \"valor\": \"10\", \"anio\": 2025}, {\"param\": \"DQO (mg O2/l)\", \"valor\": \"10\", \"anio\": 2025}, {\"param\": \"Oxígeno Disuelto (mg O2/l)\", \"valor\": \"6.31\", \"anio\": 2025}, {\"param\": \"Nitrógeno Total (mg N/l)\", \"valor\": \"0.76\", \"anio\": 2023}, {\"param\": \"Fósforo Total (mg P/l)\", \"valor\": \"0.1\", \"anio\": 2023}, {\"param\": \"Coliformes Fecales (NMP/100ml)\", \"valor\": \"80\", \"anio\": 2025}]"}},{"type":"Feature","geometry":{"type":"Point","coordinates":[-76.414101,3.205258]},"properties":{"Rio":"Rio Palo","Punto_Monitoreo":"Puente PICC","Latitud_WGS84":3.205258,"Longitud_WGS84":-76.414101,"N_Registros":22,"Año_Min":2017,"Año_Max":2025,"Fuente_CRS":"EPSG:3115 (CRC)","csv_filename":"Rio_Palo_Puente_PICC.csv","parametros_recientes":"[{\"param\": \"pH Campo\", \"valor\": \"6.89\", \"anio\": 2025}, {\"param\": \"Temperatura Agua (°C)\", \"valor\": \"22.5\", \"anio\": 2025}, {\"param\": \"Turbiedad (UNT)\", \"valor\": \"644\", \"anio\": 2025}, {\"param\": \"Sólidos Suspendidos Totales (mg/l)\", \"valor\": \"163\", \"anio\": 2025}, {\"param\": \"DBO (mg O2/l)\", \"valor\": \"10\", \"anio\": 2025}, {\"param\": \"DQO (mg O2/l)\", \"valor\": \"15\", \"anio\": 2025}, {\"param\": \"Oxígeno Disuelto (mg O2/l)\", \"valor\": \"5.68\", \"anio\": 2025}, {\"param\": \"Nitrógeno Total (mg N/l)\", \"valor\": \"0.96\", \"anio\": 2023}, {\"param\": \"Fósforo Total (mg P/l)\", \"valor\": \"0.1\", \"anio\": 2023}, {\"param\": \"Coliformes Fecales (NMP/100ml)\", \"valor\": \"100\", \"anio\": 2025}]"}},{"type":"Feature","geometry":{"type":"Point","coordinates":[-76.421797,3.216244]},"properties":{"Rio":"Rio Palo","Punto_Monitoreo":"Puente Perico Negro","Latitud_WGS84":3.216244,"Longitud_WGS84":-76.421797,"N_Registros":25,"Año_Min":2016,"Año_Max":2025,"Fuente_CRS":"EPSG:3115 (CRC)","csv_filename":"Rio_Palo_Puente_Perico_Negro.csv","parametros_recientes":"[{\"param\": \"pH Campo\", \"valor\": \"6.79\", \"anio\": 2025}, {\"param\": \"Temperatura Agua (°C)\", \"valor\": \"21.3\", \"anio\": 2025}, {\"param\": \"Turbiedad (UNT)\", \"valor\": \"672\", \"anio\": 2025}, {\"param\": \"Sólidos Suspendidos Totales (mg/l)\", \"valor\": \"130\", \"anio\": 2025}, {\"param\": \"DBO (mg O2/l)\", \"valor\": \"10\", \"anio\": 2025}, {\"param\": \"DQO (mg O2/l)\", \"valor\": \"15\", \"anio\": 2025}, {\"param\": \"Oxígeno Disuelto (mg O2/l)\", \"valor\": \"6.06\", \"anio\": 2025}, {\"param\": \"Nitrógeno Total (mg N/l)\", \"valor\": \"1.1\", \"anio\": 2023}, {\"param\": \"Fósforo Total (mg P/l)\", \"valor\": \"0.1\", \"anio\": 2023}, {\"param\": \"Coliformes Fecales (NMP/100ml)\", \"valor\": \"80\", \"anio\": 2025}]"}},{"type":"Feature","geometry":{"type":"Point","coordinates":[-76.422429,3.230295]},"properties":{"Rio":"Rio Palo","Punto_Monitoreo":"Puente Puerto Tejada","Latitud_WGS84":3.230295,"Longitud_WGS84":-76.422429,"N_Registros":22,"Año_Min":2017,"Año_Max":2025,"Fuente_CRS":"EPSG:3115 (CRC)","csv_filename":"Rio_Palo_Puente_Puerto_Tejada.csv","parametros_recientes":"[{\"param\": \"pH Campo\", \"valor\": \"7.04\", \"anio\": 2025}, {\"param\": \"Temperatura Agua (°C)\", \"valor\": \"21.84\", \"anio\": 2025}, {\"param\": \"Turbiedad (UNT)\", \"valor\": \"548\", \"anio\": 2025}, {\"param\": \"Sólidos Suspendidos Totales (mg/l)\", \"valor\": \"129\", \"anio\": 2025}, {\"param\": \"DBO (mg O2/l)\", \"valor\": \"10\", \"anio\": 2025}, {\"param\": \"DQO (mg O2/l)\", \"valor\": \"15\", \"anio\": 2025}, {\"param\": \"Oxígeno Disuelto (mg O2/l)\", \"valor\": \"5.96\", \"anio\": 2025}, {\"param\": \"Nitrógeno Total (mg N/l)\", \"valor\": \"1.57\", \"anio\": 2023}, {\"param\": \"Fósforo Total (mg P/l)\", \"valor\": \"0.1\", \"anio\": 2023}, {\"param\": \"Coliformes Fecales (NMP/100ml)\", \"valor\": \"160\", \"anio\": 2025}]"}},{"type":"Feature","geometry":{"type":"Point","coordinates":[-76.419846,3.163996]},"properties":{"Rio":"Rio Palo","Punto_Monitoreo":"Puente del Maíz","Latitud_WGS84":3.163996,"Longitud_WGS84":-76.419846,"N_Registros":22,"Año_Min":2017,"Año_Max":2025,"Fuente_CRS":"EPSG:3115 (CRC)","csv_filename":"Rio_Palo_Puente_del_Maiz.csv","parametros_recientes":"[{\"param\": \"pH Campo\", \"valor\": \"6.75\", \"anio\": 2025}, {\"param\": \"Temperatura Agua (°C)\", \"valor\": \"20.61\", \"anio\": 2025}, {\"param\": \"Turbiedad (UNT)\", \"valor\": \"620\", \"anio\": 2025}, {\"param\": \"Sólidos Suspendidos Totales (mg/l)\", \"valor\": \"170\", \"anio\": 2025}, {\"param\": \"DBO (mg O2/l)\", \"valor\": \"10\", \"anio\": 2025}, {\"param\": \"DQO (mg O2/l)\", \"valor\": \"15\", \"anio\": 2025}, {\"param\": \"Oxígeno Disuelto (mg O2/l)\", \"valor\": \"6.22\", \"anio\": 2025}, {\"param\": \"Nitrógeno Total (mg N/l)\", \"valor\": \"0.93\", \"anio\": 2023}, {\"param\": \"Fósforo Total (mg P/l)\", \"valor\": \"0.1\", \"anio\": 2023}, {\"param\": \"Coliformes Fecales (NMP/100ml)\", \"valor\": \"30\", \"anio\": 2025}]"}},{"type":"Feature","geometry":{"type":"Point","coordinates":[-76.46275,3.516139]},"properties":{"Rio":"Rio Guachal","Punto_Monitoreo":"GG1 - Después Confluencia Ríos Fraile Y Bolo","Latitud_WGS84":3.516139,"Longitud_WGS84":-76.46275,"N_Registros":0,"Año_Min":null,"Año_Max":null,"Fuente_CRS":"EPSG:3115 (PORH CVC-Univalle Convenio 245-021, 2023)","csv_filename":"Rio_Guachal_GG1_Despues_Confluencia_Rios_Fraile_Y_Bolo.csv","parametros_recientes":"[]"}},{"type":"Feature","geometry":{"type":"Point","coordinates":[-76.456596,3.559772]},"properties":{"Rio":"Rio Guachal","Punto_Monitoreo":"GG2 - Puente vía Yumbo-Aeropuerto","Latitud_WGS84":3.559772,"Longitud_WGS84":-76.456596,"N_Registros":0,"Año_Min":null,"Año_Max":null,"Fuente_CRS":"EPSG:3115 (PORH CVC-Univalle Convenio 245-021, 2023)","csv_filename":"Rio_Guachal_GG2_Puente_via_Yumbo_Aeropuerto.csv","parametros_recientes":"[]"}}]}